{"type": "FeatureCollection", "features": [
{"id":"1572dfad-922a-4393-a374-309ad6d127b7","type":"Feature","geometry":{"type":"Polygon","coordinates":[[[130.8394756,-12.4614687],[130.8395022,-12.4614943],[130.8396925,-12.4613058],[130.8394342,-12.4610571],[130.8394152,-12.4610759],[130.8393987,-12.46106],[130.8393887,-12.4610698],[130.8393436,-12.4610264],[130.8390739,-12.4612934],[130.8391037,-12.4613221],[130.8390943,-12.4613314],[130.8391872,-12.4614209],[130.8392027,-12.4614056],[130.8392748,-12.4614751],[130.839259,-12.4614909],[130.8393575,-12.4615857],[130.8394756,-12.4614687]]]},"properties":{"names":{"primary":"NAB House","common":null,"rules":null},"sources":[{"property":"","dataset":"OpenStreetMap","license":"ODbL-1.0","record_id":"w248921841@7","update_time":"2025-03-06T09:36:16.000Z","confidence":null,"between":null,"provider":"osm","resource":"planet","version":"2026-08-02T00:00:00.000Z"},{"property":"/properties/height","dataset":"Microsoft ML Buildings","license":"ODbL-1.0","record_id":null,"update_time":"2000-01-01T00:00:00.000Z","confidence":null,"between":null,"provider":"microsoft","resource":"ml_buildings","version":"2025-02-25"}],"height":19.988252639770508,"is_underground":false,"num_floors":6,"subtype":"commercial","class":"office","has_parts":false,"version":2}},
{"id":"e4aa61c3-3ac3-45e0-9d1b-beea3bd02e47","type":"Feature","geometry":{"type":"Polygon","coordinates":[[[130.8390881,-12.4612005],[130.8393227,-12.4609712],[130.838973,-12.4606301],[130.8387384,-12.4608594],[130.8389461,-12.461062],[130.8390881,-12.4612005]]]},"properties":{"names":{"primary":"Dragonfly Car Park","common":null,"rules":null},"sources":[{"property":"","dataset":"OpenStreetMap","license":"ODbL-1.0","record_id":"w248921836@7","update_time":"2025-12-20T08:36:10.000Z","confidence":null,"between":null,"provider":"osm","resource":"planet","version":"2026-08-02T00:00:00.000Z"}],"is_underground":false,"subtype":"transportation","class":"parking","has_parts":false,"version":3}},
{"id":"498c0b31-1b90-4052-be99-851bd66f2345","type":"Feature","geometry":{"type":"Polygon","coordinates":[[[130.8380365,-12.4612878],[130.8382494,-12.4614976],[130.8382627,-12.4615014],[130.838277,-12.4614998],[130.8384016,-12.4613836],[130.8384096,-12.4613842],[130.8384169,-12.4613806],[130.8385688,-12.4612272],[130.8385694,-12.4612189],[130.8385658,-12.4612117],[130.8385563,-12.4612031],[130.8386305,-12.4611258],[130.8386317,-12.4611181],[130.8386281,-12.4611087],[130.8385283,-12.4610134],[130.838535,-12.4610067],[130.8383732,-12.460852],[130.8383645,-12.4608492],[130.8383557,-12.4608525],[130.8382754,-12.4609333],[130.838237,-12.4608969],[130.8382292,-12.4608946],[130.8382207,-12.4608965],[130.838214,-12.460903],[130.8381183,-12.4609955],[130.8382274,-12.4611031],[130.8380398,-12.4612846],[130.8380365,-12.4612878]]]},"properties":{"names":{"primary":"Flick's","common":null,"rules":null},"sources":[{"property":"","dataset":"OpenStreetMap","license":"ODbL-1.0","record_id":"w372699336@4","update_time":"2026-03-01T23:46:00.000Z","confidence":null,"between":null,"provider":"osm","resource":"planet","version":"2026-08-02T00:00:00.000Z"},{"property":"/properties/height","dataset":"Microsoft ML Buildings","license":"ODbL-1.0","record_id":null,"update_time":"2000-01-01T00:00:00.000Z","confidence":null,"between":null,"provider":"microsoft","resource":"ml_buildings","version":"2025-02-25"}],"height":9.54517936706543,"is_underground":false,"subtype":"commercial","class":"retail","has_parts":false,"version":3}},
{"id":"d43c2224-1d0f-4572-93d1-ce51ea89eef0","type":"Feature","geometry":{"type":"Polygon","coordinates":[[[130.8384994,-12.460279],[130.8381837,-12.4605913],[130.8386921,-12.4610813],[130.8387881,-12.4609863],[130.8384284,-12.4606396],[130.8384429,-12.4606252],[130.838504,-12.4605648],[130.8387648,-12.4608162],[130.8389089,-12.4606737],[130.8386917,-12.4604664],[130.8386522,-12.4604297],[130.8384994,-12.460279]]]},"properties":{"names":{"primary":"Courtyard","common":null,"rules":[{"variant":"official","language":null,"perspectives":null,"value":"Courtyard by Marriott","between":null,"side":null}]},"sources":[{"property":"","dataset":"OpenStreetMap","license":"ODbL-1.0","record_id":"w333696001@8","update_time":"2025-06-19T03:45:48.000Z","confidence":null,"between":null,"provider":"osm","resource":"planet","version":"2026-08-02T00:00:00.000Z"},{"property":"/properties/height","dataset":"Microsoft ML Buildings","license":"ODbL-1.0","record_id":null,"update_time":"2000-01-01T00:00:00.000Z","confidence":null,"between":null,"provider":"microsoft","resource":"ml_buildings","version":"2025-02-25"}],"height":12.602062225341797,"is_underground":false,"subtype":"commercial","class":"hotel","has_parts":false,"version":2}},
{"id":"cb5a85d6-41e8-4d6d-ae1f-1ec40c16c348","type":"Feature","geometry":{"type":"Polygon","coordinates":[[[130.8383913,-12.4595551],[130.8385854,-12.4597414],[130.8387588,-12.4595692],[130.8385648,-12.4593829],[130.8385195,-12.4594279],[130.8383913,-12.4595551]],[[130.8386478,-12.4595709],[130.8385867,-12.4596305],[130.838508,-12.4595535],[130.8385691,-12.459494],[130.8386478,-12.4595709]]]},"properties":{"sources":[{"property":"","dataset":"OpenStreetMap","license":"ODbL-1.0","record_id":"r5541631@1","update_time":"2020-06-03T03:49:35.000Z","confidence":null,"between":null,"provider":"osm","resource":"planet","version":"2026-08-02T00:00:00.000Z"},{"property":"/properties/height","dataset":"Microsoft ML Buildings","license":"ODbL-1.0","record_id":null,"update_time":"2000-01-01T00:00:00.000Z","confidence":null,"between":null,"provider":"microsoft","resource":"ml_buildings","version":"2025-02-25"}],"height":9.209237098693848,"is_underground":false,"has_parts":false,"version":3}},
{"id":"0214e0b7-a44d-4d70-aa5d-36f5e05a109e","type":"Feature","geometry":{"type":"Polygon","coordinates":[[[130.8385114,-12.4598456],[130.8385458,-12.4598223],[130.8385031,-12.4597622],[130.8384687,-12.4597855],[130.8385114,-12.4598456]]]},"properties":{"sources":[{"property":"","dataset":"Microsoft ML Buildings","license":"ODbL-1.0","record_id":null,"update_time":"2000-01-01T00:00:00.000Z","confidence":null,"between":null,"provider":"microsoft","resource":"ml_buildings","version":"2025-02-25"}],"height":4.699541091918945,"is_underground":false,"has_parts":false,"version":3}},
{"id":"7fd75f4a-1e03-4ffa-bb39-ab762a443abe","type":"Feature","geometry":{"type":"Polygon","coordinates":[[[130.8386837,-12.459204],[130.8385506,-12.4593363],[130.8387737,-12.4595501],[130.8389068,-12.4594178],[130.8386837,-12.459204]]]},"properties":{"sources":[{"property":"","dataset":"OpenStreetMap","license":"ODbL-1.0","record_id":"w372699839@2","update_time":"2018-01-07T13:09:13.000Z","confidence":null,"between":null,"provider":"osm","resource":"planet","version":"2026-08-02T00:00:00.000Z"}],"is_underground":false,"has_parts":false,"version":1}},
{"id":"63e39eee-7f47-44b3-87f7-559e01e098e6","type":"Feature","geometry":{"type":"Polygon","coordinates":[[[130.8387215,-12.4603586],[130.8386522,-12.4604297],[130.8386917,-12.4604664],[130.8387173,-12.4604402],[130.8387403,-12.460442],[130.8389322,-12.4606206],[130.8389757,-12.4605761],[130.8387881,-12.4604015],[130.8387784,-12.4604114],[130.8387215,-12.4603586]]]},"properties":{"sources":[{"property":"","dataset":"OpenStreetMap","license":"ODbL-1.0","record_id":"w1375469646@1","update_time":"2025-04-07T03:27:29.000Z","confidence":null,"between":null,"provider":"osm","resource":"planet","version":"2026-08-02T00:00:00.000Z"}],"level":1,"is_underground":false,"subtype":"outbuilding","class":"roof","has_parts":false,"version":1}},
{"id":"e9919cef-06b4-40c2-8b55-bb7bb8005397","type":"Feature","geometry":{"type":"Polygon","coordinates":[[[130.8391442,-12.4602518],[130.8390354,-12.4603575],[130.8392524,-12.4605703],[130.8392621,-12.4605608],[130.8393963,-12.4604303],[130.8394101,-12.4604169],[130.8392971,-12.4603062],[130.8392482,-12.4603537],[130.8391442,-12.4602518]]]},"properties":{"sources":[{"property":"","dataset":"OpenStreetMap","license":"ODbL-1.0","record_id":"w372699342@5","update_time":"2025-02-21T22:07:06.000Z","confidence":null,"between":null,"provider":"osm","resource":"planet","version":"2026-08-02T00:00:00.000Z"}],"is_underground":false,"num_floors":2,"subtype":"commercial","class":"office","has_parts":false,"version":1}},
{"id":"2a46ad47-b7a8-46af-922e-607eb4d47e75","type":"Feature","geometry":{"type":"Polygon","coordinates":[[[130.8393963,-12.4604303],[130.8392621,-12.4605608],[130.8394595,-12.4607543],[130.8395937,-12.4606238],[130.8393963,-12.4604303]]]},"properties":{"sources":[{"property":"","dataset":"OpenStreetMap","license":"ODbL-1.0","record_id":"w372699337@4","update_time":"2025-06-18T11:51:51.000Z","confidence":null,"between":null,"provider":"osm","resource":"planet","version":"2026-08-02T00:00:00.000Z"}],"is_underground":false,"subtype":"commercial","class":"office","has_parts":false,"version":1}},
{"id":"03e9c3c2-d3e2-46d3-8e98-0c75c9797d3e","type":"Feature","geometry":{"type":"Polygon","coordinates":[[[130.8392945,-12.4600638],[130.8391866,-12.460173],[130.8393967,-12.460371],[130.8395046,-12.4602618],[130.8392945,-12.4600638]]]},"properties":{"sources":[{"property":"","dataset":"OpenStreetMap","license":"ODbL-1.0","record_id":"w372699338@1","update_time":"2015-09-28T13:16:03.000Z","confidence":null,"between":null,"provider":"osm","resource":"planet","version":"2026-08-02T00:00:00.000Z"},{"property":"/properties/height","dataset":"Microsoft ML Buildings","license":"ODbL-1.0","record_id":null,"update_time":"2000-01-01T00:00:00.000Z","confidence":null,"between":null,"provider":"microsoft","resource":"ml_buildings","version":"2025-02-25"}],"height":7.090341567993164,"is_underground":false,"has_parts":false,"version":2}},
{"id":"521bfec7-4715-47ba-973d-e7227b5627cf","type":"Feature","geometry":{"type":"Polygon","coordinates":[[[130.8394146,-12.459346],[130.8392126,-12.4595441],[130.8392849,-12.4596143],[130.8394868,-12.4594162],[130.8394146,-12.459346]]]},"properties":{"names":{"primary":"St Mary's Primary School","common":null,"rules":null},"sources":[{"property":"","dataset":"OpenStreetMap","license":"ODbL-1.0","record_id":"w372699842@7","update_time":"2025-06-18T07:57:02.000Z","confidence":null,"between":null,"provider":"osm","resource":"planet","version":"2026-08-02T00:00:00.000Z"}],"is_underground":false,"subtype":"education","class":"school","has_parts":false,"version":1}},
{"id":"5c0b58b6-9cd3-484b-9598-9921c2470ca6","type":"Feature","geometry":{"type":"Polygon","coordinates":[[[130.8391704,-12.4594894],[130.8392175,-12.4595325],[130.8393995,-12.4593431],[130.8393296,-12.459279],[130.8392895,-12.4593208],[130.8392324,-12.4592686],[130.8391507,-12.4593535],[130.8392306,-12.4594267],[130.8391704,-12.4594894]]]},"properties":{"sources":[{"property":"","dataset":"Microsoft ML Buildings","license":"ODbL-1.0","record_id":null,"update_time":"2000-01-01T00:00:00.000Z","confidence":null,"between":null,"provider":"microsoft","resource":"ml_buildings","version":"2025-02-25"}],"height":6.390047073364258,"is_underground":false,"has_parts":false,"version":3}},
{"id":"4c4c3253-c11a-484e-94fe-cb2a5cfbf4f4","type":"Feature","geometry":{"type":"Polygon","coordinates":[[[130.8392139,-12.4594356],[130.8391329,-12.4593536],[130.8392343,-12.4592581],[130.8392898,-12.4593143],[130.8393282,-12.4592781],[130.8392338,-12.4591826],[130.8391782,-12.459235],[130.8391407,-12.459197],[130.8390574,-12.4592756],[130.8391009,-12.4593195],[130.8390486,-12.4593687],[130.8391626,-12.459484],[130.8392139,-12.4594356]]]},"properties":{"sources":[{"property":"","dataset":"Microsoft ML Buildings","license":"ODbL-1.0","record_id":null,"update_time":"2000-01-01T00:00:00.000Z","confidence":null,"between":null,"provider":"microsoft","resource":"ml_buildings","version":"2025-02-25"}],"height":6.572952747344971,"is_underground":false,"has_parts":false,"version":3}},
{"id":"45ee6f3f-5fca-4398-b002-92a4fadcdd49","type":"Feature","geometry":{"type":"Polygon","coordinates":[[[130.8390465,-12.4593827],[130.8389753,-12.4594526],[130.8392676,-12.4597366],[130.8393388,-12.4596668],[130.8392849,-12.4596143],[130.8392126,-12.4595441],[130.8390465,-12.4593827]]]},"properties":{"sources":[{"property":"","dataset":"OpenStreetMap","license":"ODbL-1.0","record_id":"w372699845@4","update_time":"2018-01-07T13:09:13.000Z","confidence":null,"between":null,"provider":"osm","resource":"planet","version":"2026-08-02T00:00:00.000Z"},{"property":"/properties/height","dataset":"Microsoft ML Buildings","license":"ODbL-1.0","record_id":null,"update_time":"2000-01-01T00:00:00.000Z","confidence":null,"between":null,"provider":"microsoft","resource":"ml_buildings","version":"2025-02-25"}],"height":7.633288383483887,"is_underground":false,"subtype":"education","class":"school","has_parts":false,"version":2}},
{"id":"6173735c-a722-4a3d-8e8f-e72d9b0fd9c3","type":"Feature","geometry":{"type":"Polygon","coordinates":[[[130.8391162,-12.4590016],[130.8388094,-12.4593108],[130.8388949,-12.4593917],[130.8392017,-12.4590824],[130.8391162,-12.4590016]]]},"properties":{"sources":[{"property":"","dataset":"OpenStreetMap","license":"ODbL-1.0","record_id":"w372699841@2","update_time":"2018-01-07T13:09:13.000Z","confidence":null,"between":null,"provider":"osm","resource":"planet","version":"2026-08-02T00:00:00.000Z"}],"is_underground":false,"subtype":"education","class":"school","has_parts":false,"version":1}},
{"id":"e363fed2-4a83-4bc5-bee4-5debf10199b1","type":"Feature","geometry":{"type":"Polygon","coordinates":[[[130.8392667,-12.4590605],[130.8391941,-12.4591317],[130.8394146,-12.459346],[130.8394868,-12.4594162],[130.8395406,-12.4594684],[130.8396132,-12.4593973],[130.8392667,-12.4590605]]]},"properties":{"sources":[{"property":"","dataset":"OpenStreetMap","license":"ODbL-1.0","record_id":"w372699844@3","update_time":"2017-08-26T22:40:48.000Z","confidence":null,"between":null,"provider":"osm","resource":"planet","version":"2026-08-02T00:00:00.000Z"},{"property":"/properties/height","dataset":"Microsoft ML Buildings","license":"ODbL-1.0","record_id":null,"update_time":"2000-01-01T00:00:00.000Z","confidence":null,"between":null,"provider":"microsoft","resource":"ml_buildings","version":"2025-02-25"}],"height":6.364276885986328,"is_underground":false,"subtype":"education","class":"school","has_parts":false,"version":2}},
{"id":"1f70f32d-58a7-4330-a640-eebe9556b745","type":"Feature","geometry":{"type":"Polygon","coordinates":[[[130.8393667,-12.4584336],[130.8392497,-12.4585469],[130.8394245,-12.458719],[130.8395774,-12.4585709],[130.8394026,-12.4583988],[130.8393667,-12.4584336]]]},"properties":{"sources":[{"property":"","dataset":"OpenStreetMap","license":"ODbL-1.0","record_id":"w372864120@1","update_time":"2015-09-29T18:26:56.000Z","confidence":null,"between":null,"provider":"osm","resource":"planet","version":"2026-08-02T00:00:00.000Z"},{"property":"/properties/height","dataset":"Microsoft ML Buildings","license":"ODbL-1.0","record_id":null,"update_time":"2000-01-01T00:00:00.000Z","confidence":null,"between":null,"provider":"microsoft","resource":"ml_buildings","version":"2025-02-25"}],"height":7.595850467681885,"is_underground":false,"has_parts":false,"version":2}},
{"id":"88dedffc-bd8c-4eb2-893e-12f9a3559468","type":"Feature","geometry":{"type":"Polygon","coordinates":[[[130.8391879,-12.4582575],[130.8390709,-12.4583708],[130.8392497,-12.4585469],[130.8393667,-12.4584336],[130.8391879,-12.4582575]]]},"properties":{"sources":[{"property":"","dataset":"OpenStreetMap","license":"ODbL-1.0","record_id":"w372864111@1","update_time":"2015-09-29T18:26:55.000Z","confidence":null,"between":null,"provider":"osm","resource":"planet","version":"2026-08-02T00:00:00.000Z"}],"is_underground":false,"has_parts":false,"version":1}},
{"id":"435fd036-468d-4610-b081-75aaf2f1e1c2","type":"Feature","geometry":{"type":"Polygon","coordinates":[[[130.8389158,-12.4586413],[130.8387263,-12.4588288],[130.8387967,-12.4588967],[130.8389862,-12.4587092],[130.8389158,-12.4586413]]]},"properties":{"sources":[{"property":"","dataset":"OpenStreetMap","license":"ODbL-1.0","record_id":"w372699843@2","update_time":"2018-01-07T13:09:13.000Z","confidence":null,"between":null,"provider":"osm","resource":"planet","version":"2026-08-02T00:00:00.000Z"},{"property":"/properties/height","dataset":"Microsoft ML Buildings","license":"ODbL-1.0","record_id":null,"update_time":"2000-01-01T00:00:00.000Z","confidence":null,"between":null,"provider":"microsoft","resource":"ml_buildings","version":"2025-02-25"}],"height":6.203077793121338,"is_underground":false,"subtype":"education","class":"kindergarten","has_parts":false,"version":2}},
{"id":"e748d9b5-10c4-4dfc-a38d-4dee7630c14b","type":"Feature","geometry":{"type":"Polygon","coordinates":[[[130.8385528,-12.4591331],[130.8385492,-12.4591366],[130.8386311,-12.4592169],[130.838645,-12.4592305],[130.8387719,-12.4591069],[130.8388154,-12.4591496],[130.8388748,-12.4590918],[130.8388294,-12.4590474],[130.8388745,-12.4590035],[130.8387803,-12.4589112],[130.8387495,-12.4589412],[130.8387269,-12.4589192],[130.8386722,-12.4589724],[130.8386948,-12.4589945],[130.838644,-12.4590439],[130.8386208,-12.4590211],[130.8385294,-12.4591101],[130.8385528,-12.4591331]]]},"properties":{"sources":[{"property":"","dataset":"OpenStreetMap","license":"ODbL-1.0","record_id":"w372701336@1","update_time":"2015-09-28T13:34:12.000Z","confidence":null,"between":null,"provider":"osm","resource":"planet","version":"2026-08-02T00:00:00.000Z"},{"property":"/properties/height","dataset":"Microsoft ML Buildings","license":"ODbL-1.0","record_id":null,"update_time":"2000-01-01T00:00:00.000Z","confidence":null,"between":null,"provider":"microsoft","resource":"ml_buildings","version":"2025-02-25"}],"height":6.726933002471924,"is_underground":false,"has_parts":false,"version":2}},
{"id":"09eba2a5-eda6-4b50-8605-96798bfd24f1","type":"Feature","geometry":{"type":"Polygon","coordinates":[[[130.8387327,-12.4588985],[130.8386892,-12.4588555],[130.838604,-12.4589377],[130.8386475,-12.4589807],[130.8387327,-12.4588985]]]},"properties":{"sources":[{"property":"","dataset":"OpenStreetMap","license":"ODbL-1.0","record_id":"w372701343@1","update_time":"2015-09-28T13:34:12.000Z","confidence":null,"between":null,"provider":"osm","resource":"planet","version":"2026-08-02T00:00:00.000Z"}],"is_underground":false,"has_parts":false,"version":1}},
{"id":"fb5d8f78-6709-42e9-82c7-e94c3cdeece8","type":"Feature","geometry":{"type":"Polygon","coordinates":[[[130.8386368,-12.4584475],[130.8384382,-12.4586451],[130.8385715,-12.4587728],[130.8386255,-12.4587191],[130.8385499,-12.4586466],[130.8386227,-12.4585741],[130.838699,-12.4586471],[130.8387527,-12.4585936],[130.8386955,-12.4585388],[130.8386639,-12.4585086],[130.8386819,-12.4584907],[130.8386368,-12.4584475]]]},"properties":{"sources":[{"property":"","dataset":"OpenStreetMap","license":"ODbL-1.0","record_id":"w372699838@2","update_time":"2020-06-03T03:49:35.000Z","confidence":null,"between":null,"provider":"osm","resource":"planet","version":"2026-08-02T00:00:00.000Z"},{"property":"/properties/height","dataset":"Microsoft ML Buildings","license":"ODbL-1.0","record_id":null,"update_time":"2000-01-01T00:00:00.000Z","confidence":null,"between":null,"provider":"microsoft","resource":"ml_buildings","version":"2025-02-25"}],"height":6.748345375061035,"is_underground":false,"has_parts":false,"version":2}},
{"id":"ff258e23-dd3a-4ab7-ab66-0dc5000a625e","type":"Feature","geometry":{"type":"Polygon","coordinates":[[[130.8385074,-12.4592108],[130.8384785,-12.4592347],[130.8385454,-12.4593003],[130.8386311,-12.4592169],[130.8385492,-12.4591366],[130.8385419,-12.4591295],[130.8385074,-12.4592108]]]},"properties":{"sources":[{"property":"","dataset":"OpenStreetMap","license":"ODbL-1.0","record_id":"w372701344@1","update_time":"2015-09-28T13:34:13.000Z","confidence":null,"between":null,"provider":"osm","resource":"planet","version":"2026-08-02T00:00:00.000Z"}],"is_underground":false,"has_parts":false,"version":1}},
{"id":"d796f666-9c24-4e97-9f63-5e00d4720436","type":"Feature","geometry":{"type":"Polygon","coordinates":[[[130.8381207,-12.4590476],[130.8380063,-12.4591583],[130.8380602,-12.4592096],[130.8380467,-12.4592242],[130.8380719,-12.4592483],[130.838093,-12.4592686],[130.8381087,-12.4592562],[130.8381426,-12.4592878],[130.8381376,-12.4592996],[130.8381695,-12.4593221],[130.8381907,-12.4593003],[130.8382027,-12.4593083],[130.838237,-12.4592701],[130.8382046,-12.4592355],[130.8383064,-12.4591357],[130.8383224,-12.4591512],[130.8383567,-12.4591846],[130.8384355,-12.4591073],[130.8384172,-12.4590897],[130.8384362,-12.4590696],[130.8384028,-12.4590352],[130.8384361,-12.4590018],[130.8384674,-12.4590323],[130.8385347,-12.4589664],[130.8383491,-12.4587858],[130.8382804,-12.458853],[130.8383195,-12.458891],[130.8382692,-12.4589403],[130.838212,-12.4588846],[130.8381261,-12.4589661],[130.8381665,-12.4590033],[130.8381207,-12.4590476]]]},"properties":{"names":{"primary":"St Mary's Cathedral","common":null,"rules":null},"sources":[{"property":"","dataset":"OpenStreetMap","license":"ODbL-1.0","record_id":"w314176992@8","update_time":"2025-06-18T11:55:57.000Z","confidence":null,"between":null,"provider":"osm","resource":"planet","version":"2026-08-02T00:00:00.000Z"},{"property":"/properties/height","dataset":"Microsoft ML Buildings","license":"ODbL-1.0","record_id":null,"update_time":"2000-01-01T00:00:00.000Z","confidence":null,"between":null,"provider":"microsoft","resource":"ml_buildings","version":"2025-02-25"}],"height":5.997350692749023,"is_underground":false,"subtype":"religious","class":"cathedral","has_parts":false,"version":2}},
{"id":"deda638a-c5ed-471c-b51a-c16b83e9c9a7","type":"Feature","geometry":{"type":"Polygon","coordinates":[[[130.8417567,-12.4596007],[130.8416915,-12.4595519],[130.8415693,-12.459673],[130.8416257,-12.4597281],[130.8414852,-12.4598721],[130.8418834,-12.4602539],[130.8419834,-12.4601632],[130.8420138,-12.4601908],[130.8422415,-12.4599723],[130.8421627,-12.4598993],[130.8419124,-12.4596675],[130.8417976,-12.4595612],[130.8417567,-12.4596007]]]},"properties":{"names":{"primary":"Charles Darwin University Campus","common":[["en","Charles Darwin University Campus"],["zh","查尔斯·达尔文大学校园"],["zh-Hans","查尔斯·达尔文大学校园"],["zh-Hant","查爾斯達爾文大學校園"]],"rules":null},"sources":[{"property":"","dataset":"OpenStreetMap","license":"ODbL-1.0","record_id":"w248921838@12","update_time":"2025-12-15T01:51:12.000Z","confidence":null,"between":null,"provider":"osm","resource":"planet","version":"2026-08-02T00:00:00.000Z"}],"is_underground":false,"num_floors":6,"has_parts":false,"version":3}},
{"id":"ea9e47d1-edc5-468d-9ba5-54a89da0ce76","type":"Feature","geometry":{"type":"Polygon","coordinates":[[[130.8416217,-12.4605153],[130.8417036,-12.4604692],[130.8415916,-12.4603598],[130.8415146,-12.4603906],[130.8415268,-12.4605478],[130.8416217,-12.4605153]]]},"properties":{"sources":[{"property":"","dataset":"OpenStreetMap","license":"ODbL-1.0","record_id":"w1412973337@2","update_time":"2025-12-09T07:12:06.000Z","confidence":null,"between":null,"provider":"osm","resource":"planet","version":"2026-08-02T00:00:00.000Z"}],"level":1,"is_underground":false,"subtype":"outbuilding","class":"roof","has_parts":false,"version":3}},
{"id":"62605446-e942-4843-a835-10d5df894d90","type":"Feature","geometry":{"type":"Polygon","coordinates":[[[130.8410375,-12.4594234],[130.8410315,-12.4592086],[130.8407768,-12.4592154],[130.8407777,-12.4592491],[130.8407792,-12.4593026],[130.8407828,-12.4594301],[130.8410375,-12.4594234]]]},"properties":{"sources":[{"property":"","dataset":"OpenStreetMap","license":"ODbL-1.0","record_id":"w372697004@1","update_time":"2015-09-28T12:54:05.000Z","confidence":null,"between":null,"provider":"osm","resource":"planet","version":"2026-08-02T00:00:00.000Z"}],"is_underground":false,"has_parts":false,"version":1}},
{"id":"0b27cc70-b3fd-4974-ab9d-30a158d0191a","type":"Feature","geometry":{"type":"Polygon","coordinates":[[[130.8410255,-12.4588265],[130.8411175,-12.458917],[130.8411817,-12.4589801],[130.8411057,-12.4590538],[130.8411855,-12.4591323],[130.8413347,-12.4589876],[130.8412274,-12.458882],[130.8412202,-12.458889],[130.8411836,-12.4588529],[130.8410689,-12.4587401],[130.8410586,-12.45875],[130.8409568,-12.4586498],[130.8409659,-12.458641],[130.8408425,-12.4585197],[130.8407186,-12.4586397],[130.8407347,-12.4586556],[130.840627,-12.45876],[130.8406984,-12.4588303],[130.840817,-12.4587153],[130.8408013,-12.4586999],[130.8408452,-12.4586573],[130.8408833,-12.4586948],[130.8408692,-12.4587085],[130.8410072,-12.4588443],[130.8410255,-12.4588265]]]},"properties":{"sources":[{"property":"","dataset":"OpenStreetMap","license":"ODbL-1.0","record_id":"w372697002@1","update_time":"2015-09-28T12:54:05.000Z","confidence":null,"between":null,"provider":"osm","resource":"planet","version":"2026-08-02T00:00:00.000Z"}],"is_underground":false,"has_parts":false,"version":1}},
{"id":"9f15bf89-f006-4bd7-af47-671be0578d34","type":"Feature","geometry":{"type":"Polygon","coordinates":[[[130.8410558,-12.4593005],[130.8410921,-12.4593352],[130.8410557,-12.4593716],[130.841119,-12.459432],[130.8411554,-12.4593955],[130.8411897,-12.4594282],[130.8411979,-12.45942],[130.8414569,-12.4591609],[130.841323,-12.4590332],[130.8410558,-12.4593005]]]},"properties":{"sources":[{"property":"","dataset":"OpenStreetMap","license":"ODbL-1.0","record_id":"w372697008@2","update_time":"2020-02-16T23:58:55.000Z","confidence":null,"between":null,"provider":"osm","resource":"planet","version":"2026-08-02T00:00:00.000Z"}],"is_underground":false,"has_parts":false,"version":1}},
{"id":"605706f2-7b7e-4f91-b09e-eaf7cfc22fdf","type":"Feature","geometry":{"type":"Polygon","coordinates":[[[130.8406701,-12.4582293],[130.8405029,-12.4583968],[130.8406282,-12.458516],[130.8407622,-12.4583818],[130.8407621,-12.4583168],[130.8406701,-12.4582293]]]},"properties":{"sources":[{"property":"","dataset":"OpenStreetMap","license":"ODbL-1.0","record_id":"w372703194@1","update_time":"2015-09-28T13:55:14.000Z","confidence":null,"between":null,"provider":"osm","resource":"planet","version":"2026-08-02T00:00:00.000Z"}],"is_underground":false,"has_parts":false,"version":1}},
{"id":"c6b9aa68-128d-4922-84d7-8834efe7e91e","type":"Feature","geometry":{"type":"Polygon","coordinates":[[[130.8406676,-12.45924],[130.8406226,-12.4592412],[130.8406245,-12.4593067],[130.8407792,-12.4593026],[130.8407777,-12.4592491],[130.840752,-12.4592498],[130.840751,-12.4592152],[130.840667,-12.4592174],[130.8406676,-12.45924]]]},"properties":{"sources":[{"property":"","dataset":"OpenStreetMap","license":"ODbL-1.0","record_id":"w372697007@1","update_time":"2015-09-28T12:54:05.000Z","confidence":null,"between":null,"provider":"osm","resource":"planet","version":"2026-08-02T00:00:00.000Z"}],"is_underground":false,"has_parts":false,"version":1}},
{"id":"de949d0e-4a3a-40d6-ab34-36c8c81b64ae","type":"Feature","geometry":{"type":"Polygon","coordinates":[[[130.8405203,-12.4589565],[130.8405999,-12.4589551],[130.8406005,-12.4589888],[130.8407565,-12.4589861],[130.8407552,-12.4589091],[130.8406007,-12.4589118],[130.8406001,-12.4588762],[130.8405189,-12.4588776],[130.8405203,-12.4589565]]]},"properties":{"sources":[{"property":"","dataset":"OpenStreetMap","license":"ODbL-1.0","record_id":"w372697006@1","update_time":"2015-09-28T12:54:05.000Z","confidence":null,"between":null,"provider":"osm","resource":"planet","version":"2026-08-02T00:00:00.000Z"},{"property":"/properties/height","dataset":"Microsoft ML Buildings","license":"ODbL-1.0","record_id":null,"update_time":"2000-01-01T00:00:00.000Z","confidence":null,"between":null,"provider":"microsoft","resource":"ml_buildings","version":"2025-02-25"}],"height":3.0958194732666016,"is_underground":false,"has_parts":false,"version":2}},
{"id":"ceeae171-dd3b-4092-be99-633301eb6cc7","type":"Feature","geometry":{"type":"Polygon","coordinates":[[[130.8403594,-12.4590761],[130.8402906,-12.4590773],[130.8402918,-12.4591446],[130.8403614,-12.4591434],[130.8403612,-12.4591328],[130.8405142,-12.4591301],[130.8405145,-12.4591442],[130.8406682,-12.4591414],[130.8406686,-12.4591628],[130.8407469,-12.4591614],[130.8407457,-12.4590936],[130.8406661,-12.4590951],[130.8406652,-12.459045],[130.8405113,-12.4590477],[130.840511,-12.4590299],[130.8403586,-12.4590326],[130.8403594,-12.4590761]]]},"properties":{"sources":[{"property":"","dataset":"OpenStreetMap","license":"ODbL-1.0","record_id":"w372697001@1","update_time":"2015-09-28T12:54:04.000Z","confidence":null,"between":null,"provider":"osm","resource":"planet","version":"2026-08-02T00:00:00.000Z"},{"property":"/properties/height","dataset":"Microsoft ML Buildings","license":"ODbL-1.0","record_id":null,"update_time":"2000-01-01T00:00:00.000Z","confidence":null,"between":null,"provider":"microsoft","resource":"ml_buildings","version":"2025-02-25"}],"height":3.740734815597534,"is_underground":false,"has_parts":false,"version":2}},
{"id":"c7d49cb9-5245-42c1-be43-fea67a2b379d","type":"Feature","geometry":{"type":"Polygon","coordinates":[[[130.8406219,-12.4592161],[130.8403091,-12.4592245],[130.8403118,-12.4593226],[130.8406247,-12.4593143],[130.8406245,-12.4593067],[130.8406226,-12.4592412],[130.8406219,-12.4592161]]]},"properties":{"sources":[{"property":"","dataset":"OpenStreetMap","license":"ODbL-1.0","record_id":"w372697003@1","update_time":"2015-09-28T12:54:05.000Z","confidence":null,"between":null,"provider":"osm","resource":"planet","version":"2026-08-02T00:00:00.000Z"}],"is_underground":false,"has_parts":false,"version":1}},
{"id":"f82dbafa-feae-48cf-9a27-e490b699f992","type":"Feature","geometry":{"type":"Polygon","coordinates":[[[130.8401965,-12.4583866],[130.8401524,-12.4584303],[130.8402252,-12.4585001],[130.8403307,-12.4583954],[130.84031,-12.4583755],[130.8403518,-12.458334],[130.8402715,-12.4582568],[130.8401962,-12.4583315],[130.8401965,-12.4583866]]]},"properties":{"sources":[{"property":"","dataset":"OpenStreetMap","license":"ODbL-1.0","record_id":"w372703195@1","update_time":"2015-09-28T13:55:14.000Z","confidence":null,"between":null,"provider":"osm","resource":"planet","version":"2026-08-02T00:00:00.000Z"}],"is_underground":false,"has_parts":false,"version":1}},
{"id":"70677360-ef3a-498c-ab36-6eb847e0c802","type":"Feature","geometry":{"type":"Polygon","coordinates":[[[130.8403982,-12.4583655],[130.8402336,-12.4585305],[130.8403831,-12.4586727],[130.8404248,-12.4586309],[130.8404566,-12.4586612],[130.8405374,-12.4585802],[130.840476,-12.4585219],[130.8405182,-12.4584795],[130.8403982,-12.4583655]]]},"properties":{"sources":[{"property":"","dataset":"OpenStreetMap","license":"ODbL-1.0","record_id":"w372703196@1","update_time":"2015-09-28T13:55:14.000Z","confidence":null,"between":null,"provider":"osm","resource":"planet","version":"2026-08-02T00:00:00.000Z"}],"is_underground":false,"has_parts":false,"version":1}},
{"id":"f16fbe70-3b30-48df-b844-0c2d6ed451ae","type":"Feature","geometry":{"type":"Polygon","coordinates":[[[130.83961,-12.4588505],[130.8395783,-12.4588818],[130.8397306,-12.4590288],[130.8397944,-12.4589658],[130.8397744,-12.4589464],[130.8398767,-12.4588455],[130.8397319,-12.4587057],[130.8397144,-12.4586887],[130.8395799,-12.4588215],[130.83961,-12.4588505]]]},"properties":{"sources":[{"property":"","dataset":"OpenStreetMap","license":"ODbL-1.0","record_id":"w372703197@1","update_time":"2015-09-28T13:55:14.000Z","confidence":null,"between":null,"provider":"osm","resource":"planet","version":"2026-08-02T00:00:00.000Z"}],"is_underground":false,"has_parts":false,"version":1}},
{"id":"4c56cd18-fac1-4120-aba3-62e7b86856bc","type":"Feature","geometry":{"type":"Polygon","coordinates":[[[130.8399161,-12.4590947],[130.8399867,-12.4590321],[130.8398999,-12.4589388],[130.8398293,-12.4590014],[130.8399161,-12.4590947]]]},"properties":{"sources":[{"property":"","dataset":"Microsoft ML Buildings","license":"ODbL-1.0","record_id":null,"update_time":"2000-01-01T00:00:00.000Z","confidence":null,"between":null,"provider":"microsoft","resource":"ml_buildings","version":"2025-02-25"}],"height":5.497663497924805,"is_underground":false,"has_parts":false,"version":3}},
{"id":"c039ea0c-94d2-4bbb-9e9a-429d2c124aae","type":"Feature","geometry":{"type":"Polygon","coordinates":[[[130.8397319,-12.4587057],[130.8398767,-12.4588455],[130.8402127,-12.4585137],[130.840068,-12.4583739],[130.8397319,-12.4587057]]]},"properties":{"sources":[{"property":"","dataset":"OpenStreetMap","license":"ODbL-1.0","record_id":"w372703191@1","update_time":"2015-09-28T13:55:14.000Z","confidence":null,"between":null,"provider":"osm","resource":"planet","version":"2026-08-02T00:00:00.000Z"},{"property":"/properties/height","dataset":"Microsoft ML Buildings","license":"ODbL-1.0","record_id":null,"update_time":"2000-01-01T00:00:00.000Z","confidence":null,"between":null,"provider":"microsoft","resource":"ml_buildings","version":"2025-02-25"}],"height":6.447619438171387,"is_underground":false,"has_parts":false,"version":2}},
{"id":"d62fce73-c64b-47c1-bd52-a9adfca1e07d","type":"Feature","geometry":{"type":"Polygon","coordinates":[[[130.8402488,-12.4585509],[130.8399165,-12.4588798],[130.8400613,-12.4590193],[130.8403936,-12.4586903],[130.8402488,-12.4585509]]]},"properties":{"sources":[{"property":"","dataset":"OpenStreetMap","license":"ODbL-1.0","record_id":"w372703190@1","update_time":"2015-09-28T13:55:14.000Z","confidence":null,"between":null,"provider":"osm","resource":"planet","version":"2026-08-02T00:00:00.000Z"},{"property":"/properties/height","dataset":"Microsoft ML Buildings","license":"ODbL-1.0","record_id":null,"update_time":"2000-01-01T00:00:00.000Z","confidence":null,"between":null,"provider":"microsoft","resource":"ml_buildings","version":"2025-02-25"}],"height":4.531126976013184,"is_underground":false,"has_parts":false,"version":2}},
{"id":"ba701bd6-c28f-4105-b140-76f8da754ede","type":"Feature","geometry":{"type":"Polygon","coordinates":[[[130.8397487,-12.4598167],[130.8398248,-12.4597415],[130.8400259,-12.4599358],[130.839793,-12.4601656],[130.8399224,-12.4602907],[130.840288,-12.45993],[130.840057,-12.4597069],[130.8398261,-12.4594837],[130.8396173,-12.4596898],[130.839705,-12.4597745],[130.8397487,-12.4598167]]]},"properties":{"names":{"primary":"Metro Advance Apartments","common":null,"rules":null},"sources":[{"property":"","dataset":"OpenStreetMap","license":"ODbL-1.0","record_id":"w248921837@7","update_time":"2025-07-21T22:41:56.000Z","confidence":null,"between":null,"provider":"osm","resource":"planet","version":"2026-08-02T00:00:00.000Z"}],"is_underground":false,"subtype":"residential","class":"apartments","has_parts":false,"version":2}},
{"id":"7d7a47e3-40b9-4a8b-b6d6-5da87e4c9226","type":"Feature","geometry":{"type":"Polygon","coordinates":[[[130.839705,-12.4597745],[130.8395481,-12.4599293],[130.8397637,-12.4601376],[130.8399206,-12.4599828],[130.8397487,-12.4598167],[130.839705,-12.4597745]]]},"properties":{"sources":[{"property":"","dataset":"OpenStreetMap","license":"ODbL-1.0","record_id":"w372699340@1","update_time":"2015-09-28T13:16:04.000Z","confidence":null,"between":null,"provider":"osm","resource":"planet","version":"2026-08-02T00:00:00.000Z"}],"is_underground":false,"has_parts":false,"version":1}},
{"id":"7c0b6d60-070d-494c-84be-76a24e0a0ffb","type":"Feature","geometry":{"type":"Polygon","coordinates":[[[130.839727,-12.460138],[130.8396034,-12.4602615],[130.8397727,-12.4604232],[130.8398964,-12.4602997],[130.839727,-12.460138]]]},"properties":{"sources":[{"property":"","dataset":"OpenStreetMap","license":"ODbL-1.0","record_id":"w372699339@1","update_time":"2015-09-28T13:16:03.000Z","confidence":null,"between":null,"provider":"osm","resource":"planet","version":"2026-08-02T00:00:00.000Z"}],"is_underground":false,"has_parts":false,"version":1}},
{"id":"9875b086-1360-48f4-be85-a666d15de69d","type":"Feature","geometry":{"type":"Polygon","coordinates":[[[130.8395788,-12.4602719],[130.8394189,-12.460427],[130.8395748,-12.4605803],[130.8396249,-12.4605317],[130.8396847,-12.4605324],[130.8397648,-12.4604546],[130.8395788,-12.4602719]]]},"properties":{"sources":[{"property":"","dataset":"OpenStreetMap","license":"ODbL-1.0","record_id":"w372699341@1","update_time":"2015-09-28T13:16:03.000Z","confidence":null,"between":null,"provider":"osm","resource":"planet","version":"2026-08-02T00:00:00.000Z"}],"is_underground":false,"has_parts":false,"version":1}},
{"id":"4e701447-fc94-4729-ab8c-d2e02ee007f1","type":"Feature","geometry":{"type":"Polygon","coordinates":[[[130.8400702,-12.4606702],[130.84039,-12.4609807],[130.8408579,-12.4605212],[130.8404161,-12.4600922],[130.8403883,-12.4601196],[130.840354,-12.4600862],[130.8401967,-12.4602407],[130.8402547,-12.4602971],[130.8400179,-12.4605297],[130.8401161,-12.4606251],[130.8400702,-12.4606702]]]},"properties":{"sources":[{"property":"","dataset":"OpenStreetMap","license":"ODbL-1.0","record_id":"w551431363@7","update_time":"2025-06-18T11:07:51.000Z","confidence":null,"between":null,"provider":"osm","resource":"planet","version":"2026-08-02T00:00:00.000Z"},{"property":"/properties/height","dataset":"Microsoft ML Buildings","license":"ODbL-1.0","record_id":null,"update_time":"2000-01-01T00:00:00.000Z","confidence":null,"between":null,"provider":"microsoft","resource":"ml_buildings","version":"2025-02-25"}],"height":7.028724193572998,"is_underground":false,"num_floors":1,"subtype":"commercial","class":"retail","has_parts":false,"version":2}},
{"id":"68a0075e-830c-43a8-879b-d3dbf8b32bd9","type":"Feature","geometry":{"type":"Polygon","coordinates":[[[130.8401982,-12.4592301],[130.8401431,-12.4592838],[130.8401969,-12.4593363],[130.8402519,-12.4592827],[130.8401982,-12.4592301]]]},"properties":{"sources":[{"property":"","dataset":"OpenStreetMap","license":"ODbL-1.0","record_id":"w372701341@1","update_time":"2015-09-28T13:34:12.000Z","confidence":null,"between":null,"provider":"osm","resource":"planet","version":"2026-08-02T00:00:00.000Z"}],"is_underground":false,"has_parts":false,"version":1}},
{"id":"8f74fb60-b6ad-4038-b6c6-3698f7bce994","type":"Feature","geometry":{"type":"Polygon","coordinates":[[[130.8402249,-12.4593107],[130.8401698,-12.4593643],[130.8402235,-12.4594169],[130.8402786,-12.4593632],[130.8402249,-12.4593107]]]},"properties":{"sources":[{"property":"","dataset":"OpenStreetMap","license":"ODbL-1.0","record_id":"w372701342@1","update_time":"2015-09-28T13:34:12.000Z","confidence":null,"between":null,"provider":"osm","resource":"planet","version":"2026-08-02T00:00:00.000Z"}],"is_underground":false,"has_parts":false,"version":1}},
{"id":"1cef8aae-ee89-4c35-9656-5a74cad9befd","type":"Feature","geometry":{"type":"Polygon","coordinates":[[[130.8402814,-12.4593611],[130.8402264,-12.4594148],[130.8402801,-12.4594673],[130.8403351,-12.4594137],[130.8402814,-12.4593611]]]},"properties":{"sources":[{"property":"","dataset":"OpenStreetMap","license":"ODbL-1.0","record_id":"w372701340@1","update_time":"2015-09-28T13:34:12.000Z","confidence":null,"between":null,"provider":"osm","resource":"planet","version":"2026-08-02T00:00:00.000Z"}],"is_underground":false,"has_parts":false,"version":1}},
{"id":"e990ab37-bf36-4930-a3ce-82f7c1a5ee71","type":"Feature","geometry":{"type":"Polygon","coordinates":[[[130.8403484,-12.4594012],[130.8402933,-12.4594549],[130.840347,-12.4595074],[130.8404021,-12.4594538],[130.8403484,-12.4594012]]]},"properties":{"sources":[{"property":"","dataset":"OpenStreetMap","license":"ODbL-1.0","record_id":"w372701338@1","update_time":"2015-09-28T13:34:12.000Z","confidence":null,"between":null,"provider":"osm","resource":"planet","version":"2026-08-02T00:00:00.000Z"}],"is_underground":false,"has_parts":false,"version":1}},
{"id":"eef14f1e-132b-4045-928b-f72e420cbd07","type":"Feature","geometry":{"type":"Polygon","coordinates":[[[130.8404026,-12.4594543],[130.8403475,-12.459508],[130.8404012,-12.4595605],[130.8404563,-12.4595069],[130.8404026,-12.4594543]]]},"properties":{"sources":[{"property":"","dataset":"OpenStreetMap","license":"ODbL-1.0","record_id":"w372701339@1","update_time":"2015-09-28T13:34:12.000Z","confidence":null,"between":null,"provider":"osm","resource":"planet","version":"2026-08-02T00:00:00.000Z"}],"is_underground":false,"has_parts":false,"version":1}},
{"id":"051a57ad-6ede-4f27-a319-6b564515dd51","type":"Feature","geometry":{"type":"Polygon","coordinates":[[[130.8404454,-12.4595183],[130.8403903,-12.459572],[130.840444,-12.4596245],[130.8404991,-12.4595709],[130.8404454,-12.4595183]]]},"properties":{"sources":[{"property":"","dataset":"OpenStreetMap","license":"ODbL-1.0","record_id":"w372701337@1","update_time":"2015-09-28T13:34:12.000Z","confidence":null,"between":null,"provider":"osm","resource":"planet","version":"2026-08-02T00:00:00.000Z"}],"is_underground":false,"has_parts":false,"version":1}},
{"id":"86634f2b-6af2-4862-8a5f-897b8df8508f","type":"Feature","geometry":{"type":"Polygon","coordinates":[[[130.8405703,-12.4594032],[130.8405105,-12.4594641],[130.8405651,-12.4595151],[130.8405524,-12.459528],[130.8406094,-12.4595813],[130.8406662,-12.4595235],[130.8406143,-12.4594749],[130.8406299,-12.459459],[130.8405703,-12.4594032]]]},"properties":{"sources":[{"property":"","dataset":"OpenStreetMap","license":"ODbL-1.0","record_id":"w372697005@1","update_time":"2015-09-28T12:54:05.000Z","confidence":null,"between":null,"provider":"osm","resource":"planet","version":"2026-08-02T00:00:00.000Z"}],"is_underground":false,"has_parts":false,"version":1}},
{"id":"fa133e30-998f-4ac3-888c-3cbff7d39cab","type":"Feature","geometry":{"type":"Polygon","coordinates":[[[130.8407826,-12.4597097],[130.8406102,-12.4598876],[130.8407447,-12.4600117],[130.840917,-12.4598339],[130.8407826,-12.4597097]]]},"properties":{"sources":[{"property":"","dataset":"OpenStreetMap","license":"ODbL-1.0","record_id":"w372321365@1","update_time":"2015-09-25T11:13:33.000Z","confidence":null,"between":null,"provider":"osm","resource":"planet","version":"2026-08-02T00:00:00.000Z"},{"property":"/properties/height","dataset":"Microsoft ML Buildings","license":"ODbL-1.0","record_id":null,"update_time":"2000-01-01T00:00:00.000Z","confidence":null,"between":null,"provider":"microsoft","resource":"ml_buildings","version":"2025-02-25"}],"height":10.118629455566406,"is_underground":false,"has_parts":false,"version":2}},
{"id":"b1a21f0e-55ae-4fac-bee8-487a5a792614","type":"Feature","geometry":{"type":"Polygon","coordinates":[[[130.8408062,-12.4606583],[130.8403902,-12.4610677],[130.8404718,-12.4611466],[130.840695,-12.4609264],[130.8408873,-12.4607366],[130.8408062,-12.4606583]]]},"properties":{"sources":[{"property":"","dataset":"OpenStreetMap","license":"ODbL-1.0","record_id":"w551431364@5","update_time":"2025-03-15T09:55:57.000Z","confidence":null,"between":null,"provider":"osm","resource":"planet","version":"2026-08-02T00:00:00.000Z"}],"level":1,"is_underground":false,"subtype":"outbuilding","class":"roof","has_parts":false,"version":1}},
{"id":"b9ff6be2-ead6-45de-98d1-4c9f4dc89c15","type":"Feature","geometry":{"type":"Polygon","coordinates":[[[130.8405674,-12.4611371],[130.84067339999999,-12.4612366],[130.8407512,-12.4611606],[130.8406452,-12.4610598],[130.8405674,-12.4611371]]]},"properties":{"sources":[{"property":"","dataset":"OpenStreetMap","license":"ODbL-1.0","record_id":"w1367636825@1","update_time":"2025-03-15T09:55:57.000Z","confidence":null,"between":null,"provider":"osm","resource":"planet","version":"2026-08-02T00:00:00.000Z"}],"level":1,"is_underground":false,"subtype":"outbuilding","class":"roof","has_parts":false,"version":1}},
{"id":"c80ec820-6614-48e9-8621-74724290473e","type":"Feature","geometry":{"type":"Polygon","coordinates":[[[130.8406908,-12.4610231],[130.8407968,-12.4611227],[130.8408417,-12.4610788],[130.8408746,-12.4610467],[130.8407686,-12.4609459],[130.8407387,-12.4609756],[130.8406908,-12.4610231]]]},"properties":{"sources":[{"property":"","dataset":"OpenStreetMap","license":"ODbL-1.0","record_id":"w1367636826@1","update_time":"2025-03-15T09:55:57.000Z","confidence":null,"between":null,"provider":"osm","resource":"planet","version":"2026-08-02T00:00:00.000Z"}],"level":1,"is_underground":false,"subtype":"outbuilding","class":"roof","has_parts":false,"version":1}},
{"id":"bfde8ff8-9c97-4363-8608-16d92e808161","type":"Feature","geometry":{"type":"Polygon","coordinates":[[[130.8404315,-12.4614059],[130.8405253,-12.4614971],[130.8405527,-12.4614703],[130.8405952,-12.4615116],[130.8407265,-12.4613828],[130.84059009999999,-12.4612503],[130.8404315,-12.4614059]]]},"properties":{"sources":[{"property":"","dataset":"OpenStreetMap","license":"ODbL-1.0","record_id":"w372458987@1","update_time":"2015-09-26T12:15:11.000Z","confidence":null,"between":null,"provider":"osm","resource":"planet","version":"2026-08-02T00:00:00.000Z"}],"is_underground":false,"has_parts":false,"version":1}},
{"id":"8c02d563-58f0-4866-850f-bd2d2a403f12","type":"Feature","geometry":{"type":"Polygon","coordinates":[[[130.8403995,-12.4613748],[130.8402261,-12.4615449],[130.8404135,-12.461727],[130.8405869,-12.4615569],[130.8405253,-12.4614971],[130.8404315,-12.4614059],[130.8403995,-12.4613748]]]},"properties":{"sources":[{"property":"","dataset":"OpenStreetMap","license":"ODbL-1.0","record_id":"w372458986@1","update_time":"2015-09-26T12:15:11.000Z","confidence":null,"between":null,"provider":"osm","resource":"planet","version":"2026-08-02T00:00:00.000Z"},{"property":"/properties/height","dataset":"Microsoft ML Buildings","license":"ODbL-1.0","record_id":null,"update_time":"2000-01-01T00:00:00.000Z","confidence":null,"between":null,"provider":"microsoft","resource":"ml_buildings","version":"2025-02-25"}],"height":8.055303573608398,"is_underground":false,"has_parts":false,"version":2}},
{"id":"cb34ca3b-189d-4077-bd57-8890a4bf2191","type":"Feature","geometry":{"type":"Polygon","coordinates":[[[130.8403445,-12.4611029],[130.8402183,-12.4609814],[130.8400345,-12.4611635],[130.8400398,-12.4611686],[130.8401001,-12.4612266],[130.8400619,-12.4612644],[130.8400515,-12.4612544],[130.8400049,-12.4613005],[130.8400783,-12.4613711],[130.8401239,-12.4613258],[130.8400794,-12.461283],[130.8401187,-12.461244],[130.840161,-12.4612847],[130.8403445,-12.4611029]]]},"properties":{"sources":[{"property":"","dataset":"OpenStreetMap","license":"ODbL-1.0","record_id":"w248921840@9","update_time":"2025-03-15T09:55:57.000Z","confidence":null,"between":null,"provider":"osm","resource":"planet","version":"2026-08-02T00:00:00.000Z"}],"level":1,"is_underground":false,"subtype":"outbuilding","class":"roof","has_parts":false,"version":1}},
{"id":"bf8d1d53-90cf-487c-81d3-7733490bd1bf","type":"Feature","geometry":{"type":"Polygon","coordinates":[[[130.8401629,-12.4607672],[130.8400635,-12.4606711],[130.8401101,-12.4606252],[130.8399464,-12.4604669],[130.8397802,-12.4606308],[130.8398558,-12.4607038],[130.8398959,-12.4606642],[130.8399542,-12.4607206],[130.8398547,-12.4608187],[130.839894,-12.4608567],[130.8398659,-12.4608845],[130.8398497,-12.4608689],[130.8398135,-12.4609046],[130.83980210000001,-12.4609153],[130.839779,-12.4609386],[130.8398468,-12.4610041],[130.8398714,-12.4609801],[130.8398834,-12.460968],[130.8399428,-12.4610253],[130.8399891,-12.4609796],[130.8399681,-12.4609593],[130.8401629,-12.4607672]]]},"properties":{"names":{"primary":"Darwin Uniting Church","common":null,"rules":null},"sources":[{"property":"","dataset":"OpenStreetMap","license":"ODbL-1.0","record_id":"w551431365@2","update_time":"2023-07-11T13:49:00.000Z","confidence":null,"between":null,"provider":"osm","resource":"planet","version":"2026-08-02T00:00:00.000Z"}],"is_underground":false,"subtype":"religious","class":"church","has_parts":false,"version":1}},
{"id":"d1ffbddb-9bdb-461d-8777-2f517f550b30","type":"Feature","geometry":{"type":"Polygon","coordinates":[[[130.8396452,-12.4617094],[130.8397823,-12.4618429],[130.8399888,-12.4616407],[130.8400126,-12.4616173],[130.839838,-12.4614473],[130.8397266,-12.4614485],[130.839494,-12.4616762],[130.8394941,-12.4617349],[130.8395567,-12.461796],[130.8396452,-12.4617094]]]},"properties":{"names":{"primary":"Commonwealth Bank","common":null,"rules":null},"sources":[{"property":"","dataset":"OpenStreetMap","license":"ODbL-1.0","record_id":"w372439893@11","update_time":"2025-10-18T04:14:25.000Z","confidence":null,"between":null,"provider":"osm","resource":"planet","version":"2026-08-02T00:00:00.000Z"},{"property":"/properties/height","dataset":"Microsoft ML Buildings","license":"ODbL-1.0","record_id":null,"update_time":"2000-01-01T00:00:00.000Z","confidence":null,"between":null,"provider":"microsoft","resource":"ml_buildings","version":"2025-02-25"}],"height":12.714393615722656,"is_underground":false,"num_floors":6,"subtype":"commercial","class":"office","has_parts":false,"version":3}},
{"id":"5e0838f0-9559-4468-b34e-b9ff3796e72a","type":"Feature","geometry":{"type":"Polygon","coordinates":[[[130.8410524,-12.4606949],[130.8408733,-12.4608676],[130.8410592,-12.4610515],[130.8412383,-12.4608787],[130.8410524,-12.4606949]]]},"properties":{"sources":[{"property":"","dataset":"OpenStreetMap","license":"ODbL-1.0","record_id":"w372458981@1","update_time":"2015-09-26T12:15:11.000Z","confidence":null,"between":null,"provider":"osm","resource":"planet","version":"2026-08-02T00:00:00.000Z"},{"property":"/properties/height","dataset":"Microsoft ML Buildings","license":"ODbL-1.0","record_id":null,"update_time":"2000-01-01T00:00:00.000Z","confidence":null,"between":null,"provider":"microsoft","resource":"ml_buildings","version":"2025-02-25"}],"height":12.326760292053223,"is_underground":false,"has_parts":false,"version":2}},
{"id":"c053bcc7-f5ec-4756-9093-46eeeb6f4e02","type":"Feature","geometry":{"type":"Polygon","coordinates":[[[130.8411719,-12.4611832],[130.8410107,-12.4613458],[130.8411328,-12.4614612],[130.8412413,-12.4613517],[130.841302,-12.461409],[130.8415581,-12.4611504],[130.8413595,-12.4609628],[130.841156,-12.4611682],[130.8411719,-12.4611832]]]},"properties":{"sources":[{"property":"","dataset":"OpenStreetMap","license":"ODbL-1.0","record_id":"w372458991@1","update_time":"2015-09-26T12:15:11.000Z","confidence":null,"between":null,"provider":"osm","resource":"planet","version":"2026-08-02T00:00:00.000Z"}],"is_underground":false,"has_parts":false,"version":1}},
{"id":"edf35058-cc41-41d5-9521-0d924ad456ef","type":"Feature","geometry":{"type":"Polygon","coordinates":[[[130.8415661,-12.4611557],[130.8412367,-12.4614906],[130.8414486,-12.4616893],[130.841778,-12.4613544],[130.8415661,-12.4611557]]]},"properties":{"sources":[{"property":"","dataset":"OpenStreetMap","license":"ODbL-1.0","record_id":"w372459440@2","update_time":"2020-02-16T23:58:55.000Z","confidence":null,"between":null,"provider":"osm","resource":"planet","version":"2026-08-02T00:00:00.000Z"}],"is_underground":false,"has_parts":false,"version":1}}]}