{"type": "FeatureCollection", "features": [
{"id":"e32d1008-6fad-4fec-8820-1afcc5957a0a","type":"Feature","geometry":{"type":"Polygon","coordinates":[[[133.8786449,-23.6999387],[133.8781154,-23.6997151],[133.8778449,-23.7002523],[133.8779171,-23.7002828],[133.8777907,-23.7005339],[133.8782481,-23.7007269],[133.8786449,-23.6999387]]]},"properties":{"sources":[{"property":"","dataset":"OpenStreetMap","license":"ODbL-1.0","record_id":"w257906811@1","update_time":"2025-11-24T11:44:52.000Z","confidence":null,"between":null,"provider":"osm","resource":"planet","version":"2026-08-02T00:00:00.000Z"},{"property":"/properties/height","dataset":"Microsoft ML Buildings","license":"ODbL-1.0","record_id":null,"update_time":"2023-02-23T00:00:00.000Z","confidence":null,"between":null,"provider":"microsoft","resource":"ml_buildings","version":"2025-02-25"}],"height":3.871354103088379,"is_underground":false,"has_parts":false,"version":4}},
{"id":"a6e8f0f0-1d29-4fdb-b0ac-c5282cbf2997","type":"Feature","geometry":{"type":"Polygon","coordinates":[[[133.8805375,-23.7013724],[133.8806904,-23.7014338],[133.881023,-23.7007363],[133.8810444,-23.700729],[133.8811007,-23.7007535],[133.8811249,-23.7008002],[133.8813582,-23.700896],[133.8814333,-23.7007511],[133.8809318,-23.7005423],[133.8805375,-23.7013724]]]},"properties":{"sources":[{"property":"","dataset":"OpenStreetMap","license":"ODbL-1.0","record_id":"w257906774@1","update_time":"2014-01-23T10:25:56.000Z","confidence":null,"between":null,"provider":"osm","resource":"planet","version":"2026-08-02T00:00:00.000Z"},{"property":"/properties/height","dataset":"Microsoft ML Buildings","license":"ODbL-1.0","record_id":null,"update_time":"2023-02-23T00:00:00.000Z","confidence":null,"between":null,"provider":"microsoft","resource":"ml_buildings","version":"2025-02-25"}],"height":2.981876850128174,"is_underground":false,"has_parts":false,"version":2}},
{"id":"c3a92b00-07dc-4759-b796-b43d4c4ea26b","type":"Feature","geometry":{"type":"Polygon","coordinates":[[[133.8818243,-23.7010452],[133.8816273,-23.7009794],[133.8815618,-23.7011099],[133.8814518,-23.7010636],[133.8813701,-23.7012267],[133.8815389,-23.7012929],[133.8814855,-23.7013942],[133.8817127,-23.7014946],[133.8816849,-23.7015474],[133.88178,-23.7015894],[133.8818873,-23.7013859],[133.8817753,-23.7013364],[133.8818537,-23.7012594],[133.8819387,-23.7010948],[133.8818243,-23.7010452]]]},"properties":{"sources":[{"property":"","dataset":"OpenStreetMap","license":"ODbL-1.0","record_id":"w309767334@1","update_time":"2024-06-19T06:32:34.000Z","confidence":null,"between":null,"provider":"osm","resource":"planet","version":"2026-08-02T00:00:00.000Z"}],"is_underground":false,"has_parts":false,"version":1}},
{"id":"3873415d-861e-4df5-a6fc-9aa03723cc99","type":"Feature","geometry":{"type":"Polygon","coordinates":[[[133.8820934,-23.7009422],[133.8815523,-23.7007184],[133.8814877,-23.7008377],[133.8816929,-23.700924],[133.8818499,-23.7009928],[133.8818243,-23.7010452],[133.8819387,-23.7010948],[133.8818537,-23.7012594],[133.8819228,-23.701288],[133.8820934,-23.7009422]]]},"properties":{"sources":[{"property":"","dataset":"OpenStreetMap","license":"ODbL-1.0","record_id":"w257906787@2","update_time":"2024-06-19T06:32:34.000Z","confidence":null,"between":null,"provider":"osm","resource":"planet","version":"2026-08-02T00:00:00.000Z"}],"is_underground":false,"has_parts":false,"version":1}},
{"id":"898be790-04bb-4cb8-8af6-9ea30acc5227","type":"Feature","geometry":{"type":"Polygon","coordinates":[[[133.8809981,-23.70118],[133.8809409,-23.7012984],[133.8811262,-23.7013735],[133.8812714,-23.7010729],[133.8811843,-23.7010376],[133.8810964,-23.7012198],[133.8809981,-23.70118]]]},"properties":{"sources":[{"property":"","dataset":"OpenStreetMap","license":"ODbL-1.0","record_id":"w257906773@1","update_time":"2014-01-23T10:25:56.000Z","confidence":null,"between":null,"provider":"osm","resource":"planet","version":"2026-08-02T00:00:00.000Z"},{"property":"/properties/height","dataset":"Microsoft ML Buildings","license":"ODbL-1.0","record_id":null,"update_time":"2023-02-23T00:00:00.000Z","confidence":null,"between":null,"provider":"microsoft","resource":"ml_buildings","version":"2025-02-25"}],"height":3.0973875522613525,"is_underground":false,"has_parts":false,"version":2}},
{"id":"008bdf90-94f9-4097-91f2-e4d9b68ac8cb","type":"Feature","geometry":{"type":"Polygon","coordinates":[[[133.8816849,-23.7015474],[133.8813602,-23.7014301],[133.8813151,-23.7015228],[133.8814015,-23.7015573],[133.8812756,-23.7018169],[133.8815521,-23.7019407],[133.8815983,-23.7019432],[133.88178,-23.7015894],[133.8816849,-23.7015474]]]},"properties":{"sources":[{"property":"","dataset":"OpenStreetMap","license":"ODbL-1.0","record_id":"w309767332@3","update_time":"2014-11-19T18:40:05.000Z","confidence":null,"between":null,"provider":"osm","resource":"planet","version":"2026-08-02T00:00:00.000Z"}],"is_underground":false,"has_parts":false,"version":1}},
{"id":"c0db9709-d29b-4201-9d89-3e6632a1fca7","type":"Feature","geometry":{"type":"Polygon","coordinates":[[[133.8791021,-23.7010716],[133.8790031,-23.7012595],[133.8791813,-23.7013383],[133.8792804,-23.7011503],[133.8791021,-23.7010716]]]},"properties":{"sources":[{"property":"","dataset":"OpenStreetMap","license":"ODbL-1.0","record_id":"w257906790@1","update_time":"2014-01-23T10:25:57.000Z","confidence":null,"between":null,"provider":"osm","resource":"planet","version":"2026-08-02T00:00:00.000Z"},{"property":"/properties/height","dataset":"Microsoft ML Buildings","license":"ODbL-1.0","record_id":null,"update_time":"2023-02-23T00:00:00.000Z","confidence":null,"between":null,"provider":"microsoft","resource":"ml_buildings","version":"2025-02-25"}],"height":4.506258487701416,"is_underground":false,"has_parts":false,"version":2}},
{"id":"2cc6e3fe-b32a-4777-8ac0-bf711724d142","type":"Feature","geometry":{"type":"Polygon","coordinates":[[[133.879265,-23.7012594],[133.8792287,-23.7013375],[133.8793851,-23.7013985],[133.8794065,-23.7013525],[133.8794524,-23.7013704],[133.879429,-23.7014205],[133.8794656,-23.7014348],[133.8795252,-23.7013065],[133.8794705,-23.7012852],[133.8794491,-23.7013312],[133.879265,-23.7012594]]]},"properties":{"sources":[{"property":"","dataset":"OpenStreetMap","license":"ODbL-1.0","record_id":"w257906817@1","update_time":"2014-01-23T10:25:59.000Z","confidence":null,"between":null,"provider":"osm","resource":"planet","version":"2026-08-02T00:00:00.000Z"}],"is_underground":false,"has_parts":false,"version":1}},
{"id":"69ace38b-8700-4d87-94c9-c84db34ee378","type":"Feature","geometry":{"type":"Polygon","coordinates":[[[133.8794285,-23.7015331],[133.8790728,-23.7013841],[133.8790299,-23.70147],[133.8793856,-23.7016189],[133.8794285,-23.7015331]]]},"properties":{"sources":[{"property":"","dataset":"OpenStreetMap","license":"ODbL-1.0","record_id":"w257906812@2","update_time":"2014-10-26T16:26:02.000Z","confidence":null,"between":null,"provider":"osm","resource":"planet","version":"2026-08-02T00:00:00.000Z"},{"property":"/properties/height","dataset":"Microsoft ML Buildings","license":"ODbL-1.0","record_id":null,"update_time":"2023-02-23T00:00:00.000Z","confidence":null,"between":null,"provider":"microsoft","resource":"ml_buildings","version":"2025-02-25"}],"height":2.65712833404541,"is_underground":false,"has_parts":false,"version":2}},
{"id":"32057eca-4e88-4c6e-851b-7aa83438866a","type":"Feature","geometry":{"type":"Polygon","coordinates":[[[133.8798397,-23.7015845],[133.8800906,-23.7016871],[133.8801667,-23.7015241],[133.8798318,-23.7013929],[133.879776,-23.7015124],[133.8798583,-23.7015446],[133.8798397,-23.7015845]]]},"properties":{"sources":[{"property":"","dataset":"OpenStreetMap","license":"ODbL-1.0","record_id":"w257906778@2","update_time":"2015-08-18T10:53:20.000Z","confidence":null,"between":null,"provider":"osm","resource":"planet","version":"2026-08-02T00:00:00.000Z"}],"is_underground":false,"subtype":"commercial","class":"retail","has_parts":false,"version":1}},
{"id":"0a1099a4-8ee4-4ca2-9697-91a9ac4e954a","type":"Feature","geometry":{"type":"Polygon","coordinates":[[[133.8800934,-23.7011937],[133.880076,-23.7012275],[133.8801669,-23.7012667],[133.8801389,-23.7013212],[133.8802559,-23.7013716],[133.8802875,-23.7013103],[133.8802119,-23.7012777],[133.8802519,-23.7011999],[133.8801661,-23.701163],[133.88014,-23.7012138],[133.8800934,-23.7011937]]]},"properties":{"sources":[{"property":"","dataset":"OpenStreetMap","license":"ODbL-1.0","record_id":"w257906783@1","update_time":"2014-01-23T10:25:57.000Z","confidence":null,"between":null,"provider":"osm","resource":"planet","version":"2026-08-02T00:00:00.000Z"}],"is_underground":false,"has_parts":false,"version":1}},
{"id":"f38021a1-e10f-499f-8e0a-b879b249c5b5","type":"Feature","geometry":{"type":"Polygon","coordinates":[[[133.8798402,-23.7011362],[133.8799135,-23.7011528],[133.8799387,-23.7010593],[133.8798654,-23.7010427],[133.8798402,-23.7011362]]]},"properties":{"sources":[{"property":"","dataset":"Microsoft ML Buildings","license":"ODbL-1.0","record_id":null,"update_time":"2023-02-23T00:00:00.000Z","confidence":null,"between":null,"provider":"microsoft","resource":"ml_buildings","version":"2025-02-25"}],"height":2.615732431411743,"is_underground":false,"has_parts":false,"version":3}},
{"id":"04a65c21-1dfc-4dca-abd5-5cea88fa122f","type":"Feature","geometry":{"type":"Polygon","coordinates":[[[133.8797202,-23.7010125],[133.879746,-23.7009418],[133.8796542,-23.7009138],[133.8796285,-23.7009845],[133.8797202,-23.7010125]]]},"properties":{"sources":[{"property":"","dataset":"Microsoft ML Buildings","license":"ODbL-1.0","record_id":null,"update_time":"2023-02-23T00:00:00.000Z","confidence":null,"between":null,"provider":"microsoft","resource":"ml_buildings","version":"2025-02-25"}],"height":3.201826572418213,"is_underground":false,"has_parts":false,"version":3}},
{"id":"17b58c66-d45c-4f13-8c0d-71c3aed66585","type":"Feature","geometry":{"type":"Polygon","coordinates":[[[133.8797434,-23.7006568],[133.8798185,-23.7006752],[133.8798341,-23.7006217],[133.8797591,-23.7006033],[133.8797434,-23.7006568]]]},"properties":{"sources":[{"property":"","dataset":"Microsoft ML Buildings","license":"ODbL-1.0","record_id":null,"update_time":"2023-02-23T00:00:00.000Z","confidence":null,"between":null,"provider":"microsoft","resource":"ml_buildings","version":"2025-02-25"}],"height":2.4143731594085693,"is_underground":false,"has_parts":false,"version":3}},
{"id":"79ab763b-0923-4bec-9058-857436fd2719","type":"Feature","geometry":{"type":"Polygon","coordinates":[[[133.8803417,-23.7008616],[133.8804356,-23.7008739],[133.8804972,-23.7007609],[133.8804875,-23.7006901],[133.8802512,-23.7005883],[133.8802132,-23.7006634],[133.8801396,-23.7006321],[133.8799458,-23.7010149],[133.8799259,-23.7010458],[133.8801964,-23.7011514],[133.8803417,-23.7008616]]]},"properties":{"sources":[{"property":"","dataset":"OpenStreetMap","license":"ODbL-1.0","record_id":"w257906767@2","update_time":"2014-11-19T18:27:50.000Z","confidence":null,"between":null,"provider":"osm","resource":"planet","version":"2026-08-02T00:00:00.000Z"}],"is_underground":false,"has_parts":false,"version":1}},
{"id":"39da431b-36fd-44af-8fed-5068d02053df","type":"Feature","geometry":{"type":"Polygon","coordinates":[[[133.8807011,-23.7003827],[133.8802344,-23.7001616],[133.8800511,-23.7005033],[133.8802512,-23.7005883],[133.8804875,-23.7006901],[133.8805965,-23.7007363],[133.8807333,-23.7004613],[133.8807011,-23.7003827]]]},"properties":{"sources":[{"property":"","dataset":"OpenStreetMap","license":"ODbL-1.0","record_id":"w257906844@2","update_time":"2024-09-29T06:53:54.000Z","confidence":null,"between":null,"provider":"osm","resource":"planet","version":"2026-08-02T00:00:00.000Z"}],"is_underground":false,"has_parts":false,"version":1}},
{"id":"fb48e544-e2e4-4026-b10f-2520a9ae98bf","type":"Feature","geometry":{"type":"Polygon","coordinates":[[[133.8799454,-23.7002568],[133.8795509,-23.7000789],[133.8794505,-23.7002655],[133.879515,-23.7002946],[133.879464,-23.7003895],[133.8799222,-23.700596],[133.8801545,-23.7001638],[133.8800264,-23.7001061],[133.8799454,-23.7002568]]]},"properties":{"sources":[{"property":"","dataset":"OpenStreetMap","license":"ODbL-1.0","record_id":"w257906845@1","update_time":"2014-11-19T18:35:34.000Z","confidence":null,"between":null,"provider":"osm","resource":"planet","version":"2026-08-02T00:00:00.000Z"},{"property":"/properties/height","dataset":"Microsoft ML Buildings","license":"ODbL-1.0","record_id":null,"update_time":"2023-02-23T00:00:00.000Z","confidence":null,"between":null,"provider":"microsoft","resource":"ml_buildings","version":"2025-02-25"}],"height":5.0957841873168945,"is_underground":false,"has_parts":false,"version":2}},
{"id":"c8bd98b5-62d7-4e66-b4e1-8e80c4195816","type":"Feature","geometry":{"type":"Polygon","coordinates":[[[133.8797257,-23.7005579],[133.8794053,-23.7004289],[133.8793357,-23.7005737],[133.8796561,-23.7007027],[133.8797257,-23.7005579]]]},"properties":{"sources":[{"property":"","dataset":"OpenStreetMap","license":"ODbL-1.0","record_id":"w309767005@1","update_time":"2014-10-26T16:52:55.000Z","confidence":null,"between":null,"provider":"osm","resource":"planet","version":"2026-08-02T00:00:00.000Z"}],"is_underground":false,"has_parts":false,"version":1}},
{"id":"aa9966e9-706b-40d9-9bca-f2a7782a7250","type":"Feature","geometry":{"type":"Polygon","coordinates":[[[133.8797208,-23.7007476],[133.879384,-23.7006159],[133.8793081,-23.7007786],[133.879438,-23.7008295],[133.8794545,-23.7007941],[133.8796614,-23.700875],[133.8797208,-23.7007476]]]},"properties":{"sources":[{"property":"","dataset":"OpenStreetMap","license":"ODbL-1.0","record_id":"w309767007@1","update_time":"2014-10-26T16:52:55.000Z","confidence":null,"between":null,"provider":"osm","resource":"planet","version":"2026-08-02T00:00:00.000Z"}],"is_underground":false,"has_parts":false,"version":1}},
{"id":"9ac2d668-7fe2-4210-b96f-749f0230d5cc","type":"Feature","geometry":{"type":"Polygon","coordinates":[[[133.8794496,-23.7009384],[133.8792548,-23.7008466],[133.8792059,-23.7009336],[133.879166,-23.7009148],[133.8791288,-23.700981],[133.8793635,-23.7010916],[133.8794496,-23.7009384]]]},"properties":{"sources":[{"property":"","dataset":"OpenStreetMap","license":"ODbL-1.0","record_id":"w309767331@1","update_time":"2014-10-26T16:54:14.000Z","confidence":null,"between":null,"provider":"osm","resource":"planet","version":"2026-08-02T00:00:00.000Z"},{"property":"/properties/height","dataset":"Microsoft ML Buildings","license":"ODbL-1.0","record_id":null,"update_time":"2023-02-23T00:00:00.000Z","confidence":null,"between":null,"provider":"microsoft","resource":"ml_buildings","version":"2025-02-25"}],"height":5.754677772521973,"is_underground":false,"has_parts":false,"version":2}},
{"id":"94a64c77-602c-4491-a959-fdf99e0f2b7f","type":"Feature","geometry":{"type":"Polygon","coordinates":[[[133.87877,-23.7009264],[133.8785521,-23.7008322],[133.8785062,-23.7009212],[133.8787241,-23.7010154],[133.87877,-23.7009264]]]},"properties":{"sources":[{"property":"","dataset":"OpenStreetMap","license":"ODbL-1.0","record_id":"w313588883@1","update_time":"2025-11-24T11:44:52.000Z","confidence":null,"between":null,"provider":"osm","resource":"planet","version":"2026-08-02T00:00:00.000Z"},{"property":"/properties/height","dataset":"Microsoft ML Buildings","license":"ODbL-1.0","record_id":null,"update_time":"2023-02-23T00:00:00.000Z","confidence":null,"between":null,"provider":"microsoft","resource":"ml_buildings","version":"2025-02-25"}],"height":5.050612449645996,"is_underground":false,"has_parts":false,"version":4}},
{"id":"47949e57-11cc-4b2b-a3ca-b4ee5016f3b0","type":"Feature","geometry":{"type":"Polygon","coordinates":[[[133.8788515,-23.700782],[133.8784298,-23.7006061],[133.8783825,-23.7007013],[133.8788042,-23.7008771],[133.8788515,-23.700782]]]},"properties":{"sources":[{"property":"","dataset":"OpenStreetMap","license":"ODbL-1.0","record_id":"w313588882@1","update_time":"2025-11-24T11:44:52.000Z","confidence":null,"between":null,"provider":"osm","resource":"planet","version":"2026-08-02T00:00:00.000Z"},{"property":"/properties/height","dataset":"Microsoft ML Buildings","license":"ODbL-1.0","record_id":null,"update_time":"2023-02-23T00:00:00.000Z","confidence":null,"between":null,"provider":"microsoft","resource":"ml_buildings","version":"2025-02-25"}],"height":5.67124605178833,"is_underground":false,"has_parts":false,"version":2}},
{"id":"72713a31-d68e-4b3f-9260-fd6c0ee20401","type":"Feature","geometry":{"type":"Polygon","coordinates":[[[133.878911,-23.7006322],[133.8784995,-23.7004564],[133.8784501,-23.7005534],[133.8788616,-23.7007292],[133.878911,-23.7006322]]]},"properties":{"sources":[{"property":"","dataset":"OpenStreetMap","license":"ODbL-1.0","record_id":"w313588881@1","update_time":"2025-11-24T11:44:52.000Z","confidence":null,"between":null,"provider":"osm","resource":"planet","version":"2026-08-02T00:00:00.000Z"},{"property":"/properties/height","dataset":"Microsoft ML Buildings","license":"ODbL-1.0","record_id":null,"update_time":"2023-02-23T00:00:00.000Z","confidence":null,"between":null,"provider":"microsoft","resource":"ml_buildings","version":"2025-02-25"}],"height":5.0347700119018555,"is_underground":false,"has_parts":false,"version":2}},
{"id":"b773f7f1-f684-42f5-acfc-309b711951ad","type":"Feature","geometry":{"type":"Polygon","coordinates":[[[133.878991,-23.700489],[133.8785688,-23.7003106],[133.8785224,-23.7004027],[133.8789445,-23.7005811],[133.878991,-23.700489]]]},"properties":{"sources":[{"property":"","dataset":"OpenStreetMap","license":"ODbL-1.0","record_id":"w313588880@1","update_time":"2025-11-24T11:44:52.000Z","confidence":null,"between":null,"provider":"osm","resource":"planet","version":"2026-08-02T00:00:00.000Z"},{"property":"/properties/height","dataset":"Microsoft ML Buildings","license":"ODbL-1.0","record_id":null,"update_time":"2023-02-23T00:00:00.000Z","confidence":null,"between":null,"provider":"microsoft","resource":"ml_buildings","version":"2025-02-25"}],"height":4.6063690185546875,"is_underground":false,"has_parts":false,"version":2}},
{"id":"0905b2ae-82d9-4c39-af6a-354d6e1b1d0d","type":"Feature","geometry":{"type":"Polygon","coordinates":[[[133.879222,-23.7001454],[133.878718,-23.6999449],[133.8785691,-23.7002588],[133.8790341,-23.7004438],[133.8790485,-23.7004134],[133.879129,-23.7004454],[133.8792371,-23.7002176],[133.8791956,-23.7002011],[133.879222,-23.7001454]]]},"properties":{"sources":[{"property":"","dataset":"OpenStreetMap","license":"ODbL-1.0","record_id":"w257906794@1","update_time":"2025-11-24T11:44:52.000Z","confidence":null,"between":null,"provider":"osm","resource":"planet","version":"2026-08-02T00:00:00.000Z"},{"property":"/properties/height","dataset":"Microsoft ML Buildings","license":"ODbL-1.0","record_id":null,"update_time":"2023-02-23T00:00:00.000Z","confidence":null,"between":null,"provider":"microsoft","resource":"ml_buildings","version":"2025-02-25"}],"height":6.2779436111450195,"is_underground":false,"has_parts":false,"version":4}},
{"id":"0797311f-b006-436d-aedf-286af48a4d62","type":"Feature","geometry":{"type":"Polygon","coordinates":[[[133.8793466,-23.6998104],[133.8791776,-23.6997368],[133.8790486,-23.7000158],[133.8793164,-23.7001275],[133.8794082,-23.6999462],[133.8793466,-23.6998104]]]},"properties":{"sources":[{"property":"","dataset":"OpenStreetMap","license":"ODbL-1.0","record_id":"w257906798@1","update_time":"2021-08-19T03:34:13.000Z","confidence":null,"between":null,"provider":"osm","resource":"planet","version":"2026-08-02T00:00:00.000Z"},{"property":"/properties/height","dataset":"Microsoft ML Buildings","license":"ODbL-1.0","record_id":null,"update_time":"2023-02-23T00:00:00.000Z","confidence":null,"between":null,"provider":"microsoft","resource":"ml_buildings","version":"2025-02-25"}],"height":5.954433917999268,"is_underground":false,"has_parts":false,"version":2}},
{"id":"1584991b-a8c3-4e4c-9a99-a877be0f9cfb","type":"Feature","geometry":{"type":"Polygon","coordinates":[[[133.8795418,-23.6998325],[133.8796276,-23.6998349],[133.8796302,-23.6997589],[133.8795444,-23.6997564],[133.8795418,-23.6998325]]]},"properties":{"sources":[{"property":"","dataset":"Microsoft ML Buildings","license":"ODbL-1.0","record_id":null,"update_time":"2023-02-23T00:00:00.000Z","confidence":null,"between":null,"provider":"microsoft","resource":"ml_buildings","version":"2025-02-25"}],"height":0.9959636926651001,"is_underground":false,"has_parts":false,"version":3}},
{"id":"3ec9c9e9-d79c-4eae-93a7-edf1434166ce","type":"Feature","geometry":{"type":"Polygon","coordinates":[[[133.8795929,-23.6994824],[133.8793669,-23.6993868],[133.8792688,-23.6995814],[133.8794947,-23.699677],[133.8795929,-23.6994824]]]},"properties":{"sources":[{"property":"","dataset":"OpenStreetMap","license":"ODbL-1.0","record_id":"w257906802@1","update_time":"2014-01-23T10:25:58.000Z","confidence":null,"between":null,"provider":"osm","resource":"planet","version":"2026-08-02T00:00:00.000Z"}],"is_underground":false,"has_parts":false,"version":1}},
{"id":"e7940d60-81d7-4c2c-a99c-cd95a00afbea","type":"Feature","geometry":{"type":"Polygon","coordinates":[[[133.8782683,-23.699415],[133.8781369,-23.6996557],[133.8782361,-23.6996925],[133.8782603,-23.699641],[133.8783434,-23.6996729],[133.8783059,-23.6997343],[133.8786733,-23.6998767],[133.8788182,-23.6995992],[133.8783247,-23.6993978],[133.8782683,-23.699415]]]},"properties":{"sources":[{"property":"","dataset":"OpenStreetMap","license":"ODbL-1.0","record_id":"w257906786@1","update_time":"2014-01-23T10:25:57.000Z","confidence":null,"between":null,"provider":"osm","resource":"planet","version":"2026-08-02T00:00:00.000Z"},{"property":"/properties/height","dataset":"Microsoft ML Buildings","license":"ODbL-1.0","record_id":null,"update_time":"2023-02-23T00:00:00.000Z","confidence":null,"between":null,"provider":"microsoft","resource":"ml_buildings","version":"2025-02-25"}],"height":2.1726443767547607,"is_underground":false,"has_parts":false,"version":2}},
{"id":"c48f4b7d-0f86-43c2-a318-65bd98205a87","type":"Feature","geometry":{"type":"Polygon","coordinates":[[[133.8788184,-23.6991158],[133.8787087,-23.6993304],[133.8788277,-23.6993814],[133.8788742,-23.6992903],[133.878946,-23.699321],[133.8789887,-23.6992373],[133.8790713,-23.6992727],[133.8792438,-23.6989349],[133.8790847,-23.6988667],[133.8789326,-23.6991647],[133.8788184,-23.6991158]]]},"properties":{"sources":[{"property":"","dataset":"OpenStreetMap","license":"ODbL-1.0","record_id":"w257906835@1","update_time":"2014-01-23T10:26:01.000Z","confidence":null,"between":null,"provider":"osm","resource":"planet","version":"2026-08-02T00:00:00.000Z"}],"is_underground":false,"has_parts":false,"version":1}},
{"id":"a3dbd7e7-247e-4f12-a283-1b1f866f30a5","type":"Feature","geometry":{"type":"Polygon","coordinates":[[[133.8795587,-23.6984751],[133.8792497,-23.6992054],[133.8793407,-23.6992377],[133.8796497,-23.6985074],[133.8795587,-23.6984751]]]},"properties":{"sources":[{"property":"","dataset":"Microsoft ML Buildings","license":"ODbL-1.0","record_id":null,"update_time":"2023-02-23T00:00:00.000Z","confidence":null,"between":null,"provider":"microsoft","resource":"ml_buildings","version":"2025-02-25"}],"height":1.5826866626739502,"is_underground":false,"has_parts":false,"version":3}},
{"id":"7b089f4e-f552-44ec-8ed3-21e6519ec76c","type":"Feature","geometry":{"type":"Polygon","coordinates":[[[133.8794167,-23.6992803],[133.8793932,-23.6993204],[133.8795919,-23.6994179],[133.8796154,-23.6993779],[133.8794167,-23.6992803]]]},"properties":{"sources":[{"property":"","dataset":"OpenStreetMap","license":"ODbL-1.0","record_id":"w257906791@1","update_time":"2014-01-23T10:25:57.000Z","confidence":null,"between":null,"provider":"osm","resource":"planet","version":"2026-08-02T00:00:00.000Z"}],"is_underground":false,"has_parts":false,"version":1}},
{"id":"55d2c62d-7206-481d-8a3e-bfbb105b72b0","type":"Feature","geometry":{"type":"Polygon","coordinates":[[[133.8800896,-23.6989263],[133.8798102,-23.6994934],[133.8798333,-23.6995035],[133.8803069,-23.6997121],[133.880379,-23.6997353],[133.8804409,-23.6997711],[133.8803175,-23.7000364],[133.8807628,-23.7002255],[133.8808191,-23.7002304],[133.880854,-23.7002083],[133.881259,-23.6993659],[133.8812402,-23.6993266],[133.8813153,-23.699302],[133.8814521,-23.6989828],[133.881428,-23.6989336],[133.880339,-23.6984719],[133.8802988,-23.6985431],[133.8804114,-23.6986045],[133.8803229,-23.6987814],[133.8802532,-23.6987887],[133.8802049,-23.6988919],[133.8803444,-23.6989582],[133.8803229,-23.698995],[133.8801405,-23.6989091],[133.8800896,-23.6989263]]]},"properties":{"names":{"primary":"Yeperenye Shopping Centre","common":null,"rules":null},"sources":[{"property":"","dataset":"OpenStreetMap","license":"ODbL-1.0","record_id":"w257906785@4","update_time":"2024-09-29T06:53:08.000Z","confidence":null,"between":null,"provider":"osm","resource":"planet","version":"2026-08-02T00:00:00.000Z"},{"property":"/properties/height","dataset":"Microsoft ML Buildings","license":"ODbL-1.0","record_id":null,"update_time":"2023-02-23T00:00:00.000Z","confidence":null,"between":null,"provider":"microsoft","resource":"ml_buildings","version":"2025-02-25"}],"height":2.7646830081939697,"is_underground":false,"subtype":"commercial","class":"retail","has_parts":false,"version":2}},
{"id":"22bddee2-81e6-4c23-873b-097200ebf65d","type":"Feature","geometry":{"type":"Polygon","coordinates":[[[133.8813126,-23.6997392],[133.8813851,-23.6997638],[133.8812992,-23.6999504],[133.8813502,-23.6999676],[133.8813234,-23.7000118],[133.8814172,-23.7000438],[133.8815192,-23.6998006],[133.8814628,-23.6997834],[133.8815058,-23.6996925],[133.8813502,-23.6996311],[133.8813126,-23.6997392]]]},"properties":{"sources":[{"property":"","dataset":"OpenStreetMap","license":"ODbL-1.0","record_id":"w257906799@1","update_time":"2014-01-23T10:25:58.000Z","confidence":null,"between":null,"provider":"osm","resource":"planet","version":"2026-08-02T00:00:00.000Z"},{"property":"/properties/height","dataset":"Microsoft ML Buildings","license":"ODbL-1.0","record_id":null,"update_time":"2023-02-23T00:00:00.000Z","confidence":null,"between":null,"provider":"microsoft","resource":"ml_buildings","version":"2025-02-25"}],"height":2.429457664489746,"is_underground":false,"has_parts":false,"version":2}},
{"id":"597a2359-4c70-4d77-b634-2e8742b3f587","type":"Feature","geometry":{"type":"Polygon","coordinates":[[[133.8812294,-23.6987514],[133.8814889,-23.6988571],[133.8817003,-23.6984215],[133.8814063,-23.6983018],[133.8812504,-23.698623],[133.8811167,-23.6985686],[133.8810723,-23.6986554],[133.8812424,-23.6987247],[133.8812294,-23.6987514]]]},"properties":{"sources":[{"property":"","dataset":"OpenStreetMap","license":"ODbL-1.0","record_id":"w257906808@2","update_time":"2023-08-09T13:34:16.000Z","confidence":null,"between":null,"provider":"osm","resource":"planet","version":"2026-08-02T00:00:00.000Z"},{"property":"/properties/height","dataset":"Microsoft ML Buildings","license":"ODbL-1.0","record_id":null,"update_time":"2023-02-23T00:00:00.000Z","confidence":null,"between":null,"provider":"microsoft","resource":"ml_buildings","version":"2025-02-25"}],"height":5.804861545562744,"is_underground":false,"subtype":"residential","class":"house","has_parts":false,"version":2}},
{"id":"e563c35c-b720-436f-a1c3-e26a15703ba8","type":"Feature","geometry":{"type":"Polygon","coordinates":[[[133.8808084,-23.6983565],[133.8804785,-23.698214],[133.8803765,-23.6983958],[133.8806367,-23.6985161],[133.8807279,-23.6985358],[133.8807547,-23.6984866],[133.8808057,-23.6985137],[133.880854,-23.6984351],[133.8807816,-23.6983933],[133.8808084,-23.6983565]]]},"properties":{"sources":[{"property":"","dataset":"OpenStreetMap","license":"ODbL-1.0","record_id":"w257906816@1","update_time":"2014-01-23T10:25:59.000Z","confidence":null,"between":null,"provider":"osm","resource":"planet","version":"2026-08-02T00:00:00.000Z"},{"property":"/properties/height","dataset":"Microsoft ML Buildings","license":"ODbL-1.0","record_id":null,"update_time":"2023-02-23T00:00:00.000Z","confidence":null,"between":null,"provider":"microsoft","resource":"ml_buildings","version":"2025-02-25"}],"height":4.49076509475708,"is_underground":false,"has_parts":false,"version":2}},
{"id":"510346b9-3d9a-4b39-8448-9aa8053ae103","type":"Feature","geometry":{"type":"Polygon","coordinates":[[[133.8795159,-23.6991412],[133.8797092,-23.6992212],[133.880114,-23.6984002],[133.8795714,-23.6981759],[133.8794895,-23.698342],[133.8798388,-23.6984864],[133.8795159,-23.6991412]]]},"properties":{"sources":[{"property":"","dataset":"OpenStreetMap","license":"ODbL-1.0","record_id":"w257906841@1","update_time":"2014-01-23T10:26:02.000Z","confidence":null,"between":null,"provider":"osm","resource":"planet","version":"2026-08-02T00:00:00.000Z"}],"is_underground":false,"has_parts":false,"version":1}},
{"id":"22242cb2-6085-4f77-afab-d0e3b63866ae","type":"Feature","geometry":{"type":"Polygon","coordinates":[[[133.8795714,-23.6981759],[133.879032,-23.6979442],[133.8789338,-23.6981385],[133.8790356,-23.6981817],[133.8788405,-23.6985676],[133.8792768,-23.6987525],[133.8794895,-23.698342],[133.8795714,-23.6981759]]]},"properties":{"sources":[{"property":"","dataset":"OpenStreetMap","license":"ODbL-1.0","record_id":"w257902452@3","update_time":"2015-08-18T10:53:20.000Z","confidence":null,"between":null,"provider":"osm","resource":"planet","version":"2026-08-02T00:00:00.000Z"}],"is_underground":false,"subtype":"commercial","class":"retail","has_parts":false,"version":1}},
{"id":"69f3c9db-66ba-4741-9616-6d0c3b7c5b18","type":"Feature","geometry":{"type":"Polygon","coordinates":[[[133.8794599,-23.6984138],[133.8793945,-23.6985433],[133.879452,-23.6985676],[133.8795173,-23.6984381],[133.8794599,-23.6984138]]]},"properties":{"sources":[{"property":"","dataset":"Microsoft ML Buildings","license":"ODbL-1.0","record_id":null,"update_time":"2023-02-23T00:00:00.000Z","confidence":null,"between":null,"provider":"microsoft","resource":"ml_buildings","version":"2025-02-25"}],"height":5.720845699310303,"is_underground":false,"has_parts":false,"version":3}}]}