{"type": "FeatureCollection", "features": [
{"id":"f54e83e9-7eba-470c-ac16-636138a38e13","type":"Feature","geometry":{"type":"Polygon","coordinates":[[[153.0298314,-27.4684379],[153.0296132,-27.4682197],[153.0293731,-27.468412],[153.0296662,-27.4687138],[153.0298206,-27.4685999],[153.0298314,-27.4684379]]]},"properties":{"names":{"primary":"Blue Tower","common":null,"rules":null},"sources":[{"property":"","dataset":"OpenStreetMap","license":"ODbL-1.0","record_id":"w140808722@4","update_time":"2024-02-09T03:53:24.000Z","confidence":null,"between":null,"provider":"osm","resource":"planet","version":"2026-08-02T00:00:00.000Z"}],"height":134.0,"is_underground":false,"num_floors":35,"subtype":"commercial","class":"commercial","has_parts":false,"version":1}},
{"id":"c72ddb12-afc3-4059-93a5-768d40972227","type":"Feature","geometry":{"type":"Polygon","coordinates":[[[153.0292633,-27.4684274],[153.0292264,-27.4683897],[153.0291491,-27.4684521],[153.0294619,-27.4687736],[153.0294951,-27.4688079],[153.0295367,-27.468777],[153.0295179,-27.4687591],[153.0295609,-27.4687305],[153.0295501,-27.4687139],[153.029587,-27.4686858],[153.0292962,-27.468402],[153.0292633,-27.4684274]]]},"properties":{"names":{"primary":"Francis Rush Centre","common":null,"rules":null},"sources":[{"property":"","dataset":"OpenStreetMap","license":"ODbL-1.0","record_id":"w108179964@4","update_time":"2024-04-29T04:05:12.000Z","confidence":null,"between":null,"provider":"osm","resource":"planet","version":"2026-08-02T00:00:00.000Z"}],"is_underground":false,"subtype":"commercial","class":"commercial","has_parts":false,"version":1}},
{"id":"723da31b-d3c6-4f5f-9471-b3d9008395fb","type":"Feature","geometry":{"type":"Polygon","coordinates":[[[153.0287953,-27.468478],[153.0287419,-27.4685196],[153.0289824,-27.468763],[153.0289047,-27.4688234],[153.0289728,-27.4688923],[153.0290403,-27.4688398],[153.029082,-27.468882],[153.0291616,-27.4688201],[153.0291247,-27.4687828],[153.0291973,-27.4687263],[153.0291271,-27.4686552],[153.0290909,-27.4686834],[153.0288477,-27.4684373],[153.0288267,-27.4684536],[153.0288098,-27.4684365],[153.0287905,-27.4684515],[153.0287784,-27.4684609],[153.0287953,-27.468478]]]},"properties":{"names":{"primary":"Cathedral of Saint Stephen","common":null,"rules":null},"sources":[{"property":"","dataset":"OpenStreetMap","license":"ODbL-1.0","record_id":"w148276861@7","update_time":"2025-05-07T22:30:59.000Z","confidence":null,"between":null,"provider":"osm","resource":"planet","version":"2026-08-02T00:00:00.000Z"},{"property":"/properties/height","dataset":"Microsoft ML Buildings","license":"ODbL-1.0","record_id":null,"update_time":"2000-01-01T00:00:00.000Z","confidence":null,"between":null,"provider":"microsoft","resource":"ml_buildings","version":"2025-02-25"}],"height":4.216239929199219,"is_underground":false,"subtype":"religious","class":"church","has_parts":false,"version":2}},
{"id":"b0a037d8-f6f0-4268-8743-acb03ea95a5b","type":"Feature","geometry":{"type":"Polygon","coordinates":[[[153.0285742,-27.4686345],[153.0285105,-27.4686842],[153.0286156,-27.4687905],[153.0286232,-27.4687845],[153.0286646,-27.4688264],[153.0287152,-27.468787],[153.0286706,-27.4687418],[153.028676,-27.4687376],[153.0285742,-27.4686345]]]},"properties":{"names":{"primary":"St. Stephens Chapel","common":null,"rules":null},"sources":[{"property":"","dataset":"OpenStreetMap","license":"ODbL-1.0","record_id":"w23892775@5","update_time":"2024-03-21T02:52:21.000Z","confidence":null,"between":null,"provider":"osm","resource":"planet","version":"2026-08-02T00:00:00.000Z"},{"property":"/properties/height","dataset":"Microsoft ML Buildings","license":"ODbL-1.0","record_id":null,"update_time":"2000-01-01T00:00:00.000Z","confidence":null,"between":null,"provider":"microsoft","resource":"ml_buildings","version":"2025-02-25"}],"height":6.027984142303467,"is_underground":false,"subtype":"religious","class":"church","has_parts":false,"version":2}},
{"id":"995e4a6d-1488-4693-9153-50546acebadc","type":"Feature","geometry":{"type":"Polygon","coordinates":[[[153.0284503,-27.468378],[153.0286896,-27.4681954],[153.028365,-27.4678616],[153.0281311,-27.4676211],[153.0278857,-27.4678057],[153.0276864,-27.4679555],[153.0279513,-27.4682258],[153.0282482,-27.4685323],[153.0284503,-27.468378]],[[153.0283407,-27.4682774],[153.0283276,-27.4682869],[153.0280178,-27.4679751],[153.0280249,-27.4679708],[153.0279901,-27.4679363],[153.0280007,-27.4679273],[153.0280084,-27.4679208],[153.0280477,-27.4679605],[153.0280535,-27.4679561],[153.0283557,-27.4682667],[153.0283407,-27.4682774]]]},"properties":{"names":{"primary":"General Post Office","common":null,"rules":null},"sources":[{"property":"","dataset":"OpenStreetMap","license":"ODbL-1.0","record_id":"r17252786@3","update_time":"2025-03-08T03:43:26.000Z","confidence":null,"between":null,"provider":"osm","resource":"planet","version":"2026-08-02T00:00:00.000Z"}],"height":15.0,"is_underground":false,"num_floors":5,"subtype":"commercial","class":"post_office","has_parts":false,"version":2}},
{"id":"b7bff01c-af76-4dfe-a62e-bae92ba0cb5e","type":"Feature","geometry":{"type":"Polygon","coordinates":[[[153.0286364,-27.4713258],[153.0285353,-27.4712238],[153.0280753,-27.4715826],[153.0283602,-27.4718741],[153.0288224,-27.4715155],[153.0286364,-27.4713258]]]},"properties":{"names":{"primary":"The Westin Brisbane","common":null,"rules":null},"sources":[{"property":"","dataset":"OpenStreetMap","license":"ODbL-1.0","record_id":"w1465613265@5","update_time":"2026-02-16T02:20:21.000Z","confidence":null,"between":null,"provider":"osm","resource":"planet","version":"2026-08-02T00:00:00.000Z"}],"height":130.6,"is_underground":false,"num_floors":38,"subtype":"commercial","class":"hotel","has_parts":true,"version":2}},
{"id":"50e313f0-870a-429d-838a-fd97303b8f21","type":"Feature","geometry":{"type":"Polygon","coordinates":[[[153.0289157,-27.4711111],[153.0287738,-27.4711007],[153.0286769,-27.4711715],[153.0286774,-27.4712937],[153.0286364,-27.4713258],[153.0288224,-27.4715155],[153.0288562,-27.4715508],[153.0291647,-27.4713115],[153.028994,-27.4711367],[153.0292903,-27.4709065],[153.0291626,-27.4707778],[153.028966,-27.4709188],[153.0289605,-27.4710768],[153.0289157,-27.4711111]]]},"properties":{"sources":[{"property":"","dataset":"OpenStreetMap","license":"ODbL-1.0","record_id":"w612259681@3","update_time":"2026-01-09T14:11:56.000Z","confidence":null,"between":null,"provider":"osm","resource":"planet","version":"2026-08-02T00:00:00.000Z"},{"property":"/properties/height","dataset":"Microsoft ML Buildings","license":"ODbL-1.0","record_id":null,"update_time":"2000-01-01T00:00:00.000Z","confidence":null,"between":null,"provider":"microsoft","resource":"ml_buildings","version":"2025-02-25"}],"height":15.706459045410156,"is_underground":false,"has_parts":true,"version":3}},
{"id":"9c04de4a-975b-4c76-8696-0e20362915b6","type":"Feature","geometry":{"type":"Polygon","coordinates":[[[153.0280856,-27.4702417],[153.0277971,-27.4704677],[153.0280049,-27.4706813],[153.0280248,-27.4706993],[153.0281012,-27.4707766],[153.0281555,-27.4708324],[153.0284006,-27.4710824],[153.0286731,-27.4708663],[153.0284203,-27.470607],[153.0283684,-27.4705541],[153.0283757,-27.4705485],[153.0283927,-27.4705342],[153.0280966,-27.4702319],[153.0280856,-27.4702417]]]},"properties":{"names":{"primary":"Queensland Health Building","common":null,"rules":null},"sources":[{"property":"","dataset":"OpenStreetMap","license":"ODbL-1.0","record_id":"w49748166@7","update_time":"2024-05-15T05:13:32.000Z","confidence":null,"between":null,"provider":"osm","resource":"planet","version":"2026-08-02T00:00:00.000Z"}],"is_underground":false,"subtype":"commercial","class":"office","has_parts":true,"version":1}},
{"id":"a0a86ff7-8180-4cc2-b259-350caa156cc3","type":"Feature","geometry":{"type":"Polygon","coordinates":[[[153.0282734,-27.4687688],[153.0280494,-27.4689394],[153.0282499,-27.4691466],[153.0283369,-27.4690804],[153.0284425,-27.469188],[153.0284727,-27.4691633],[153.0285647,-27.4690932],[153.0285842,-27.4690783],[153.0285911,-27.4690731],[153.0283035,-27.4687758],[153.0282868,-27.4687586],[153.0282734,-27.4687688]]]},"properties":{"names":{"primary":"Cathedral House","common":null,"rules":null},"sources":[{"property":"","dataset":"OpenStreetMap","license":"ODbL-1.0","record_id":"w140808721@7","update_time":"2025-03-06T07:27:05.000Z","confidence":null,"between":null,"provider":"osm","resource":"planet","version":"2026-08-02T00:00:00.000Z"}],"height":45.0,"is_underground":false,"num_floors":10,"subtype":"commercial","class":"office","has_parts":false,"version":1}},
{"id":"449f944d-b497-44f8-8126-a6d4854e9d57","type":"Feature","geometry":{"type":"Polygon","coordinates":[[[153.0284215,-27.4697268],[153.0287339,-27.4694918],[153.028625,-27.4693779],[153.0285903,-27.4693416],[153.028278,-27.4695766],[153.0284215,-27.4697268]]]},"properties":{"names":{"primary":"Stock Exchange Hotel","common":null,"rules":null},"sources":[{"property":"","dataset":"OpenStreetMap","license":"ODbL-1.0","record_id":"w108292994@10","update_time":"2025-05-07T07:09:40.000Z","confidence":null,"between":null,"provider":"osm","resource":"planet","version":"2026-08-02T00:00:00.000Z"}],"is_underground":false,"num_floors":2,"subtype":"commercial","class":"commercial","has_parts":false,"version":1}},
{"id":"14d41685-ae26-4676-b9d8-a669a5aafb3d","type":"Feature","geometry":{"type":"Polygon","coordinates":[[[153.0284425,-27.469188],[153.0283336,-27.4692695],[153.0281316,-27.4694243],[153.028278,-27.4695766],[153.0285903,-27.4693416],[153.0285631,-27.4693135],[153.0284882,-27.4692355],[153.0284766,-27.4692234],[153.028458,-27.4692041],[153.0284425,-27.469188]]]},"properties":{"names":{"primary":"The Catholic Centre","common":null,"rules":null},"sources":[{"property":"","dataset":"OpenStreetMap","license":"ODbL-1.0","record_id":"w140808685@5","update_time":"2025-05-07T22:30:59.000Z","confidence":null,"between":null,"provider":"osm","resource":"planet","version":"2026-08-02T00:00:00.000Z"}],"is_underground":false,"num_floors":5,"subtype":"commercial","class":"commercial","has_parts":false,"version":1}},
{"id":"03bb0d14-6467-4afa-8296-64094c699ac2","type":"Feature","geometry":{"type":"Polygon","coordinates":[[[153.0288278,-27.4691184],[153.0287434,-27.4691847],[153.0287677,-27.469209],[153.0288462,-27.4692877],[153.0288237,-27.4693054],[153.02887,-27.4693518],[153.0290017,-27.4692483],[153.0289571,-27.4692037],[153.0289323,-27.4692232],[153.0288278,-27.4691184]]]},"properties":{"names":{"primary":"Mercy House","common":null,"rules":null},"sources":[{"property":"","dataset":"OpenStreetMap","license":"ODbL-1.0","record_id":"w108180092@9","update_time":"2025-05-07T22:30:59.000Z","confidence":null,"between":null,"provider":"osm","resource":"planet","version":"2026-08-02T00:00:00.000Z"},{"property":"/properties/height","dataset":"Microsoft ML Buildings","license":"ODbL-1.0","record_id":null,"update_time":"2000-01-01T00:00:00.000Z","confidence":null,"between":null,"provider":"microsoft","resource":"ml_buildings","version":"2025-02-25"}],"height":8.831422805786133,"is_underground":false,"num_floors":3,"subtype":"religious","class":"church","roof_shape":"hipped","has_parts":false,"version":2}},
{"id":"d5f1aa72-8c51-410d-b050-4d714a710355","type":"Feature","geometry":{"type":"Polygon","coordinates":[[[153.0288063,-27.4694341],[153.0286975,-27.4693195],[153.0286888,-27.4693265],[153.0286736,-27.4693388],[153.0286615,-27.4693485],[153.028625,-27.4693779],[153.0287339,-27.4694918],[153.0288063,-27.4694341]]]},"properties":{"names":{"primary":"Queensland Holocaust Museum","common":null,"rules":null},"sources":[{"property":"","dataset":"OpenStreetMap","license":"ODbL-1.0","record_id":"w108180190@11","update_time":"2025-05-07T22:30:59.000Z","confidence":null,"between":null,"provider":"osm","resource":"planet","version":"2026-08-02T00:00:00.000Z"},{"property":"/properties/height","dataset":"Microsoft ML Buildings","license":"ODbL-1.0","record_id":null,"update_time":"2000-01-01T00:00:00.000Z","confidence":null,"between":null,"provider":"microsoft","resource":"ml_buildings","version":"2025-02-25"}],"height":6.279741287231445,"is_underground":false,"num_floors":1,"subtype":"commercial","class":"commercial","has_parts":false,"version":2}},
{"id":"36645bff-0bf0-4a1d-a7f5-ff96bc4da0c4","type":"Feature","geometry":{"type":"Polygon","coordinates":[[[153.0287437,-27.4697268],[153.0285751,-27.4698563],[153.0287236,-27.4700084],[153.0288921,-27.469879],[153.0288783,-27.4698649],[153.028959,-27.4698029],[153.0289745,-27.4698188],[153.029032,-27.4697747],[153.0289566,-27.4696974],[153.0289417,-27.4697088],[153.0288735,-27.469639],[153.0287792,-27.4697114],[153.0288165,-27.4697497],[153.0288604,-27.469716],[153.0289206,-27.4697777],[153.0288479,-27.4698335],[153.0287437,-27.4697268]]]},"properties":{"names":{"primary":"Victory","common":null,"rules":null},"sources":[{"property":"","dataset":"OpenStreetMap","license":"ODbL-1.0","record_id":"w49748193@13","update_time":"2025-05-20T23:33:26.000Z","confidence":null,"between":null,"provider":"osm","resource":"planet","version":"2026-08-02T00:00:00.000Z"}],"is_underground":false,"num_floors":2,"subtype":"commercial","class":"commercial","roof_shape":"hipped","has_parts":false,"version":1}},
{"id":"942d9900-21c4-4080-8078-808f5cb56680","type":"Feature","geometry":{"type":"Polygon","coordinates":[[[153.0288921,-27.469879],[153.0287236,-27.4700084],[153.0288787,-27.4701675],[153.0291474,-27.4699611],[153.0291872,-27.4699306],[153.0290856,-27.4698264],[153.0289788,-27.4699085],[153.0289252,-27.4698536],[153.0288921,-27.469879]]]},"properties":{"names":{"primary":"Metro Arts","common":null,"rules":null},"sources":[{"property":"","dataset":"OpenStreetMap","license":"ODbL-1.0","record_id":"w49748194@5","update_time":"2025-05-20T23:33:27.000Z","confidence":null,"between":null,"provider":"osm","resource":"planet","version":"2026-08-02T00:00:00.000Z"}],"is_underground":false,"num_floors":6,"subtype":"commercial","class":"commercial","has_parts":false,"version":1}},
{"id":"56b7c481-f6bc-4853-971c-fbbc1cdafe22","type":"Feature","geometry":{"type":"Polygon","coordinates":[[[153.0284127,-27.4699954],[153.0280966,-27.4702319],[153.0283927,-27.4705342],[153.028713,-27.4702953],[153.0284127,-27.4699954]]]},"properties":{"sources":[{"property":"","dataset":"OpenStreetMap","license":"ODbL-1.0","record_id":"w49748164@7","update_time":"2025-03-06T07:27:05.000Z","confidence":null,"between":null,"provider":"osm","resource":"planet","version":"2026-08-02T00:00:00.000Z"}],"is_underground":false,"num_floors":3,"subtype":"commercial","class":"commercial","has_parts":true,"version":1}},
{"id":"b07cbbee-08dc-499a-b20c-d647739fa501","type":"Feature","geometry":{"type":"Polygon","coordinates":[[[153.0287725,-27.4703501],[153.028713,-27.4702953],[153.0283927,-27.4705342],[153.0283757,-27.4705485],[153.0283684,-27.4705541],[153.0284203,-27.470607],[153.0286154,-27.4704647],[153.0287725,-27.4703501]]]},"properties":{"sources":[{"property":"","dataset":"OpenStreetMap","license":"ODbL-1.0","record_id":"w49748165@5","update_time":"2024-05-15T05:13:32.000Z","confidence":null,"between":null,"provider":"osm","resource":"planet","version":"2026-08-02T00:00:00.000Z"}],"is_underground":false,"num_floors":5,"subtype":"commercial","class":"commercial","has_parts":false,"version":1}},
{"id":"d02da118-8a7c-4a4f-9526-78892b9b46dd","type":"Feature","geometry":{"type":"Polygon","coordinates":[[[153.0288174,-27.4703978],[153.0287725,-27.4703501],[153.0286154,-27.4704647],[153.0286681,-27.4705168],[153.0287918,-27.4704205],[153.0288174,-27.4703978]]]},"properties":{"names":{"primary":"Le Bon Chox","common":null,"rules":null},"sources":[{"property":"","dataset":"OpenStreetMap","license":"ODbL-1.0","record_id":"w124476474@5","update_time":"2024-04-12T02:29:47.000Z","confidence":null,"between":null,"provider":"osm","resource":"planet","version":"2026-08-02T00:00:00.000Z"}],"is_underground":false,"subtype":"commercial","class":"commercial","has_parts":false,"version":1}},
{"id":"28c7a252-bad8-4ff7-9ab8-7da72a4a3be4","type":"Feature","geometry":{"type":"Polygon","coordinates":[[[153.0289484,-27.4706225],[153.0289478,-27.4705801],[153.0287918,-27.4704205],[153.0286681,-27.4705168],[153.0286153,-27.4705563],[153.0286313,-27.4705726],[153.0286211,-27.4705804],[153.0285379,-27.4706445],[153.0287128,-27.4708235],[153.0287676,-27.4707813],[153.0287691,-27.4707606],[153.0289484,-27.4706225]]]},"properties":{"sources":[{"property":"","dataset":"OpenStreetMap","license":"ODbL-1.0","record_id":"w49748163@4","update_time":"2017-11-17T00:26:15.000Z","confidence":null,"between":null,"provider":"osm","resource":"planet","version":"2026-08-02T00:00:00.000Z"}],"is_underground":false,"num_floors":17,"subtype":"commercial","class":"commercial","has_parts":false,"version":1}},
{"id":"3245133e-6010-4dd7-b656-a5279a56b550","type":"Feature","geometry":{"type":"Polygon","coordinates":[[[153.0296496,-27.4707467],[153.0295328,-27.4708381],[153.029606,-27.4709118],[153.0297434,-27.4708042],[153.0296986,-27.4707591],[153.029678,-27.4707752],[153.0296496,-27.4707467]]]},"properties":{"sources":[{"property":"","dataset":"OpenStreetMap","license":"ODbL-1.0","record_id":"w49748204@4","update_time":"2020-01-13T10:04:33.000Z","confidence":null,"between":null,"provider":"osm","resource":"planet","version":"2026-08-02T00:00:00.000Z"}],"is_underground":false,"num_floors":2,"subtype":"commercial","class":"commercial","has_parts":false,"version":1}},
{"id":"c0e920ab-9bf1-469f-904d-68da3ad1ae0f","type":"Feature","geometry":{"type":"Polygon","coordinates":[[[153.0296602,-27.4706922],[153.0295779,-27.4706092],[153.0295296,-27.4706469],[153.0296119,-27.4707299],[153.0296602,-27.4706922]]]},"properties":{"sources":[{"property":"","dataset":"OpenStreetMap","license":"ODbL-1.0","record_id":"w762826662@1","update_time":"2020-01-13T10:04:33.000Z","confidence":null,"between":null,"provider":"osm","resource":"planet","version":"2026-08-02T00:00:00.000Z"}],"is_underground":false,"has_parts":false,"version":1}},
{"id":"5e35c602-c93c-4b1f-919b-447647fbc38c","type":"Feature","geometry":{"type":"Polygon","coordinates":[[[153.0295571,-27.4704192],[153.0294626,-27.4704931],[153.0295779,-27.4706092],[153.0296602,-27.4706922],[153.0297591,-27.4707919],[153.0298149,-27.4707483],[153.0297669,-27.4706999],[153.0298056,-27.4706696],[153.0295571,-27.4704192]]]},"properties":{"names":{"primary":"Doughcraft","common":null,"rules":null},"sources":[{"property":"","dataset":"OpenStreetMap","license":"ODbL-1.0","record_id":"w49748202@8","update_time":"2024-04-19T02:50:44.000Z","confidence":null,"between":null,"provider":"osm","resource":"planet","version":"2026-08-02T00:00:00.000Z"}],"is_underground":false,"subtype":"commercial","class":"commercial","has_parts":false,"version":1}},
{"id":"dfd08441-0298-4457-a0d9-ede887f5dd14","type":"Feature","geometry":{"type":"Polygon","coordinates":[[[153.029424,-27.4707295],[153.0295296,-27.4706469],[153.0295779,-27.4706092],[153.0294626,-27.4704931],[153.0293087,-27.4706133],[153.029424,-27.4707295]]]},"properties":{"sources":[{"property":"","dataset":"OpenStreetMap","license":"ODbL-1.0","record_id":"w49748203@7","update_time":"2025-03-06T07:27:05.000Z","confidence":null,"between":null,"provider":"osm","resource":"planet","version":"2026-08-02T00:00:00.000Z"},{"property":"/properties/height","dataset":"Microsoft ML Buildings","license":"ODbL-1.0","record_id":null,"update_time":"2000-01-01T00:00:00.000Z","confidence":null,"between":null,"provider":"microsoft","resource":"ml_buildings","version":"2025-02-25"}],"height":13.67464828491211,"is_underground":false,"subtype":"commercial","class":"commercial","has_parts":false,"version":2}},
{"id":"5ce9dacc-5acd-4a2f-90aa-a22c8c1bb98b","type":"Feature","geometry":{"type":"Polygon","coordinates":[[[153.0294819,-27.4697539],[153.02926,-27.4699269],[153.0294957,-27.470165],[153.0297176,-27.469992],[153.0294819,-27.4697539]]]},"properties":{"sources":[{"property":"","dataset":"OpenStreetMap","license":"ODbL-1.0","record_id":"w49748192@7","update_time":"2023-06-13T10:28:53.000Z","confidence":null,"between":null,"provider":"osm","resource":"planet","version":"2026-08-02T00:00:00.000Z"}],"is_underground":false,"num_floors":19,"subtype":"commercial","class":"commercial","has_parts":false,"version":1}},
{"id":"622d01fe-6e02-4432-b140-985bb54e5d58","type":"Feature","geometry":{"type":"Polygon","coordinates":[[[153.0293223,-27.4702103],[153.0290926,-27.4703867],[153.0291793,-27.4704755],[153.0294573,-27.470262],[153.0293706,-27.4701732],[153.0293223,-27.4702103]]]},"properties":{"sources":[{"property":"","dataset":"OpenStreetMap","license":"ODbL-1.0","record_id":"w49748208@4","update_time":"2017-09-29T03:44:05.000Z","confidence":null,"between":null,"provider":"osm","resource":"planet","version":"2026-08-02T00:00:00.000Z"}],"is_underground":false,"num_floors":4,"subtype":"commercial","class":"commercial","has_parts":false,"version":1}},
{"id":"430ce2ab-528b-4911-b77c-44fbcc46d5f0","type":"Feature","geometry":{"type":"Polygon","coordinates":[[[153.0292542,-27.4701404],[153.0290244,-27.4703168],[153.0290926,-27.4703867],[153.0293223,-27.4702103],[153.0292542,-27.4701404]]]},"properties":{"sources":[{"property":"","dataset":"OpenStreetMap","license":"ODbL-1.0","record_id":"w49748207@4","update_time":"2017-09-29T03:43:54.000Z","confidence":null,"between":null,"provider":"osm","resource":"planet","version":"2026-08-02T00:00:00.000Z"}],"is_underground":false,"num_floors":4,"subtype":"commercial","class":"commercial","has_parts":false,"version":1}},
{"id":"4b2504cb-ab72-42ac-9485-c408a3954d4c","type":"Feature","geometry":{"type":"Polygon","coordinates":[[[153.0291835,-27.4700679],[153.0289538,-27.4702444],[153.0290244,-27.4703168],[153.0292542,-27.4701404],[153.0291835,-27.4700679]]]},"properties":{"sources":[{"property":"","dataset":"OpenStreetMap","license":"ODbL-1.0","record_id":"w49748206@4","update_time":"2017-09-29T03:43:49.000Z","confidence":null,"between":null,"provider":"osm","resource":"planet","version":"2026-08-02T00:00:00.000Z"}],"is_underground":false,"num_floors":4,"subtype":"commercial","class":"commercial","has_parts":false,"version":1}},
{"id":"7a967d8b-8168-40be-9037-607574599eb5","type":"Feature","geometry":{"type":"Polygon","coordinates":[[[153.0291474,-27.4699611],[153.0288787,-27.4701675],[153.0289538,-27.4702444],[153.0291835,-27.4700679],[153.0292224,-27.470038],[153.0291474,-27.4699611]]]},"properties":{"sources":[{"property":"","dataset":"OpenStreetMap","license":"ODbL-1.0","record_id":"w49748205@4","update_time":"2017-09-29T03:43:38.000Z","confidence":null,"between":null,"provider":"osm","resource":"planet","version":"2026-08-02T00:00:00.000Z"}],"is_underground":false,"num_floors":4,"subtype":"commercial","class":"commercial","has_parts":false,"version":1}},
{"id":"998140b2-7c28-42c7-a7b0-1a6cfccf22bc","type":"Feature","geometry":{"type":"Polygon","coordinates":[[[153.0291831,-27.469852],[153.0292107,-27.4698493],[153.0294073,-27.4696959],[153.0294063,-27.4696699],[153.0292696,-27.4695319],[153.0292947,-27.4695123],[153.0292331,-27.4694501],[153.029208,-27.4694698],[153.0292029,-27.4694646],[153.029177,-27.4694611],[153.0289749,-27.4696187],[153.0289735,-27.4696404],[153.0291831,-27.469852]]]},"properties":{"sources":[{"property":"","dataset":"OpenStreetMap","license":"ODbL-1.0","record_id":"w49748212@5","update_time":"2025-02-05T07:05:50.000Z","confidence":null,"between":null,"provider":"osm","resource":"planet","version":"2026-08-02T00:00:00.000Z"}],"is_underground":false,"num_floors":18,"subtype":"commercial","class":"commercial","roof_shape":"flat","has_parts":false,"version":1}},
{"id":"62e887f0-f95c-4cd6-9600-b852fb5a3c1f","type":"Feature","geometry":{"type":"Polygon","coordinates":[[[153.0293427,-27.4692652],[153.0292377,-27.4693453],[153.0294454,-27.4695598],[153.0294182,-27.4695806],[153.0295131,-27.4696786],[153.0296454,-27.4695778],[153.0293427,-27.4692652]]]},"properties":{"sources":[{"property":"","dataset":"OpenStreetMap","license":"ODbL-1.0","record_id":"w49748211@3","update_time":"2017-10-13T04:17:40.000Z","confidence":null,"between":null,"provider":"osm","resource":"planet","version":"2026-08-02T00:00:00.000Z"}],"is_underground":false,"num_floors":3,"subtype":"commercial","class":"commercial","has_parts":false,"version":1}},
{"id":"865fdcff-a0b2-48fc-a59a-53baeac3d84b","type":"Feature","geometry":{"type":"Polygon","coordinates":[[[153.0296783,-27.4695992],[153.0295643,-27.4696904],[153.0296247,-27.4697499],[153.0296031,-27.4697671],[153.0296846,-27.4698474],[153.0297034,-27.4698323],[153.0297947,-27.4699223],[153.0299115,-27.469829],[153.0296783,-27.4695992]]]},"properties":{"sources":[{"property":"","dataset":"OpenStreetMap","license":"ODbL-1.0","record_id":"w49748210@4","update_time":"2025-07-17T02:19:45.000Z","confidence":null,"between":null,"provider":"osm","resource":"planet","version":"2026-08-02T00:00:00.000Z"}],"is_underground":false,"num_floors":16,"subtype":"commercial","class":"commercial","has_parts":false,"version":2}},
{"id":"d2a8f232-3eef-4387-931f-5e27026d7994","type":"Feature","geometry":{"type":"Polygon","coordinates":[[[153.0297296,-27.4693254],[153.029868,-27.4693973],[153.0298844,-27.4693973],[153.030069,-27.4692575],[153.0300769,-27.4692387],[153.0300589,-27.4691237],[153.0300441,-27.4691108],[153.0300236,-27.4691097],[153.0299837,-27.4691359],[153.0299458,-27.4690961],[153.0299552,-27.4690832],[153.0299477,-27.4690677],[153.0297996,-27.4689935],[153.0297768,-27.4689952],[153.0296008,-27.4691372],[153.0295953,-27.4691521],[153.0296324,-27.4692446],[153.0296572,-27.469258],[153.0296754,-27.4692571],[153.0296987,-27.4692447],[153.0297466,-27.4692881],[153.0297307,-27.4693039],[153.0297296,-27.4693254]]]},"properties":{"names":{"primary":"AMP Place","common":null,"rules":[{"variant":"alternate","language":null,"perspectives":null,"value":"AMP Building","between":null,"side":null}]},"sources":[{"property":"","dataset":"OpenStreetMap","license":"ODbL-1.0","record_id":"w24317212@11","update_time":"2025-05-20T23:33:27.000Z","confidence":null,"between":null,"provider":"osm","resource":"planet","version":"2026-08-02T00:00:00.000Z"}],"height":135.0,"is_underground":false,"num_floors":35,"subtype":"commercial","class":"commercial","has_parts":false,"version":1}},
{"id":"f5de9315-b082-445f-8c53-c74d1aabf592","type":"Feature","geometry":{"type":"Polygon","coordinates":[[[153.0299619,-27.4694648],[153.0299418,-27.4694457],[153.0299149,-27.4694362],[153.0298948,-27.4694398],[153.0298707,-27.469454],[153.029864,-27.4694838],[153.0298814,-27.4695135],[153.0299002,-27.4695171],[153.029927,-27.4695338],[153.0299592,-27.4695599],[153.0299709,-27.4695536],[153.0300249,-27.4696099],[153.0301158,-27.4695762],[153.0301064,-27.4694906],[153.0300155,-27.4694707],[153.0299927,-27.4694981],[153.0299619,-27.4694648]]]},"properties":{"sources":[{"property":"","dataset":"OpenStreetMap","license":"ODbL-1.0","record_id":"w130800482@2","update_time":"2017-09-28T23:43:32.000Z","confidence":null,"between":null,"provider":"osm","resource":"planet","version":"2026-08-02T00:00:00.000Z"}],"is_underground":false,"subtype":"commercial","class":"retail","has_parts":false,"version":1}},
{"id":"3cd590b3-55e8-4cec-8792-51582a55002f","type":"Feature","geometry":{"type":"Polygon","coordinates":[[[153.0301802,-27.4699308],[153.0299075,-27.4701415],[153.0300056,-27.4702384],[153.0300957,-27.4701682],[153.0301147,-27.4701863],[153.0302091,-27.4701153],[153.0301928,-27.4700966],[153.030283,-27.4700283],[153.0302567,-27.4700034],[153.0302823,-27.4699801],[153.0302438,-27.4699432],[153.0302158,-27.4699646],[153.0301802,-27.4699308]]]},"properties":{"sources":[{"property":"","dataset":"OpenStreetMap","license":"ODbL-1.0","record_id":"w23892825@7","update_time":"2025-05-20T23:33:28.000Z","confidence":null,"between":null,"provider":"osm","resource":"planet","version":"2026-08-02T00:00:00.000Z"},{"property":"/properties/height","dataset":"Microsoft ML Buildings","license":"ODbL-1.0","record_id":null,"update_time":"2000-01-01T00:00:00.000Z","confidence":null,"between":null,"provider":"microsoft","resource":"ml_buildings","version":"2025-02-25"}],"height":6.764336109161377,"is_underground":false,"num_floors":4,"subtype":"commercial","class":"commercial","has_parts":false,"version":2}},
{"id":"efae4751-33e4-46b5-b83f-ea8ddb1f70e3","type":"Feature","geometry":{"type":"Polygon","coordinates":[[[153.029675,-27.4704443],[153.0296936,-27.4705129],[153.0298109,-27.4706375],[153.0298841,-27.4706567],[153.029976,-27.4706648],[153.0299881,-27.4705779],[153.0299755,-27.4704912],[153.0299282,-27.4704334],[153.0298763,-27.4703859],[153.0298232,-27.4703699],[153.0296787,-27.4703648],[153.029675,-27.4704443]]]},"properties":{"sources":[{"property":"","dataset":"OpenStreetMap","license":"ODbL-1.0","record_id":"w140804554@4","update_time":"2025-03-06T07:27:05.000Z","confidence":null,"between":null,"provider":"osm","resource":"planet","version":"2026-08-02T00:00:00.000Z"}],"height":133.0,"is_underground":false,"num_floors":40,"subtype":"commercial","class":"hotel","has_parts":false,"version":1}},
{"id":"1732638a-a627-4fc6-97e7-a791ce5218d8","type":"Feature","geometry":{"type":"Polygon","coordinates":[[[153.0299668,-27.4707271],[153.030003,-27.4707635],[153.0301288,-27.470665],[153.0301549,-27.4706446],[153.0297673,-27.4702546],[153.0295571,-27.4704192],[153.0298056,-27.4706696],[153.0299084,-27.4707728],[153.0299668,-27.4707271]],[[153.0298841,-27.4706567],[153.0298109,-27.4706375],[153.0296936,-27.4705129],[153.029675,-27.4704443],[153.0296787,-27.4703648],[153.0298232,-27.4703699],[153.0298763,-27.4703859],[153.0299282,-27.4704334],[153.0299755,-27.4704912],[153.0299881,-27.4705779],[153.029976,-27.4706648],[153.0298841,-27.4706567]]]},"properties":{"names":{"primary":"Felix","common":null,"rules":null},"sources":[{"property":"","dataset":"OpenStreetMap","license":"ODbL-1.0","record_id":"r8486992@3","update_time":"2025-03-06T07:27:05.000Z","confidence":null,"between":null,"provider":"osm","resource":"planet","version":"2026-08-02T00:00:00.000Z"}],"is_underground":false,"num_floors":4,"subtype":"residential","class":"residential","has_parts":false,"version":2}},
{"id":"f97701a8-ce89-469c-82ee-8b697ca1d588","type":"Feature","geometry":{"type":"Polygon","coordinates":[[[153.0299537,-27.4708878],[153.0298149,-27.4707483],[153.0297591,-27.4707919],[153.0297434,-27.4708042],[153.029606,-27.4709118],[153.0297448,-27.4710513],[153.0299047,-27.4709262],[153.0299537,-27.4708878]]]},"properties":{"names":{"primary":"Bostonian Apartments","common":null,"rules":null},"sources":[{"property":"","dataset":"OpenStreetMap","license":"ODbL-1.0","record_id":"w49748200@4","update_time":"2020-01-13T10:04:33.000Z","confidence":null,"between":null,"provider":"osm","resource":"planet","version":"2026-08-02T00:00:00.000Z"}],"is_underground":false,"num_floors":6,"subtype":"residential","class":"residential","has_parts":false,"version":1}},
{"id":"0097ec14-6bc1-40d8-b192-9630164b1d09","type":"Feature","geometry":{"type":"Polygon","coordinates":[[[153.030003,-27.4707635],[153.0299321,-27.4708218],[153.0301625,-27.4710543],[153.0303564,-27.470903],[153.0303699,-27.4708817],[153.03037,-27.4708489],[153.0303581,-27.4708271],[153.0302083,-27.470676],[153.0301697,-27.4707061],[153.0301288,-27.470665],[153.030003,-27.4707635]]]},"properties":{"sources":[{"property":"","dataset":"OpenStreetMap","license":"ODbL-1.0","record_id":"w49748196@4","update_time":"2025-03-06T07:27:05.000Z","confidence":null,"between":null,"provider":"osm","resource":"planet","version":"2026-08-02T00:00:00.000Z"}],"height":45.0,"is_underground":false,"num_floors":10,"subtype":"commercial","class":"commercial","has_parts":false,"version":1}},
{"id":"b84d5f9f-142a-464a-bbcc-838b937112c1","type":"Feature","geometry":{"type":"Polygon","coordinates":[[[153.0298665,-27.4711737],[153.0299217,-27.4712293],[153.0301241,-27.4710708],[153.0300869,-27.4710334],[153.0300847,-27.4710311],[153.0300689,-27.4710153],[153.0300264,-27.4710486],[153.0298665,-27.4711737]]]},"properties":{"sources":[{"property":"","dataset":"OpenStreetMap","license":"ODbL-1.0","record_id":"w49748197@5","update_time":"2025-11-30T03:04:57.000Z","confidence":null,"between":null,"provider":"osm","resource":"planet","version":"2026-08-02T00:00:00.000Z"}],"is_underground":false,"num_floors":3,"subtype":"commercial","class":"commercial","has_parts":false,"version":2}},
{"id":"20997c90-9732-4317-af4d-2cf5400eca62","type":"Feature","geometry":{"type":"Polygon","coordinates":[[[153.0298071,-27.471114],[153.0298665,-27.4711737],[153.0300264,-27.4710486],[153.029967,-27.4709889],[153.0298071,-27.471114]]]},"properties":{"sources":[{"property":"","dataset":"OpenStreetMap","license":"ODbL-1.0","record_id":"w49748198@4","update_time":"2020-01-13T10:04:33.000Z","confidence":null,"between":null,"provider":"osm","resource":"planet","version":"2026-08-02T00:00:00.000Z"}],"is_underground":false,"num_floors":5,"subtype":"commercial","class":"commercial","has_parts":false,"version":1}},
{"id":"314a37d0-d51e-4451-aab0-8d5aee83a8bd","type":"Feature","geometry":{"type":"Polygon","coordinates":[[[153.0299047,-27.4709262],[153.0297448,-27.4710513],[153.0298071,-27.471114],[153.029967,-27.4709889],[153.0299047,-27.4709262]]]},"properties":{"sources":[{"property":"","dataset":"OpenStreetMap","license":"ODbL-1.0","record_id":"w49748199@4","update_time":"2020-01-13T10:04:33.000Z","confidence":null,"between":null,"provider":"osm","resource":"planet","version":"2026-08-02T00:00:00.000Z"}],"is_underground":false,"num_floors":5,"subtype":"commercial","class":"commercial","has_parts":false,"version":1}},
{"id":"556e92d2-4f79-47ec-9193-965e781fcf99","type":"Feature","geometry":{"type":"Polygon","coordinates":[[[153.0293711,-27.4714331],[153.0294489,-27.4715091],[153.0294655,-27.4714997],[153.0294845,-27.4715178],[153.0296735,-27.471366],[153.0296555,-27.4713491],[153.0296668,-27.4713377],[153.0295955,-27.4712668],[153.0295681,-27.4712853],[153.0295385,-27.4712583],[153.0294055,-27.4713652],[153.0294285,-27.4713876],[153.0293711,-27.4714331]]]},"properties":{"names":{"primary":"River Quarter","common":null,"rules":null},"sources":[{"property":"","dataset":"OpenStreetMap","license":"ODbL-1.0","record_id":"w140793981@3","update_time":"2025-03-06T07:27:05.000Z","confidence":null,"between":null,"provider":"osm","resource":"planet","version":"2026-08-02T00:00:00.000Z"}],"height":73.0,"is_underground":false,"num_floors":15,"subtype":"commercial","class":"office","has_parts":false,"version":1}},
{"id":"82f6d97a-29b2-469a-b293-6753968c7745","type":"Feature","geometry":{"type":"Polygon","coordinates":[[[153.0293566,-27.4710118],[153.0292718,-27.4709823],[153.0290999,-27.4711132],[153.0291385,-27.4711826],[153.0291887,-27.4712424],[153.0292631,-27.471307],[153.0293414,-27.4713438],[153.0295139,-27.4712187],[153.0294746,-27.4711441],[153.0294215,-27.4710727],[153.0293566,-27.4710118]]]},"properties":{"names":{"primary":"RACQ House","common":null,"rules":null},"sources":[{"property":"","dataset":"OpenStreetMap","license":"ODbL-1.0","record_id":"w140794031@4","update_time":"2025-03-06T07:27:05.000Z","confidence":null,"between":null,"provider":"osm","resource":"planet","version":"2026-08-02T00:00:00.000Z"}],"height":77.0,"is_underground":false,"num_floors":16,"subtype":"commercial","class":"office","has_parts":false,"version":1}},
{"id":"4e5f8794-6257-45b9-982a-051bd4e96b0e","type":"Feature","geometry":{"type":"Polygon","coordinates":[[[153.0289907,-27.4716128],[153.029125,-27.4717541],[153.0292373,-27.4716698],[153.029282,-27.4715999],[153.0292922,-27.4715113],[153.0292581,-27.471439],[153.0291806,-27.4713631],[153.0290095,-27.4714971],[153.0289798,-27.4715529],[153.0289907,-27.4716128]]]},"properties":{"names":{"primary":"SEQ Water","common":null,"rules":null},"sources":[{"property":"","dataset":"OpenStreetMap","license":"ODbL-1.0","record_id":"w141194856@2","update_time":"2011-12-14T12:18:15.000Z","confidence":null,"between":null,"provider":"osm","resource":"planet","version":"2026-08-02T00:00:00.000Z"}],"is_underground":false,"has_parts":false,"version":1}},
{"id":"ce2f01ad-2eec-4cc6-b15b-3f3b2793d197","type":"Feature","geometry":{"type":"Polygon","coordinates":[[[153.0302475,-27.471305],[153.0302074,-27.4712631],[153.0301975,-27.4712706],[153.0301815,-27.4712539],[153.030105,-27.4713114],[153.0301238,-27.4713311],[153.0301129,-27.4713393],[153.0301585,-27.471387],[153.0301725,-27.4713764],[153.030267,-27.4714753],[153.0302471,-27.4714903],[153.0303105,-27.4715566],[153.0303294,-27.4715424],[153.0304231,-27.4716405],[153.0304092,-27.471651],[153.0304554,-27.4716994],[153.0304665,-27.4716911],[153.0304806,-27.4717058],[153.0305717,-27.4716372],[153.0305139,-27.4715768],[153.030532,-27.4715632],[153.0304365,-27.4714631],[153.0304235,-27.4714729],[153.0303622,-27.4714088],[153.0303731,-27.4714006],[153.0302675,-27.47129],[153.0302475,-27.471305]]]},"properties":{"names":{"primary":"The Port Office","common":null,"rules":null},"sources":[{"property":"","dataset":"OpenStreetMap","license":"ODbL-1.0","record_id":"w48850870@4","update_time":"2019-06-10T00:06:04.000Z","confidence":null,"between":null,"provider":"osm","resource":"planet","version":"2026-08-02T00:00:00.000Z"}],"is_underground":false,"num_floors":2,"subtype":"commercial","class":"commercial","has_parts":false,"version":1}},
{"id":"51fba4a0-f4d1-41b7-a04d-251f630b835f","type":"Feature","geometry":{"type":"Polygon","coordinates":[[[153.0307219,-27.4710403],[153.030702,-27.4710179],[153.0307728,-27.4709659],[153.0307182,-27.4709075],[153.0307497,-27.4708844],[153.0307316,-27.470865],[153.0307142,-27.4708498],[153.0303216,-27.4711456],[153.0303477,-27.4711725],[153.0303152,-27.4711951],[153.0303244,-27.4712044],[153.0302884,-27.4712295],[153.0302856,-27.4712664],[153.0303159,-27.4712971],[153.0303597,-27.4712952],[153.0303879,-27.4712714],[153.0303942,-27.4712783],[153.0304231,-27.471257],[153.0305988,-27.471431],[153.0305677,-27.4714541],[153.0305755,-27.4714629],[153.0305402,-27.471486],[153.0305339,-27.4715261],[153.0305656,-27.4715561],[153.0306062,-27.4715573],[153.0306255,-27.4715768],[153.0306007,-27.4715951],[153.0307426,-27.471743],[153.0308142,-27.471688],[153.0308294,-27.47171],[153.0308831,-27.4717174],[153.0308831,-27.4716709],[153.0308473,-27.4716404],[153.0308693,-27.4716233],[153.0308156,-27.4712688],[153.030806,-27.4712138],[153.0307812,-27.4711698],[153.0307382,-27.4711276],[153.0306903,-27.4711124],[153.0307219,-27.4710403]]]},"properties":{"names":{"primary":"Stamford Plaza","common":null,"rules":null},"sources":[{"property":"","dataset":"OpenStreetMap","license":"ODbL-1.0","record_id":"w49748161@6","update_time":"2025-03-06T07:27:05.000Z","confidence":null,"between":null,"provider":"osm","resource":"planet","version":"2026-08-02T00:00:00.000Z"}],"level":1,"height":77.0,"is_underground":false,"num_floors":22,"subtype":"commercial","class":"hotel","has_parts":true,"version":1}},
{"id":"83ed9c09-98d9-4861-a73b-a92156e86a81","type":"Feature","geometry":{"type":"Polygon","coordinates":[[[153.0305893,-27.4699705],[153.0306015,-27.4699692],[153.0305493,-27.4697879],[153.0304649,-27.469814],[153.0304036,-27.4698485],[153.0303607,-27.4698955],[153.0303299,-27.469955],[153.0303077,-27.4700109],[153.0302804,-27.4700621],[153.0302448,-27.4701055],[153.0302004,-27.470146],[153.0301599,-27.470177],[153.0301314,-27.4702099],[153.0301136,-27.4702544],[153.0301089,-27.4702922],[153.0301167,-27.4703466],[153.0303974,-27.4706278],[153.0303888,-27.4705589],[153.0303512,-27.4705333],[153.0303798,-27.4704984],[153.030342,-27.4704703],[153.0303723,-27.4704366],[153.0303334,-27.4704093],[153.0303612,-27.4703766],[153.0303266,-27.4703494],[153.0303527,-27.4703168],[153.0303415,-27.4702479],[153.0303414,-27.4702025],[153.0303487,-27.47016],[153.0303647,-27.4701198],[153.0303873,-27.4700797],[153.0304152,-27.4700497],[153.0304511,-27.470021],[153.0304954,-27.4699964],[153.0305379,-27.4699804],[153.0305893,-27.4699705]]]},"properties":{"sources":[{"property":"","dataset":"OpenStreetMap","license":"ODbL-1.0","record_id":"w1208436379@1","update_time":"2023-09-17T07:40:31.000Z","confidence":null,"between":null,"provider":"osm","resource":"planet","version":"2026-08-02T00:00:00.000Z"}],"level":1,"is_underground":false,"subtype":"outbuilding","class":"roof","has_parts":false,"version":1}},
{"id":"8964b76a-907d-4a37-a965-3a2b8b0809cf","type":"Feature","geometry":{"type":"Polygon","coordinates":[[[153.0303266,-27.4703494],[153.0303612,-27.4703766],[153.0303334,-27.4704093],[153.0303723,-27.4704366],[153.030342,-27.4704703],[153.0303798,-27.4704984],[153.0303512,-27.4705333],[153.0303888,-27.4705589],[153.0303974,-27.4706278],[153.0304805,-27.4706173],[153.0305284,-27.4706046],[153.0305654,-27.4705891],[153.0306016,-27.470567],[153.0306356,-27.4705375],[153.0306627,-27.4705049],[153.0306839,-27.470467],[153.0306982,-27.4704307],[153.0307061,-27.4703936],[153.030707,-27.4703588],[153.0306962,-27.4702751],[153.030724,-27.470241],[153.0306876,-27.470215],[153.0307158,-27.47018],[153.0306785,-27.4701544],[153.0307065,-27.4701191],[153.030669,-27.4700927],[153.0306982,-27.4700584],[153.0306611,-27.4700341],[153.0306499,-27.4699642],[153.0306015,-27.4699692],[153.0305893,-27.4699705],[153.0305379,-27.4699804],[153.0304954,-27.4699964],[153.0304511,-27.470021],[153.0304152,-27.4700497],[153.0303873,-27.4700797],[153.0303647,-27.4701198],[153.0303487,-27.47016],[153.0303414,-27.4702025],[153.0303415,-27.4702479],[153.0303527,-27.4703168],[153.0303266,-27.4703494]]]},"properties":{"names":{"primary":"Waterfront Place","common":null,"rules":null},"sources":[{"property":"","dataset":"OpenStreetMap","license":"ODbL-1.0","record_id":"w140804995@8","update_time":"2025-05-20T23:33:28.000Z","confidence":null,"between":null,"provider":"osm","resource":"planet","version":"2026-08-02T00:00:00.000Z"}],"height":138.0,"is_underground":false,"num_floors":40,"subtype":"commercial","class":"commercial","has_parts":true,"version":1}},
{"id":"1d7c216d-6851-4aac-947b-2df11211ae5b","type":"Feature","geometry":{"type":"Polygon","coordinates":[[[153.0307428,-27.4694824],[153.0306552,-27.4694981],[153.0306839,-27.4696239],[153.0307853,-27.4696056],[153.0307743,-27.4695576],[153.0307846,-27.4695558],[153.0307752,-27.4695146],[153.0307511,-27.469519],[153.0307428,-27.4694824]]]},"properties":{"sources":[{"property":"","dataset":"Microsoft ML Buildings","license":"ODbL-1.0","record_id":null,"update_time":"2000-01-01T00:00:00.000Z","confidence":null,"between":null,"provider":"microsoft","resource":"ml_buildings","version":"2025-02-25"}],"is_underground":false,"has_parts":false,"version":3}},
{"id":"f5df9c93-3aeb-44c7-bc01-7a34ade501b8","type":"Feature","geometry":{"type":"Polygon","coordinates":[[[153.0304532,-27.4691396],[153.0304566,-27.469035],[153.0304101,-27.4690338],[153.0304092,-27.4690623],[153.0303726,-27.4690614],[153.0303715,-27.4690947],[153.0303394,-27.4690938],[153.0303382,-27.4691286],[153.0303758,-27.4691295],[153.0303744,-27.4691709],[153.0304334,-27.4691724],[153.0304345,-27.4691391],[153.0304532,-27.4691396]]]},"properties":{"sources":[{"property":"","dataset":"Microsoft ML Buildings","license":"ODbL-1.0","record_id":null,"update_time":"2000-01-01T00:00:00.000Z","confidence":null,"between":null,"provider":"microsoft","resource":"ml_buildings","version":"2025-02-25"}],"height":16.985002517700195,"is_underground":false,"has_parts":false,"version":3}},
{"id":"ed24d9f3-4bfd-46d6-bfde-ce215bade598","type":"Feature","geometry":{"type":"Polygon","coordinates":[[[153.0305553,-27.4691802],[153.0305547,-27.4692026],[153.0306056,-27.4692037],[153.0306063,-27.4691813],[153.0305553,-27.4691802]]]},"properties":{"sources":[{"property":"","dataset":"Microsoft ML Buildings","license":"ODbL-1.0","record_id":null,"update_time":"2000-01-01T00:00:00.000Z","confidence":null,"between":null,"provider":"microsoft","resource":"ml_buildings","version":"2025-02-25"}],"height":27.2568302154541,"is_underground":false,"has_parts":false,"version":3}}]}