{"type": "FeatureCollection", "features": [
{"id":"86c02da1-c8c2-4aa1-a6e3-5cf889eeda7e","type":"Feature","geometry":{"type":"Polygon","coordinates":[[[151.2087433,-33.8684059],[151.2084881,-33.8683786],[151.208474,-33.8683904],[151.2084684,-33.8684368],[151.2084781,-33.8684463],[151.2084777,-33.8684538],[151.2084662,-33.8684584],[151.2084618,-33.8685048],[151.2084703,-33.8685102],[151.2084692,-33.8685174],[151.2084512,-33.8685293],[151.2084475,-33.8685636],[151.2084605,-33.8685769],[151.2084602,-33.8685836],[151.2084527,-33.8685886],[151.208449,-33.8686345],[151.2084565,-33.8686413],[151.2084549,-33.8686503],[151.2084454,-33.868657],[151.2084406,-33.8687082],[151.2084533,-33.8687217],[151.2085212,-33.8687265],[151.2085339,-33.868715],[151.2086175,-33.868719],[151.2086277,-33.868725],[151.2086759,-33.8687316],[151.208693,-33.868721],[151.2087557,-33.8684187],[151.2087433,-33.8684059]]]},"properties":{"sources":[{"property":"","dataset":"OpenStreetMap","license":"ODbL-1.0","record_id":"w386564452@3","update_time":"2026-01-02T01:22:27.000Z","confidence":null,"between":null,"provider":"osm","resource":"planet","version":"2026-08-02T00:00:00.000Z"}],"is_underground":false,"num_floors":17,"has_parts":false,"version":2}},
{"id":"5f194411-60e6-4772-9267-9fa95e504de0","type":"Feature","geometry":{"type":"Polygon","coordinates":[[[151.2084494,-33.8688264],[151.2085309,-33.868838],[151.2085497,-33.8687236],[151.2085212,-33.8687265],[151.2084533,-33.8687217],[151.2084395,-33.8687207],[151.2084308,-33.8688049],[151.2084494,-33.8688264]]]},"properties":{"sources":[{"property":"","dataset":"OpenStreetMap","license":"ODbL-1.0","record_id":"w548822775@6","update_time":"2026-01-02T01:35:02.000Z","confidence":null,"between":null,"provider":"osm","resource":"planet","version":"2026-08-02T00:00:00.000Z"}],"is_underground":false,"num_floors":5,"has_parts":false,"version":1}},
{"id":"8a04a11e-8464-4508-bcb4-402170cc8ea2","type":"Feature","geometry":{"type":"Polygon","coordinates":[[[151.2085929,-33.8688485],[151.2086144,-33.8687291],[151.2085497,-33.8687236],[151.2085309,-33.868838],[151.2085929,-33.8688485]]]},"properties":{"sources":[{"property":"","dataset":"OpenStreetMap","license":"ODbL-1.0","record_id":"w1463565082@1","update_time":"2026-01-02T01:35:02.000Z","confidence":null,"between":null,"provider":"osm","resource":"planet","version":"2026-08-02T00:00:00.000Z"}],"is_underground":false,"has_parts":false,"version":1}},
{"id":"93529b09-8a22-4e8f-b62b-c891200b3e3d","type":"Feature","geometry":{"type":"Polygon","coordinates":[[[151.2085929,-33.8688485],[151.2086664,-33.8688576],[151.2086879,-33.8687382],[151.2086144,-33.8687291],[151.2085929,-33.8688485]]]},"properties":{"sources":[{"property":"","dataset":"OpenStreetMap","license":"ODbL-1.0","record_id":"w1463563079@2","update_time":"2026-01-02T01:35:02.000Z","confidence":null,"between":null,"provider":"osm","resource":"planet","version":"2026-08-02T00:00:00.000Z"}],"is_underground":false,"has_parts":false,"version":1}},
{"id":"91298d4e-01ef-43af-b86c-5c2542293097","type":"Feature","geometry":{"type":"Polygon","coordinates":[[[151.2086208,-33.8691372],[151.2086375,-33.8690117],[151.2084337,-33.868985],[151.2084006,-33.8690064],[151.2083969,-33.8691164],[151.2086208,-33.8691372]]]},"properties":{"sources":[{"property":"","dataset":"OpenStreetMap","license":"ODbL-1.0","record_id":"w621342723@2","update_time":"2023-05-26T01:43:44.000Z","confidence":null,"between":null,"provider":"osm","resource":"planet","version":"2026-08-02T00:00:00.000Z"}],"is_underground":false,"num_floors":3,"has_parts":false,"version":1}},
{"id":"a8fa1134-bb20-437f-8949-e479b4ca3339","type":"Feature","geometry":{"type":"Polygon","coordinates":[[[151.2087362,-33.8690245],[151.2086375,-33.8690117],[151.2086208,-33.8691372],[151.2087194,-33.8691478],[151.2087362,-33.8690245]]]},"properties":{"sources":[{"property":"","dataset":"OpenStreetMap","license":"ODbL-1.0","record_id":"w621342722@2","update_time":"2023-05-26T01:43:44.000Z","confidence":null,"between":null,"provider":"osm","resource":"planet","version":"2026-08-02T00:00:00.000Z"}],"is_underground":false,"num_floors":5,"has_parts":false,"version":1}},
{"id":"6dbfd2f9-7740-46a1-96b9-6366103e445d","type":"Feature","geometry":{"type":"Polygon","coordinates":[[[151.2086208,-33.8691372],[151.2083969,-33.8691164],[151.2083936,-33.8692121],[151.2084403,-33.869214],[151.2084361,-33.8692535],[151.2085133,-33.8692599],[151.2085126,-33.8692672],[151.2085264,-33.8692681],[151.2085268,-33.8692609],[151.2085288,-33.8692535],[151.2085331,-33.8692462],[151.2085389,-33.8692406],[151.2085465,-33.869237],[151.2085571,-33.8692354],[151.2085685,-33.8692361],[151.2085703,-33.8692234],[151.2085874,-33.8692248],[151.2087072,-33.8692352],[151.2087194,-33.8691478],[151.2086208,-33.8691372]]]},"properties":{"sources":[{"property":"","dataset":"OpenStreetMap","license":"ODbL-1.0","record_id":"w621342724@1","update_time":"2018-08-31T00:00:48.000Z","confidence":null,"between":null,"provider":"osm","resource":"planet","version":"2026-08-02T00:00:00.000Z"}],"is_underground":false,"num_floors":3,"has_parts":false,"version":1}},
{"id":"72c1c6f8-18e5-41ad-bb8c-6757001c395c","type":"Feature","geometry":{"type":"Polygon","coordinates":[[[151.2084403,-33.869214],[151.2083936,-33.8692121],[151.2083851,-33.8694635],[151.2088971,-33.8695161],[151.2088981,-33.8695562],[151.2089956,-33.8695605],[151.209014,-33.8695613],[151.2090119,-33.8694266],[151.2085661,-33.8693853],[151.2085874,-33.8692248],[151.2085703,-33.8692234],[151.2085685,-33.8692361],[151.2085571,-33.8692354],[151.2085465,-33.869237],[151.2085389,-33.8692406],[151.2085331,-33.8692462],[151.2085288,-33.8692535],[151.2085268,-33.8692609],[151.2085264,-33.8692681],[151.2085126,-33.8692672],[151.2085133,-33.8692599],[151.2084361,-33.8692535],[151.2084403,-33.869214]]]},"properties":{"sources":[{"property":"","dataset":"OpenStreetMap","license":"ODbL-1.0","record_id":"w621342725@2","update_time":"2023-10-22T09:13:45.000Z","confidence":null,"between":null,"provider":"osm","resource":"planet","version":"2026-08-02T00:00:00.000Z"}],"is_underground":false,"num_floors":5,"has_parts":false,"version":1}},
{"id":"4660278d-01f3-4141-9fcd-f826db40716c","type":"Feature","geometry":{"type":"Polygon","coordinates":[[[151.2088971,-33.8695161],[151.2083851,-33.8694635],[151.2083808,-33.8695897],[151.2088984,-33.8696197],[151.2088971,-33.8695161]]]},"properties":{"sources":[{"property":"","dataset":"OpenStreetMap","license":"ODbL-1.0","record_id":"w621342726@1","update_time":"2018-08-31T00:00:47.000Z","confidence":null,"between":null,"provider":"osm","resource":"planet","version":"2026-08-02T00:00:00.000Z"}],"is_underground":false,"num_floors":3,"has_parts":false,"version":1}},
{"id":"b867da8e-f2ff-4a5d-aaa9-cdd1d953c0a4","type":"Feature","geometry":{"type":"Polygon","coordinates":[[[151.208467,-33.8709935],[151.2083141,-33.8709935],[151.2083088,-33.8710681],[151.2085958,-33.8710703],[151.2085958,-33.8709912],[151.2085163,-33.8709924],[151.208467,-33.8709935]]]},"properties":{"sources":[{"property":"","dataset":"OpenStreetMap","license":"ODbL-1.0","record_id":"w588848241@2","update_time":"2025-09-24T17:25:24.000Z","confidence":null,"between":null,"provider":"osm","resource":"planet","version":"2026-08-02T00:00:00.000Z"}],"is_underground":false,"num_floors":5,"has_parts":false,"version":2}},
{"id":"9216e1a8-027f-429b-864e-b4b04ec850fc","type":"Feature","geometry":{"type":"Polygon","coordinates":[[[151.2085154,-33.8709433],[151.2085126,-33.8708431],[151.2083369,-33.8708498],[151.2083182,-33.8708654],[151.2083155,-33.8709422],[151.2084684,-33.8709431],[151.2085154,-33.8709433]]]},"properties":{"sources":[{"property":"","dataset":"OpenStreetMap","license":"ODbL-1.0","record_id":"w588848245@2","update_time":"2025-09-24T17:25:24.000Z","confidence":null,"between":null,"provider":"osm","resource":"planet","version":"2026-08-02T00:00:00.000Z"}],"is_underground":false,"has_parts":false,"version":2}},
{"id":"9a92cf58-d15b-4135-87a1-4e71628ee624","type":"Feature","geometry":{"type":"Polygon","coordinates":[[[151.2086723,-33.870989],[151.2086719,-33.8708372],[151.2085904,-33.8708409],[151.2085958,-33.8709912],[151.2086723,-33.870989]]]},"properties":{"sources":[{"property":"","dataset":"OpenStreetMap","license":"ODbL-1.0","record_id":"w588848244@1","update_time":"2025-09-24T17:25:24.000Z","confidence":null,"between":null,"provider":"osm","resource":"planet","version":"2026-08-02T00:00:00.000Z"}],"is_underground":false,"has_parts":false,"version":2}},
{"id":"9ea5b7af-1925-456e-90b8-c99ef28638c2","type":"Feature","geometry":{"type":"Polygon","coordinates":[[[151.2085958,-33.8709912],[151.2085904,-33.8708409],[151.2085126,-33.8708431],[151.2085154,-33.8709433],[151.2085163,-33.8709924],[151.2085958,-33.8709912]]]},"properties":{"sources":[{"property":"","dataset":"OpenStreetMap","license":"ODbL-1.0","record_id":"w588848243@1","update_time":"2025-09-24T17:25:24.000Z","confidence":null,"between":null,"provider":"osm","resource":"planet","version":"2026-08-02T00:00:00.000Z"}],"is_underground":false,"has_parts":false,"version":2}},
{"id":"f230e097-6cae-4093-8cb8-98c413049549","type":"Feature","geometry":{"type":"Polygon","coordinates":[[[151.2085958,-33.8710703],[151.2083088,-33.8710681],[151.2083061,-33.8712073],[151.2087621,-33.8712163],[151.2087616,-33.8712028],[151.2088839,-33.8712059],[151.2088864,-33.8711019],[151.2088701,-33.8711015],[151.2088703,-33.8710213],[151.208673,-33.8710207],[151.2086723,-33.870989],[151.2085958,-33.8709912],[151.2085958,-33.8710703]]]},"properties":{"sources":[{"property":"","dataset":"OpenStreetMap","license":"ODbL-1.0","record_id":"w588848240@3","update_time":"2026-07-12T11:48:56.000Z","confidence":null,"between":null,"provider":"osm","resource":"planet","version":"2026-08-02T00:00:00.000Z"}],"is_underground":false,"num_floors":5,"has_parts":false,"version":2}},
{"id":"a2cd2fab-dfaf-4296-b214-7124188dd826","type":"Feature","geometry":{"type":"Polygon","coordinates":[[[151.2087621,-33.8712163],[151.2083061,-33.8712073],[151.2082981,-33.8713509],[151.2087567,-33.8713587],[151.2087621,-33.8712163]]]},"properties":{"sources":[{"property":"","dataset":"OpenStreetMap","license":"ODbL-1.0","record_id":"w588848239@2","update_time":"2022-07-17T08:39:34.000Z","confidence":null,"between":null,"provider":"osm","resource":"planet","version":"2026-08-02T00:00:00.000Z"}],"is_underground":false,"num_floors":3,"has_parts":false,"version":1}},
{"id":"bdf36c37-8460-42ee-894f-e9432f7a890f","type":"Feature","geometry":{"type":"Polygon","coordinates":[[[151.2088144,-33.8715057],[151.2088144,-33.8714556],[151.2088332,-33.8714533],[151.2088345,-33.8713609],[151.2087567,-33.8713587],[151.2082981,-33.8713509],[151.2082977,-33.871359],[151.2082966,-33.8713778],[151.2082955,-33.8713978],[151.2082898,-33.8715016],[151.208282,-33.8716426],[151.2083007,-33.8716426],[151.2082947,-33.8716667],[151.2087627,-33.8716433],[151.2088144,-33.8716304],[151.2088144,-33.8715057]],[[151.2083034,-33.8715393],[151.2083043,-33.8715017],[151.2083055,-33.8714556],[151.2087629,-33.8714636],[151.2087619,-33.8715053],[151.2087608,-33.8715473],[151.2083034,-33.8715393]]]},"properties":{"names":{"primary":"Stockland Piccadilly","common":null,"rules":null},"sources":[{"property":"","dataset":"OpenStreetMap","license":"ODbL-1.0","record_id":"r21091580@1","update_time":"2026-07-12T11:48:56.000Z","confidence":null,"between":null,"provider":"osm","resource":"planet","version":"2026-08-02T00:00:00.000Z"}],"is_underground":false,"subtype":"commercial","class":"retail","has_parts":false,"version":3}},
{"id":"8f8b55fa-c474-40d0-b963-5d39be0c331a","type":"Feature","geometry":{"type":"Polygon","coordinates":[[[151.2089721,-33.8713524],[151.2088843,-33.8714138],[151.2088742,-33.8715063],[151.2088551,-33.8716816],[151.2089261,-33.8717506],[151.2091473,-33.8717717],[151.2091832,-33.8717453],[151.2092333,-33.8717084],[151.209236,-33.8716847],[151.2092595,-33.8714828],[151.2092641,-33.8714456],[151.209248,-33.8714261],[151.2092378,-33.8714138],[151.2091959,-33.8713713],[151.2089721,-33.8713524]]]},"properties":{"names":{"primary":"Spherion Tower","common":null,"rules":[{"variant":"alternate","language":null,"perspectives":null,"value":"Piccadilly Tower","between":null,"side":null}]},"sources":[{"property":"","dataset":"OpenStreetMap","license":"ODbL-1.0","record_id":"w101917220@9","update_time":"2026-07-12T11:48:56.000Z","confidence":null,"between":null,"provider":"osm","resource":"planet","version":"2026-08-02T00:00:00.000Z"}],"is_underground":false,"num_floors":31,"subtype":"commercial","class":"commercial","has_parts":false,"version":2}},
{"id":"61b6a71f-9cbc-464e-b9bb-547b3bd6fcfb","type":"Feature","geometry":{"type":"Polygon","coordinates":[[[151.209248,-33.8714261],[151.2092641,-33.8714456],[151.2092671,-33.8714234],[151.2092961,-33.8714041],[151.2092976,-33.8713937],[151.2093003,-33.8713625],[151.2093013,-33.8713507],[151.2093024,-33.8713378],[151.2093048,-33.8713249],[151.2089069,-33.8713252],[151.20891,-33.8713517],[151.2088341,-33.8713493],[151.2088345,-33.8713609],[151.2088332,-33.8714533],[151.2088144,-33.8714556],[151.2088144,-33.8715057],[151.2088144,-33.8716304],[151.2087627,-33.8716433],[151.2087768,-33.8718241],[151.2092344,-33.8718194],[151.2092391,-33.8717786],[151.2091473,-33.8717717],[151.2089261,-33.8717506],[151.2088551,-33.8716816],[151.2088742,-33.8715063],[151.2088843,-33.8714138],[151.2089721,-33.8713524],[151.2091959,-33.8713713],[151.2092378,-33.8714138],[151.209248,-33.8714261]]]},"properties":{"sources":[{"property":"","dataset":"OpenStreetMap","license":"ODbL-1.0","record_id":"w1343074167@2","update_time":"2026-07-12T11:48:56.000Z","confidence":null,"between":null,"provider":"osm","resource":"planet","version":"2026-08-02T00:00:00.000Z"}],"is_underground":false,"subtype":"commercial","class":"commercial","has_parts":false,"version":2}},
{"id":"c5952b42-98d8-448e-b2f9-b4f0d59506ee","type":"Feature","geometry":{"type":"Polygon","coordinates":[[[151.2094598,-33.8718427],[151.2094492,-33.8719303],[151.2096172,-33.8719428],[151.2096521,-33.8719454],[151.2097002,-33.871949],[151.2097374,-33.8719518],[151.2097856,-33.8719554],[151.2098489,-33.8719601],[151.2098824,-33.8719626],[151.2099228,-33.8719656],[151.2099484,-33.8717584],[151.2099892,-33.8714301],[151.2100186,-33.8711895],[151.2099806,-33.8711864],[151.2099448,-33.8711836],[151.2098845,-33.871179],[151.2098293,-33.8711748],[151.2098198,-33.8712542],[151.209796,-33.8712668],[151.2096636,-33.8712583],[151.2096465,-33.8712777],[151.2095292,-33.8712707],[151.2095191,-33.8713505],[151.2095181,-33.871362],[151.209517,-33.8713752],[151.2094598,-33.8718427]]]},"properties":{"sources":[{"property":"","dataset":"OpenStreetMap","license":"ODbL-1.0","record_id":"w389002925@3","update_time":"2025-09-24T17:26:02.000Z","confidence":null,"between":null,"provider":"osm","resource":"planet","version":"2026-08-02T00:00:00.000Z"}],"is_underground":false,"num_floors":12,"has_parts":true,"version":2}},
{"id":"c925b5fe-0459-4174-853b-afa8855cd508","type":"Feature","geometry":{"type":"Polygon","coordinates":[[[151.2105138,-33.8706385],[151.2105076,-33.8707013],[151.210502,-33.8707706],[151.2105747,-33.870774],[151.2105775,-33.8707366],[151.2106461,-33.8707406],[151.2106588,-33.8705888],[151.210586,-33.8705849],[151.2105804,-33.8706417],[151.2105138,-33.8706385]]]},"properties":{"sources":[{"property":"","dataset":"OpenStreetMap","license":"ODbL-1.0","record_id":"w1115995138@1","update_time":"2022-11-21T12:39:36.000Z","confidence":null,"between":null,"provider":"osm","resource":"planet","version":"2026-08-02T00:00:00.000Z"}],"is_underground":false,"has_parts":false,"version":1}},
{"id":"7afa7870-439f-4688-8268-bc8699a23752","type":"Feature","geometry":{"type":"Polygon","coordinates":[[[151.2104269,-33.8706954],[151.2104281,-33.8706843],[151.2104004,-33.8706823],[151.2103955,-33.8707284],[151.2103901,-33.8707783],[151.2104181,-33.8707804],[151.2104196,-33.8707664],[151.210502,-33.8707706],[151.2105076,-33.8707013],[151.2104269,-33.8706954]]]},"properties":{"sources":[{"property":"","dataset":"OpenStreetMap","license":"ODbL-1.0","record_id":"w271408282@7","update_time":"2022-11-21T12:39:36.000Z","confidence":null,"between":null,"provider":"osm","resource":"planet","version":"2026-08-02T00:00:00.000Z"}],"is_underground":false,"has_parts":false,"version":1}},
{"id":"f6cfa4da-e4b4-48a2-9678-c011fc7043d9","type":"Feature","geometry":{"type":"Polygon","coordinates":[[[151.2097941,-33.8710045],[151.2100375,-33.8710107],[151.2100584,-33.8708441],[151.2100236,-33.8708183],[151.2095955,-33.8708203],[151.209565,-33.870843],[151.2095479,-33.8709929],[151.2097941,-33.8710045]]]},"properties":{"names":{"primary":"ADC House","common":null,"rules":null},"sources":[{"property":"","dataset":"OpenStreetMap","license":"ODbL-1.0","record_id":"w389002928@5","update_time":"2018-05-17T23:45:34.000Z","confidence":null,"between":null,"provider":"osm","resource":"planet","version":"2026-08-02T00:00:00.000Z"}],"is_underground":false,"num_floors":14,"has_parts":false,"version":1}},
{"id":"79e2b4fc-e5e8-42e8-8839-0e965b3e6845","type":"Feature","geometry":{"type":"Polygon","coordinates":[[[151.2100291,-33.8710677],[151.2100375,-33.8710107],[151.2097941,-33.8710045],[151.2097897,-33.8710455],[151.2098197,-33.8710483],[151.2100291,-33.8710677]]]},"properties":{"sources":[{"property":"","dataset":"OpenStreetMap","license":"ODbL-1.0","record_id":"w548828447@1","update_time":"2017-12-24T10:05:06.000Z","confidence":null,"between":null,"provider":"osm","resource":"planet","version":"2026-08-02T00:00:00.000Z"}],"is_underground":false,"num_floors":3,"has_parts":false,"version":1}},
{"id":"5f925c10-c0e3-4d9b-9a6f-29292300ee03","type":"Feature","geometry":{"type":"Polygon","coordinates":[[[151.2100186,-33.8711895],[151.2100291,-33.8710677],[151.2098197,-33.8710483],[151.2098052,-33.8711729],[151.2098293,-33.8711748],[151.2098845,-33.871179],[151.2099448,-33.8711836],[151.2099806,-33.8711864],[151.2100186,-33.8711895]]]},"properties":{"names":{"primary":"Eliza","common":null,"rules":null},"sources":[{"property":"","dataset":"OpenStreetMap","license":"ODbL-1.0","record_id":"w548828448@2","update_time":"2025-09-24T17:26:02.000Z","confidence":null,"between":null,"provider":"osm","resource":"planet","version":"2026-08-02T00:00:00.000Z"}],"is_underground":false,"num_floors":16,"subtype":"residential","class":"apartments","has_parts":false,"version":2}},
{"id":"d2ce3308-03b5-41c8-a237-d5912b9af614","type":"Feature","geometry":{"type":"Polygon","coordinates":[[[151.2095479,-33.8709929],[151.2095292,-33.8712707],[151.2096465,-33.8712777],[151.2096636,-33.8712583],[151.209796,-33.8712668],[151.2098052,-33.8711729],[151.2098072,-33.871153],[151.2097754,-33.8711506],[151.2097897,-33.8710455],[151.2097941,-33.8710045],[151.2095479,-33.8709929]]]},"properties":{"sources":[{"property":"","dataset":"OpenStreetMap","license":"ODbL-1.0","record_id":"w389002924@3","update_time":"2018-05-17T00:22:19.000Z","confidence":null,"between":null,"provider":"osm","resource":"planet","version":"2026-08-02T00:00:00.000Z"}],"is_underground":false,"num_floors":7,"has_parts":false,"version":1}},
{"id":"f3f06f0d-52f8-441d-956b-53e326641704","type":"Feature","geometry":{"type":"Polygon","coordinates":[[[151.2087667,-33.8712253],[151.2087636,-33.8713371],[151.2088682,-33.8713391],[151.2088713,-33.8712273],[151.2087667,-33.8712253]]]},"properties":{"sources":[{"property":"","dataset":"OpenStreetMap","license":"ODbL-1.0","record_id":"w1537673512@1","update_time":"2026-07-12T11:48:56.000Z","confidence":null,"between":null,"provider":"osm","resource":"planet","version":"2026-08-02T00:00:00.000Z"}],"is_underground":false,"subtype":"service","class":"service","has_parts":false,"version":1}},
{"id":"aeabd37a-5293-4477-bdd3-3a4fef003034","type":"Feature","geometry":{"type":"Polygon","coordinates":[[[151.2091667,-33.8708303],[151.2086719,-33.8708372],[151.2086723,-33.870989],[151.2089053,-33.8709764],[151.2089069,-33.8713252],[151.2093048,-33.8713249],[151.2093178,-33.8712172],[151.2093598,-33.8708695],[151.2093598,-33.8708506],[151.2093491,-33.8708372],[151.2093317,-33.8708294],[151.2093089,-33.8708283],[151.2092266,-33.8708294],[151.2091985,-33.8708298],[151.2091667,-33.8708303]]]},"properties":{"sources":[{"property":"","dataset":"OpenStreetMap","license":"ODbL-1.0","record_id":"w386564451@7","update_time":"2026-07-12T11:48:56.000Z","confidence":null,"between":null,"provider":"osm","resource":"planet","version":"2026-08-02T00:00:00.000Z"}],"is_underground":false,"num_floors":9,"subtype":"commercial","class":"commercial","has_parts":false,"version":2}},
{"id":"cc8c5103-0af5-4ad8-91f5-41f7bc6aa241","type":"Feature","geometry":{"type":"Polygon","coordinates":[[[151.209601,-33.8704772],[151.2095859,-33.8705836],[151.209652,-33.8706452],[151.2100198,-33.8706324],[151.2100878,-33.8705808],[151.2101725,-33.8699642],[151.2099612,-33.8699454],[151.2096722,-33.8699196],[151.2096071,-33.8704344],[151.2096039,-33.8704569],[151.209601,-33.8704772]]]},"properties":{"names":{"primary":"David Jones","common":null,"rules":null},"sources":[{"property":"","dataset":"OpenStreetMap","license":"ODbL-1.0","record_id":"w312068817@11","update_time":"2025-12-13T05:10:49.000Z","confidence":null,"between":null,"provider":"osm","resource":"planet","version":"2026-08-02T00:00:00.000Z"}],"is_underground":false,"num_floors":9,"subtype":"commercial","class":"retail","has_parts":false,"version":1}},
{"id":"be49c9a9-97bd-4441-aac9-49723fa80473","type":"Feature","geometry":{"type":"Polygon","coordinates":[[[151.2094694,-33.8698821],[151.2095053,-33.8695977],[151.2090692,-33.8695654],[151.209014,-33.8695613],[151.2089956,-33.8695605],[151.2088981,-33.8695562],[151.2088984,-33.8696197],[151.2083808,-33.8695897],[151.2083753,-33.8698414],[151.2083572,-33.8706621],[151.20904,-33.8706646],[151.2091946,-33.8706622],[151.2092215,-33.8706618],[151.2092526,-33.8706613],[151.2093845,-33.8706593],[151.2094074,-33.870445],[151.2094096,-33.8704252],[151.2094118,-33.8704044],[151.2094242,-33.8702887],[151.2092983,-33.8702819],[151.2092989,-33.8702603],[151.2092996,-33.8702387],[151.2094296,-33.8702421],[151.2094618,-33.8699796],[151.2094307,-33.8699775],[151.2094384,-33.8698797],[151.2094694,-33.8698821]]]},"properties":{"names":{"primary":"Westfield Sydney","common":[["ko","웨스트필드 시드니"],["zh","悉尼塔"]],"rules":null},"sources":[{"property":"","dataset":"OpenStreetMap","license":"ODbL-1.0","record_id":"w214485654@16","update_time":"2025-03-03T22:38:35.000Z","confidence":null,"between":null,"provider":"osm","resource":"planet","version":"2026-08-02T00:00:00.000Z"}],"is_underground":false,"subtype":"commercial","class":"retail","has_parts":true,"version":1}},
{"id":"1dfa42a4-1d71-4732-972e-ee5dca98fe69","type":"Feature","geometry":{"type":"Polygon","coordinates":[[[151.2090426,-33.8691894],[151.2090483,-33.8691453],[151.2087243,-33.8691126],[151.2087194,-33.8691478],[151.2087072,-33.8692352],[151.2085874,-33.8692248],[151.2085661,-33.8693853],[151.2090119,-33.8694266],[151.2090219,-33.8693498],[151.2090426,-33.8691894]]]},"properties":{"names":{"primary":"135 on King","common":null,"rules":null},"sources":[{"property":"","dataset":"OpenStreetMap","license":"ODbL-1.0","record_id":"w542856711@2","update_time":"2018-08-31T00:00:51.000Z","confidence":null,"between":null,"provider":"osm","resource":"planet","version":"2026-08-02T00:00:00.000Z"}],"is_underground":false,"num_floors":32,"subtype":"commercial","class":"commercial","has_parts":false,"version":1}},
{"id":"3b4b7a39-3364-4ebc-9de7-786996581558","type":"Feature","geometry":{"type":"Polygon","coordinates":[[[151.2093306,-33.8691021],[151.2092224,-33.869088],[151.209202,-33.8692036],[151.2090426,-33.8691894],[151.2090219,-33.8693498],[151.2090752,-33.8693545],[151.2090795,-33.8693203],[151.2092073,-33.8693301],[151.2092052,-33.8693549],[151.2092683,-33.8693595],[151.2092712,-33.869335],[151.2093351,-33.8693399],[151.2093482,-33.8692425],[151.2093073,-33.8692399],[151.2093306,-33.8691021]]]},"properties":{"sources":[{"property":"","dataset":"OpenStreetMap","license":"ODbL-1.0","record_id":"w621342716@2","update_time":"2023-05-26T01:43:44.000Z","confidence":null,"between":null,"provider":"osm","resource":"planet","version":"2026-08-02T00:00:00.000Z"}],"is_underground":false,"num_floors":4,"has_parts":false,"version":1}},
{"id":"f46890f2-25cb-4bd2-92f9-f19fe0953740","type":"Feature","geometry":{"type":"Polygon","coordinates":[[[151.2090692,-33.8695654],[151.2095053,-33.8695977],[151.2095261,-33.8694243],[151.2095316,-33.8693785],[151.2092683,-33.8693595],[151.2092052,-33.8693549],[151.2090936,-33.8693469],[151.2090692,-33.8695654]]]},"properties":{"names":{"primary":"OCBC Building","common":null,"rules":null},"sources":[{"property":"","dataset":"OpenStreetMap","license":"ODbL-1.0","record_id":"w621342714@2","update_time":"2024-10-28T04:11:45.000Z","confidence":null,"between":null,"provider":"osm","resource":"planet","version":"2026-08-02T00:00:00.000Z"}],"is_underground":false,"num_floors":11,"has_parts":false,"version":1}},
{"id":"48bd6a1e-96ee-4ab7-8277-e9b3af28280f","type":"Feature","geometry":{"type":"Polygon","coordinates":[[[151.2095316,-33.8693785],[151.2095516,-33.869218],[151.2094105,-33.8692089],[151.2094267,-33.8691147],[151.2093306,-33.8691021],[151.2093073,-33.8692399],[151.2093482,-33.8692425],[151.2093351,-33.8693399],[151.2093319,-33.8693637],[151.2095316,-33.8693785]]]},"properties":{"names":{"primary":"Culwulla Chambers","common":null,"rules":null},"sources":[{"property":"","dataset":"OpenStreetMap","license":"ODbL-1.0","record_id":"w621342713@1","update_time":"2018-08-31T00:00:46.000Z","confidence":null,"between":null,"provider":"osm","resource":"planet","version":"2026-08-02T00:00:00.000Z"}],"is_underground":false,"num_floors":12,"has_parts":false,"version":1}},
{"id":"c92c8f4a-0513-4509-b2ac-02c45d7dd7c3","type":"Feature","geometry":{"type":"Polygon","coordinates":[[[151.2097851,-33.8691804],[151.209753,-33.8692067],[151.2097252,-33.869464],[151.2099498,-33.869489],[151.2099763,-33.8694919],[151.2099892,-33.8693796],[151.2100116,-33.8692287],[151.2100135,-33.8692164],[151.2097851,-33.8691804]]]},"properties":{"names":{"primary":"Trust Building","common":null,"rules":null},"sources":[{"property":"","dataset":"OpenStreetMap","license":"ODbL-1.0","record_id":"w387747529@7","update_time":"2025-09-16T12:59:29.000Z","confidence":null,"between":null,"provider":"osm","resource":"planet","version":"2026-08-02T00:00:00.000Z"}],"is_underground":false,"num_floors":12,"subtype":"commercial","class":"commercial","has_parts":false,"version":2}},
{"id":"63b844cd-dd7e-4e91-a18b-01d7309d2652","type":"Feature","geometry":{"type":"Polygon","coordinates":[[[151.2097072,-33.8696408],[151.2099258,-33.869663],[151.2099498,-33.869489],[151.2097252,-33.869464],[151.2097072,-33.8696408]]]},"properties":{"names":{"primary":"Country State Building","common":null,"rules":null},"sources":[{"property":"","dataset":"OpenStreetMap","license":"ODbL-1.0","record_id":"w538119419@4","update_time":"2024-11-28T07:40:55.000Z","confidence":null,"between":null,"provider":"osm","resource":"planet","version":"2026-08-02T00:00:00.000Z"}],"is_underground":false,"num_floors":16,"has_parts":false,"version":1}},
{"id":"885ff5e1-4406-4636-9b0e-186038cb6b7c","type":"Feature","geometry":{"type":"Polygon","coordinates":[[[151.2099258,-33.869663],[151.2097072,-33.8696408],[151.2096722,-33.8699196],[151.2099612,-33.8699454],[151.2099855,-33.8697807],[151.2099403,-33.8697762],[151.2099533,-33.8696958],[151.2099967,-33.8696997],[151.2100012,-33.8696707],[151.2099258,-33.869663]]]},"properties":{"names":{"primary":"St James Arcade","common":null,"rules":null},"sources":[{"property":"","dataset":"OpenStreetMap","license":"ODbL-1.0","record_id":"w621342729@2","update_time":"2024-11-28T07:40:55.000Z","confidence":null,"between":null,"provider":"osm","resource":"planet","version":"2026-08-02T00:00:00.000Z"}],"is_underground":false,"num_floors":2,"has_parts":false,"version":1}},
{"id":"455938cb-6f30-4d25-b797-2567a0171eba","type":"Feature","geometry":{"type":"Polygon","coordinates":[[[151.2101725,-33.8699642],[151.2102209,-33.8695838],[151.2101222,-33.8695714],[151.2101241,-33.8695456],[151.2100219,-33.8695376],[151.2100012,-33.8696707],[151.2099967,-33.8696997],[151.2099533,-33.8696958],[151.2099403,-33.8697762],[151.2099855,-33.8697807],[151.2099612,-33.8699454],[151.2101725,-33.8699642]]]},"properties":{"names":{"primary":"St James Centre","common":null,"rules":null},"sources":[{"property":"","dataset":"OpenStreetMap","license":"ODbL-1.0","record_id":"w312068815@4","update_time":"2018-08-31T00:00:52.000Z","confidence":null,"between":null,"provider":"osm","resource":"planet","version":"2026-08-02T00:00:00.000Z"}],"is_underground":false,"num_floors":22,"has_parts":false,"version":1}},
{"id":"d331b5a9-67f1-4e0c-80f3-123d24e83d7e","type":"Feature","geometry":{"type":"Polygon","coordinates":[[[151.2106407,-33.8698139],[151.2106629,-33.8696456],[151.2104959,-33.8696304],[151.2104907,-33.8696702],[151.2104986,-33.8696709],[151.2104877,-33.8697532],[151.2104801,-33.8697525],[151.2104742,-33.8697962],[151.2104821,-33.8697969],[151.210471,-33.8698807],[151.2104633,-33.86988],[151.2104574,-33.8699246],[151.2104864,-33.8699273],[151.2104858,-33.869932],[151.2105304,-33.869936],[151.210531,-33.8699311],[151.2105627,-33.8699339],[151.2105667,-33.8699036],[151.2106161,-33.8699081],[151.2106584,-33.869888],[151.2106679,-33.8698164],[151.2106407,-33.8698139]]]},"properties":{"names":{"primary":"Banco Court","common":null,"rules":null},"sources":[{"property":"","dataset":"OpenStreetMap","license":"ODbL-1.0","record_id":"w618221461@2","update_time":"2025-11-13T12:30:10.000Z","confidence":null,"between":null,"provider":"osm","resource":"planet","version":"2026-08-02T00:00:00.000Z"}],"is_underground":false,"num_floors":2,"subtype":"civic","has_parts":false,"version":3}},
{"id":"06bc7d5c-c343-4b6a-b497-4a6337c4e7e7","type":"Feature","geometry":{"type":"Polygon","coordinates":[[[151.2101222,-33.8695714],[151.2102209,-33.8695838],[151.2102672,-33.869271],[151.2100116,-33.8692287],[151.2099892,-33.8693796],[151.2100398,-33.8693851],[151.2100219,-33.8695376],[151.2101241,-33.8695456],[151.2101222,-33.8695714]]]},"properties":{"names":{"primary":"ADC House","common":null,"rules":null},"sources":[{"property":"","dataset":"OpenStreetMap","license":"ODbL-1.0","record_id":"w312068816@4","update_time":"2018-08-31T00:00:52.000Z","confidence":null,"between":null,"provider":"osm","resource":"planet","version":"2026-08-02T00:00:00.000Z"}],"is_underground":false,"num_floors":14,"has_parts":false,"version":1}},
{"id":"17c5e976-9b18-4d22-a986-171febcff354","type":"Feature","geometry":{"type":"Polygon","coordinates":[[[151.2108569,-33.8693157],[151.2104921,-33.8692816],[151.2104557,-33.8695499],[151.2105158,-33.8695555],[151.2105178,-33.8695412],[151.2105591,-33.8695451],[151.2105486,-33.8696218],[151.2107309,-33.8696388],[151.2107332,-33.8696218],[151.2107656,-33.8696248],[151.2108023,-33.8693548],[151.210851,-33.8693593],[151.2108569,-33.8693157]]]},"properties":{"names":{"primary":"King Street Courts","common":null,"rules":null},"sources":[{"property":"","dataset":"OpenStreetMap","license":"ODbL-1.0","record_id":"w387747530@4","update_time":"2025-11-13T12:30:10.000Z","confidence":null,"between":null,"provider":"osm","resource":"planet","version":"2026-08-02T00:00:00.000Z"},{"property":"/properties/height","dataset":"Microsoft ML Buildings","license":"ODbL-1.0","record_id":null,"update_time":"2000-01-01T00:00:00.000Z","confidence":null,"between":null,"provider":"microsoft","resource":"ml_buildings","version":"2025-02-25"}],"height":10.733209609985352,"is_underground":false,"num_floors":2,"subtype":"civic","has_parts":false,"version":4}},
{"id":"f710b932-00e0-4cc0-8054-934f277d0815","type":"Feature","geometry":{"type":"Polygon","coordinates":[[[151.2113857,-33.869549],[151.2113875,-33.8695342],[151.2114552,-33.8695399],[151.2114713,-33.8694084],[151.2114134,-33.8694035],[151.2114156,-33.8693859],[151.2112451,-33.8693715],[151.2112489,-33.8693401],[151.2111349,-33.8693305],[151.2111311,-33.8693613],[151.2109251,-33.8693439],[151.210921,-33.8693779],[151.210895,-33.8693757],[151.2108855,-33.8694531],[151.2109144,-33.8694555],[151.2109085,-33.8695036],[151.2111087,-33.8695206],[151.2111043,-33.8695571],[151.2111955,-33.8695649],[151.2112211,-33.869567],[151.211225,-33.8695354],[151.2113857,-33.869549]]]},"properties":{"names":{"primary":"St James Church","common":null,"rules":null},"sources":[{"property":"","dataset":"OpenStreetMap","license":"ODbL-1.0","record_id":"w354745466@8","update_time":"2025-03-31T21:00:19.000Z","confidence":null,"between":null,"provider":"osm","resource":"planet","version":"2026-08-02T00:00:00.000Z"}],"height":6.0,"is_underground":false,"subtype":"religious","class":"church","has_parts":false,"version":1}},
{"id":"c7830614-8c11-43ed-b48a-38dac384d2a8","type":"Feature","geometry":{"type":"Polygon","coordinates":[[[151.2111955,-33.8695649],[151.2108905,-33.8695426],[151.210886,-33.8695858],[151.2108758,-33.8695851],[151.2108551,-33.8697821],[151.2109436,-33.8697885],[151.2109475,-33.8697511],[151.2110433,-33.8697581],[151.2110463,-33.8697292],[151.2111242,-33.8697348],[151.2111325,-33.8696557],[151.2111851,-33.8696594],[151.2111883,-33.8696285],[151.2112063,-33.8696164],[151.2112115,-33.8695915],[151.2111943,-33.8695758],[151.2111955,-33.8695649]]]},"properties":{"sources":[{"property":"","dataset":"OpenStreetMap","license":"ODbL-1.0","record_id":"w618221459@1","update_time":"2018-08-20T10:11:41.000Z","confidence":null,"between":null,"provider":"osm","resource":"planet","version":"2026-08-02T00:00:00.000Z"}],"is_underground":false,"num_floors":2,"has_parts":false,"version":1}},
{"id":"26ef021b-fe34-431b-87e8-46f462393237","type":"Feature","geometry":{"type":"Polygon","coordinates":[[[151.2107298,-33.869647],[151.2106622,-33.8696407],[151.2106629,-33.8696456],[151.2106407,-33.8698139],[151.2106679,-33.8698164],[151.2107961,-33.86983],[151.2108231,-33.8696302],[151.2107332,-33.8696218],[151.2107298,-33.869647]]]},"properties":{"sources":[{"property":"","dataset":"OpenStreetMap","license":"ODbL-1.0","record_id":"w618221460@1","update_time":"2018-08-20T10:11:41.000Z","confidence":null,"between":null,"provider":"osm","resource":"planet","version":"2026-08-02T00:00:00.000Z"},{"property":"/properties/height","dataset":"Microsoft ML Buildings","license":"ODbL-1.0","record_id":null,"update_time":"2000-01-01T00:00:00.000Z","confidence":null,"between":null,"provider":"microsoft","resource":"ml_buildings","version":"2025-02-25"}],"height":14.449342727661133,"is_underground":false,"num_floors":3,"has_parts":false,"version":2}},
{"id":"6269877a-f8d0-4b94-8591-cdda85a11575","type":"Feature","geometry":{"type":"Polygon","coordinates":[[[151.2112221,-33.8691661],[151.2118482,-33.869229],[151.2118939,-33.868915],[151.2112678,-33.8688522],[151.2112221,-33.8691661]]]},"properties":{"names":{"primary":"Federal Law Courts","common":null,"rules":[{"variant":"alternate","language":null,"perspectives":null,"value":"Queens Square","between":null,"side":null}]},"sources":[{"property":"","dataset":"OpenStreetMap","license":"ODbL-1.0","record_id":"w16749246@15","update_time":"2025-11-13T12:30:10.000Z","confidence":null,"between":null,"provider":"osm","resource":"planet","version":"2026-08-02T00:00:00.000Z"}],"is_underground":false,"num_floors":30,"subtype":"civic","has_parts":false,"version":3}},
{"id":"0a39c816-8e1f-4c84-abe2-e676d4591bf7","type":"Feature","geometry":{"type":"Polygon","coordinates":[[[151.211202,-33.8688416],[151.211581,-33.8688735],[151.2115877,-33.8688188],[151.2115448,-33.8688152],[151.2115644,-33.8686302],[151.2115842,-33.8684754],[151.2112499,-33.868449],[151.211202,-33.8688416]]]},"properties":{"sources":[{"property":"","dataset":"OpenStreetMap","license":"ODbL-1.0","record_id":"w547836213@4","update_time":"2023-10-09T04:52:31.000Z","confidence":null,"between":null,"provider":"osm","resource":"planet","version":"2026-08-02T00:00:00.000Z"}],"is_underground":false,"num_floors":12,"has_parts":false,"version":1}},
{"id":"28976409-25b4-406a-a57c-1bafd465e5bc","type":"Feature","geometry":{"type":"Polygon","coordinates":[[[151.2110495,-33.868428],[151.2106552,-33.8683994],[151.2106253,-33.8686635],[151.2110145,-33.8686974],[151.2110495,-33.868428]]]},"properties":{"names":{"primary":"Lawson Place","common":null,"rules":null},"sources":[{"property":"","dataset":"OpenStreetMap","license":"ODbL-1.0","record_id":"w387746750@5","update_time":"2023-10-09T04:52:31.000Z","confidence":null,"between":null,"provider":"osm","resource":"planet","version":"2026-08-02T00:00:00.000Z"}],"is_underground":false,"num_floors":12,"has_parts":false,"version":1}},
{"id":"bfd2b89a-1f4f-4ce7-8cd5-6697c3807849","type":"Feature","geometry":{"type":"Polygon","coordinates":[[[151.2110145,-33.8686974],[151.2106253,-33.8686635],[151.2106011,-33.8688922],[151.2106877,-33.8688997],[151.210904,-33.8689184],[151.2109874,-33.8689256],[151.2110145,-33.8686974]]]},"properties":{"names":{"primary":"St James Hall","common":null,"rules":null},"sources":[{"property":"","dataset":"OpenStreetMap","license":"ODbL-1.0","record_id":"w387746749@5","update_time":"2022-11-15T04:56:21.000Z","confidence":null,"between":null,"provider":"osm","resource":"planet","version":"2026-08-02T00:00:00.000Z"}],"is_underground":false,"num_floors":15,"has_parts":false,"version":1}},
{"id":"b707355b-19b4-4b6a-983d-3ef2abd1d990","type":"Feature","geometry":{"type":"Polygon","coordinates":[[[151.2106877,-33.8688997],[151.2106011,-33.8688922],[151.2105787,-33.8691077],[151.2108567,-33.8691337],[151.2108598,-33.86911],[151.2108955,-33.8691129],[151.2109053,-33.8691119],[151.210914,-33.8691081],[151.210918,-33.8691013],[151.2109273,-33.8690318],[151.2109271,-33.8690226],[151.210922,-33.8690162],[151.2109138,-33.8690098],[151.210921,-33.8690045],[151.2109763,-33.8690119],[151.2109874,-33.8689256],[151.210904,-33.8689184],[151.2106877,-33.8688997]]]},"properties":{"names":{"primary":"King & Phillip Residences","common":null,"rules":null},"sources":[{"property":"","dataset":"OpenStreetMap","license":"ODbL-1.0","record_id":"w538119421@5","update_time":"2023-10-09T04:52:31.000Z","confidence":null,"between":null,"provider":"osm","resource":"planet","version":"2026-08-02T00:00:00.000Z"}],"is_underground":false,"num_floors":26,"subtype":"residential","class":"apartments","has_parts":false,"version":1}},
{"id":"c18f57b7-cd7b-4f4d-835f-9715379e2c9a","type":"Feature","geometry":{"type":"Polygon","coordinates":[[[151.2103151,-33.8687326],[151.2101595,-33.8687197],[151.2101464,-33.8688281],[151.2101242,-33.8688263],[151.2101041,-33.8689922],[151.210099,-33.8690341],[151.2102769,-33.8690489],[151.2103151,-33.8687326]]]},"properties":{"names":{"primary":"Atanaskovic Hartnell House","common":null,"rules":null},"sources":[{"property":"","dataset":"OpenStreetMap","license":"ODbL-1.0","record_id":"w538119422@5","update_time":"2025-09-16T13:00:29.000Z","confidence":null,"between":null,"provider":"osm","resource":"planet","version":"2026-08-02T00:00:00.000Z"}],"is_underground":false,"num_floors":13,"subtype":"commercial","class":"commercial","has_parts":false,"version":2}},
{"id":"d07b5c7b-563d-486b-82c7-903797e797b7","type":"Feature","geometry":{"type":"Polygon","coordinates":[[[151.2101595,-33.8687197],[151.2103151,-33.8687326],[151.2103664,-33.8682642],[151.210354,-33.8682631],[151.209907,-33.8682243],[151.2098834,-33.8682222],[151.2098264,-33.8686888],[151.2100859,-33.8687136],[151.2101595,-33.8687197]]]},"properties":{"names":{"primary":"BNP Paribas Centre","common":null,"rules":null},"sources":[{"property":"","dataset":"OpenStreetMap","license":"ODbL-1.0","record_id":"w335699134@10","update_time":"2026-03-03T06:27:19.000Z","confidence":null,"between":null,"provider":"osm","resource":"planet","version":"2026-08-02T00:00:00.000Z"}],"height":15.0,"is_underground":false,"num_floors":27,"subtype":"commercial","class":"office","has_parts":true,"version":2}},
{"id":"769cb151-2ca6-4ba3-b307-3b307ee8fa18","type":"Feature","geometry":{"type":"Polygon","coordinates":[[[151.2098264,-33.8686888],[151.2098023,-33.8688626],[151.2100619,-33.8688874],[151.2100859,-33.8687136],[151.2098264,-33.8686888]]]},"properties":{"names":{"primary":"Castlereagh Chambers","common":null,"rules":null},"sources":[{"property":"","dataset":"OpenStreetMap","license":"ODbL-1.0","record_id":"w538119424@2","update_time":"2024-07-20T06:41:46.000Z","confidence":null,"between":null,"provider":"osm","resource":"planet","version":"2026-08-02T00:00:00.000Z"}],"is_underground":false,"num_floors":12,"subtype":"commercial","class":"hotel","has_parts":false,"version":1}},
{"id":"7a0695ed-04ff-4a9a-9c42-87fc9e5a2060","type":"Feature","geometry":{"type":"Polygon","coordinates":[[[151.210099,-33.8690341],[151.2101041,-33.8689922],[151.2100474,-33.8689884],[151.2100619,-33.8688874],[151.2098023,-33.8688626],[151.209786,-33.8689864],[151.2097916,-33.8689944],[151.210099,-33.8690341]]]},"properties":{"names":{"primary":"Atanaskovic Hartnell House","common":null,"rules":null},"sources":[{"property":"","dataset":"OpenStreetMap","license":"ODbL-1.0","record_id":"w538119423@4","update_time":"2025-09-16T13:00:21.000Z","confidence":null,"between":null,"provider":"osm","resource":"planet","version":"2026-08-02T00:00:00.000Z"}],"is_underground":false,"num_floors":12,"subtype":"commercial","class":"retail","has_parts":false,"version":2}},
{"id":"93fabd54-8d36-4432-8d0b-227584a92253","type":"Feature","geometry":{"type":"Polygon","coordinates":[[[151.2094267,-33.8691147],[151.2094105,-33.8692089],[151.2095516,-33.869218],[151.2095603,-33.8691467],[151.2095437,-33.86913],[151.2094267,-33.8691147]]]},"properties":{"sources":[{"property":"","dataset":"OpenStreetMap","license":"ODbL-1.0","record_id":"w621342712@3","update_time":"2025-09-16T12:59:12.000Z","confidence":null,"between":null,"provider":"osm","resource":"planet","version":"2026-08-02T00:00:00.000Z"}],"is_underground":false,"num_floors":4,"subtype":"commercial","class":"retail","has_parts":false,"version":2}},
{"id":"8497173a-00d8-4d6a-abad-e93047ad05c6","type":"Feature","geometry":{"type":"Polygon","coordinates":[[[151.2090483,-33.8691453],[151.2090426,-33.8691894],[151.209202,-33.8692036],[151.2092224,-33.869088],[151.2090591,-33.8690667],[151.2090483,-33.8691453]]]},"properties":{"sources":[{"property":"","dataset":"OpenStreetMap","license":"ODbL-1.0","record_id":"w621342715@1","update_time":"2018-08-31T00:00:46.000Z","confidence":null,"between":null,"provider":"osm","resource":"planet","version":"2026-08-02T00:00:00.000Z"}],"is_underground":false,"num_floors":2,"has_parts":false,"version":1}},
{"id":"342ed831-b078-4117-b94e-2735f677b4c6","type":"Feature","geometry":{"type":"Polygon","coordinates":[[[151.2087243,-33.8691126],[151.2090483,-33.8691453],[151.2090591,-33.8690667],[151.209015,-33.8690609],[151.2089508,-33.8690526],[151.2089309,-33.86905],[151.2089132,-33.8690477],[151.2087362,-33.8690245],[151.2087243,-33.8691126]]]},"properties":{"sources":[{"property":"","dataset":"OpenStreetMap","license":"ODbL-1.0","record_id":"w621342717@1","update_time":"2018-08-31T00:00:46.000Z","confidence":null,"between":null,"provider":"osm","resource":"planet","version":"2026-08-02T00:00:00.000Z"}],"is_underground":false,"num_floors":4,"has_parts":false,"version":1}},
{"id":"2237531c-b05b-4202-92c8-e2ba6452440c","type":"Feature","geometry":{"type":"Polygon","coordinates":[[[151.2096585,-33.8683558],[151.2096902,-33.8680971],[151.2096973,-33.8680389],[151.2096825,-33.8680378],[151.2096704,-33.8680344],[151.209659,-33.8680272],[151.209649,-33.8680161],[151.2096414,-33.8679995],[151.2096585,-33.8679934],[151.2096723,-33.8679864],[151.209684,-33.8679789],[151.2096937,-33.86797],[151.2097021,-33.86796],[151.2097092,-33.8679486],[151.2097132,-33.8679394],[151.2097169,-33.8679271],[151.2097179,-33.8679146],[151.2097172,-33.8679018],[151.2097152,-33.8678895],[151.2097108,-33.8678787],[151.2097055,-33.8678678],[151.2096984,-33.8678581],[151.2096904,-33.8678497],[151.20968,-33.8678408],[151.2096662,-33.867833],[151.2096512,-33.8678266],[151.2096361,-33.8678227],[151.2096173,-33.8678199],[151.2093268,-33.8677953],[151.2093101,-33.8679189],[151.2092713,-33.8679145],[151.209204,-33.8679082],[151.2091979,-33.8679585],[151.2091149,-33.8679503],[151.20911,-33.8679938],[151.2091472,-33.867997],[151.2091188,-33.8681919],[151.2091048,-33.8682871],[151.2088592,-33.8682689],[151.2088564,-33.8682844],[151.2088269,-33.8684481],[151.2088181,-33.868447],[151.2087867,-33.8686023],[151.2088463,-33.8686113],[151.2088396,-33.8686469],[151.2088135,-33.8686558],[151.2087974,-33.8686669],[151.208782,-33.868682],[151.2087692,-33.8687003],[151.2087639,-33.8687204],[151.2087645,-33.8687432],[151.2087712,-33.8687644],[151.2087873,-33.8687861],[151.2088034,-33.8688006],[151.2088262,-33.8688106],[151.2088483,-33.8688145],[151.2088705,-33.8688139],[151.2088906,-33.86881],[151.2089167,-33.8688006],[151.2089335,-33.86879],[151.2089503,-33.8687738],[151.2089865,-33.8687889],[151.2089783,-33.868814],[151.2089816,-33.8688393],[151.2090015,-33.8688689],[151.2090327,-33.8688895],[151.2090743,-33.8688983],[151.2091195,-33.8688906],[151.209149,-33.8688705],[151.2091785,-33.8689017],[151.2093247,-33.868916],[151.209546,-33.8687636],[151.2095542,-33.8686983],[151.2096282,-33.8687053],[151.2096372,-33.8686411],[151.2096284,-33.868625],[151.2096225,-33.8686079],[151.2096211,-33.8685921],[151.2096252,-33.8685748],[151.2096339,-33.868557],[151.2096585,-33.8683558]]]},"properties":{"names":{"primary":"25 Martin Place","common":null,"rules":null},"sources":[{"property":"","dataset":"OpenStreetMap","license":"ODbL-1.0","record_id":"w548822770@7","update_time":"2025-09-24T18:14:14.000Z","confidence":null,"between":null,"provider":"osm","resource":"planet","version":"2026-08-02T00:00:00.000Z"}],"is_underground":false,"num_floors":2,"subtype":"commercial","class":"office","has_parts":true,"version":2}}]}