{"type": "FeatureCollection", "features": [
{"id":"d5cc2a27-997f-431f-ace2-7dafe75bd5e4","type":"Feature","geometry":{"type":"Polygon","coordinates":[[[144.9586252,-37.8100152],[144.9587157,-37.8102466],[144.9589017,-37.8101947],[144.9590139,-37.810181],[144.9592258,-37.8102657],[144.9592633,-37.8103441],[144.9592736,-37.8103645],[144.9596698,-37.8102527],[144.9596241,-37.8101512],[144.9594507,-37.8097659],[144.9586252,-37.8100152]]]},"properties":{"names":{"primary":"Queens Place","common":null,"rules":null},"sources":[{"property":"","dataset":"OpenStreetMap","license":"ODbL-1.0","record_id":"w565147195@4","update_time":"2024-01-10T14:21:33.000Z","confidence":null,"between":null,"provider":"osm","resource":"planet","version":"2026-08-02T00:00:00.000Z"}],"height":253.0,"is_underground":false,"num_floors":79,"subtype":"residential","class":"apartments","has_parts":false,"version":1}},
{"id":"b667676b-e0b1-4e93-8278-54bf1deaeac0","type":"Feature","geometry":{"type":"Polygon","coordinates":[[[144.9598924,-37.8096418],[144.9594507,-37.8097659],[144.9596241,-37.8101512],[144.9600638,-37.8100246],[144.9600516,-37.8099899],[144.9600241,-37.8099312],[144.9599566,-37.8097834],[144.9598924,-37.8096418]]]},"properties":{"names":{"primary":"Eq. Tower","common":null,"rules":null},"sources":[{"property":"","dataset":"OpenStreetMap","license":"ODbL-1.0","record_id":"w306610826@5","update_time":"2024-01-10T14:25:06.000Z","confidence":null,"between":null,"provider":"osm","resource":"planet","version":"2026-08-02T00:00:00.000Z"}],"is_underground":false,"num_floors":7,"has_parts":true,"version":1}},
{"id":"88cb1226-87b7-4132-bb32-f73a0d301636","type":"Feature","geometry":{"type":"Polygon","coordinates":[[[144.9592258,-37.8102657],[144.9590139,-37.810181],[144.9589017,-37.8101947],[144.9587157,-37.8102466],[144.9588837,-37.8105997],[144.9591447,-37.8105353],[144.9592633,-37.8103441],[144.9592258,-37.8102657]]]},"properties":{"sources":[{"property":"","dataset":"OpenStreetMap","license":"ODbL-1.0","record_id":"w307236348@2","update_time":"2024-09-14T00:27:53.000Z","confidence":null,"between":null,"provider":"osm","resource":"planet","version":"2026-08-02T00:00:00.000Z"}],"is_underground":false,"num_floors":3,"roof_shape":"flat","has_parts":true,"version":1}},
{"id":"fe83b506-eda7-43a2-b2ef-2646a310404b","type":"Feature","geometry":{"type":"Polygon","coordinates":[[[144.9593783,-37.8105709],[144.9594442,-37.8107129],[144.9597425,-37.8106267],[144.9595854,-37.8102859],[144.959451,-37.8103238],[144.9593346,-37.8103604],[144.9593185,-37.8104621],[144.9593783,-37.8105709]]]},"properties":{"sources":[{"property":"","dataset":"OpenStreetMap","license":"ODbL-1.0","record_id":"w306610829@3","update_time":"2024-09-14T00:23:35.000Z","confidence":null,"between":null,"provider":"osm","resource":"planet","version":"2026-08-02T00:00:00.000Z"}],"is_underground":false,"num_floors":1,"roof_shape":"flat","has_parts":false,"version":1}},
{"id":"17c83ae6-20f5-483c-917f-27e2e6833da4","type":"Feature","geometry":{"type":"Polygon","coordinates":[[[144.9599059,-37.8102127],[144.9596963,-37.8102678],[144.9597465,-37.8103871],[144.9598028,-37.8103723],[144.9598682,-37.8105276],[144.9599925,-37.810495],[144.9599224,-37.8103285],[144.9599515,-37.8103209],[144.9599059,-37.8102127]]]},"properties":{"names":{"primary":"Welsh Church","common":null,"rules":null},"sources":[{"property":"","dataset":"OpenStreetMap","license":"ODbL-1.0","record_id":"w28775707@8","update_time":"2026-05-07T23:27:53.000Z","confidence":null,"between":null,"provider":"osm","resource":"planet","version":"2026-08-02T00:00:00.000Z"}],"is_underground":false,"subtype":"religious","class":"church","has_parts":false,"version":1}},
{"id":"ec9210cb-0645-4775-8f93-31d25886242a","type":"Feature","geometry":{"type":"Polygon","coordinates":[[[144.9602277,-37.8104906],[144.9600408,-37.8100783],[144.9599089,-37.8101156],[144.9600956,-37.8105279],[144.9602277,-37.8104906]]]},"properties":{"names":{"primary":"Scape","common":null,"rules":null},"sources":[{"property":"","dataset":"OpenStreetMap","license":"ODbL-1.0","record_id":"w307086625@4","update_time":"2024-09-14T00:22:24.000Z","confidence":null,"between":null,"provider":"osm","resource":"planet","version":"2026-08-02T00:00:00.000Z"}],"is_underground":false,"num_floors":24,"roof_shape":"flat","has_parts":false,"version":1}},
{"id":"9e821253-35c0-4b52-9043-1967bdb49668","type":"Feature","geometry":{"type":"Polygon","coordinates":[[[144.960484,-37.809864],[144.9600847,-37.8099808],[144.960314,-37.8104701],[144.9603543,-37.8104583],[144.960736,-37.8103467],[144.9605067,-37.8098574],[144.960484,-37.809864]]]},"properties":{"names":{"primary":"Argus Centre","common":null,"rules":null},"sources":[{"property":"","dataset":"OpenStreetMap","license":"ODbL-1.0","record_id":"w28775678@8","update_time":"2025-03-04T09:04:00.000Z","confidence":null,"between":null,"provider":"osm","resource":"planet","version":"2026-08-02T00:00:00.000Z"}],"is_underground":false,"num_floors":34,"has_parts":false,"version":1}},
{"id":"f83a7c3a-7128-4563-a7f8-65c50a8ec88b","type":"Feature","geometry":{"type":"Polygon","coordinates":[[[144.9616588,-37.8098745],[144.9616431,-37.8098421],[144.9613656,-37.8099227],[144.961407,-37.8100166],[144.9616873,-37.809937],[144.9616588,-37.8098745]]]},"properties":{"sources":[{"property":"","dataset":"OpenStreetMap","license":"ODbL-1.0","record_id":"w725993181@2","update_time":"2026-05-13T11:49:54.000Z","confidence":null,"between":null,"provider":"osm","resource":"planet","version":"2026-08-02T00:00:00.000Z"}],"is_underground":false,"num_floors":4,"has_parts":false,"version":2}},
{"id":"69289c60-41b5-4615-86dd-bd6cf47bf1cd","type":"Feature","geometry":{"type":"Polygon","coordinates":[[[144.9616873,-37.809937],[144.961407,-37.8100166],[144.9614628,-37.8101393],[144.9618504,-37.8100282],[144.961768,-37.8098452],[144.9616588,-37.8098745],[144.9616873,-37.809937]]]},"properties":{"sources":[{"property":"","dataset":"OpenStreetMap","license":"ODbL-1.0","record_id":"w332355054@4","update_time":"2026-05-13T11:49:54.000Z","confidence":null,"between":null,"provider":"osm","resource":"planet","version":"2026-08-02T00:00:00.000Z"}],"is_underground":false,"num_floors":4,"subtype":"commercial","class":"office","has_parts":false,"version":2}},
{"id":"a6a44e87-2835-4acb-81e2-a84590abae16","type":"Feature","geometry":{"type":"Polygon","coordinates":[[[144.9616131,-37.8097789],[144.9613363,-37.8098599],[144.9613656,-37.8099227],[144.9616431,-37.8098421],[144.9616376,-37.8098309],[144.9616131,-37.8097789]]]},"properties":{"sources":[{"property":"","dataset":"OpenStreetMap","license":"ODbL-1.0","record_id":"w725993180@3","update_time":"2026-05-13T11:49:54.000Z","confidence":null,"between":null,"provider":"osm","resource":"planet","version":"2026-08-02T00:00:00.000Z"}],"is_underground":false,"num_floors":2,"has_parts":false,"version":2}},
{"id":"7966c470-ddc4-4f0d-b9b5-994ec831e094","type":"Feature","geometry":{"type":"Polygon","coordinates":[[[144.9612912,-37.8097613],[144.9613363,-37.8098599],[144.9616131,-37.8097789],[144.9615667,-37.8096806],[144.9612912,-37.8097613]]]},"properties":{"sources":[{"property":"","dataset":"OpenStreetMap","license":"ODbL-1.0","record_id":"w332355055@3","update_time":"2026-05-13T11:49:54.000Z","confidence":null,"between":null,"provider":"osm","resource":"planet","version":"2026-08-02T00:00:00.000Z"}],"is_underground":false,"num_floors":2,"has_parts":false,"version":2}},
{"id":"3eb8cc57-4151-4063-8fa1-2c5e293eb041","type":"Feature","geometry":{"type":"Polygon","coordinates":[[[144.9605614,-37.8097705],[144.9608052,-37.8103178],[144.9609521,-37.8102765],[144.9610842,-37.8102394],[144.9611029,-37.8102203],[144.9611163,-37.8101928],[144.961111,-37.8101652],[144.9608856,-37.8096767],[144.9605614,-37.8097705]]]},"properties":{"sources":[{"property":"","dataset":"OpenStreetMap","license":"ODbL-1.0","record_id":"w47533039@11","update_time":"2024-10-17T21:45:17.000Z","confidence":null,"between":null,"provider":"osm","resource":"planet","version":"2026-08-02T00:00:00.000Z"},{"property":"/properties/height","dataset":"Microsoft ML Buildings","license":"ODbL-1.0","record_id":null,"update_time":"2000-01-01T00:00:00.000Z","confidence":null,"between":null,"provider":"microsoft","resource":"ml_buildings","version":"2025-02-25"}],"height":19.909507751464844,"is_underground":false,"num_floors":6,"roof_shape":"flat","has_parts":false,"version":2}},
{"id":"123d44d1-14ae-4fea-96dd-fff5a564fa2e","type":"Feature","geometry":{"type":"Polygon","coordinates":[[[144.9604562,-37.8098048],[144.9603856,-37.8096577],[144.9599566,-37.8097834],[144.9600241,-37.8099312],[144.9604562,-37.8098048]]]},"properties":{"sources":[{"property":"","dataset":"OpenStreetMap","license":"ODbL-1.0","record_id":"w725993182@1","update_time":"2022-05-20T00:23:58.000Z","confidence":null,"between":null,"provider":"osm","resource":"planet","version":"2026-08-02T00:00:00.000Z"}],"is_underground":false,"has_parts":false,"version":1}},
{"id":"d349494a-4e84-48cc-ac0f-a788dd902de2","type":"Feature","geometry":{"type":"Polygon","coordinates":[[[144.960484,-37.809864],[144.9604562,-37.8098048],[144.9600241,-37.8099312],[144.9600516,-37.8099899],[144.9600847,-37.8099808],[144.960484,-37.809864]]]},"properties":{"sources":[{"property":"","dataset":"OpenStreetMap","license":"ODbL-1.0","record_id":"w1061916765@1","update_time":"2022-05-20T00:23:58.000Z","confidence":null,"between":null,"provider":"osm","resource":"planet","version":"2026-08-02T00:00:00.000Z"}],"is_underground":false,"has_parts":false,"version":1}},
{"id":"a5881210-aa7b-41dd-ba56-9e604af4b045","type":"Feature","geometry":{"type":"Polygon","coordinates":[[[144.9603169,-37.8095149],[144.9598924,-37.8096418],[144.9599566,-37.8097834],[144.9603856,-37.8096577],[144.9603169,-37.8095149]]]},"properties":{"sources":[{"property":"","dataset":"OpenStreetMap","license":"ODbL-1.0","record_id":"w306610830@1","update_time":"2019-09-18T22:19:32.000Z","confidence":null,"between":null,"provider":"osm","resource":"planet","version":"2026-08-02T00:00:00.000Z"}],"is_underground":false,"has_parts":false,"version":1}},
{"id":"fed9cf52-b52e-47c4-99a2-38734ebeb4b5","type":"Feature","geometry":{"type":"Polygon","coordinates":[[[144.9607534,-37.8093915],[144.9604292,-37.8094854],[144.9605614,-37.8097705],[144.9608856,-37.8096767],[144.9607534,-37.8093915]]]},"properties":{"sources":[{"property":"","dataset":"OpenStreetMap","license":"ODbL-1.0","record_id":"w307236482@2","update_time":"2019-09-18T22:19:32.000Z","confidence":null,"between":null,"provider":"osm","resource":"planet","version":"2026-08-02T00:00:00.000Z"}],"is_underground":false,"num_floors":6,"has_parts":false,"version":1}},
{"id":"2b901fbe-4236-4318-9b5c-7eadc50007a4","type":"Feature","geometry":{"type":"Polygon","coordinates":[[[144.9616342,-37.8094676],[144.9612078,-37.8095865],[144.9612447,-37.8096693],[144.961668,-37.8095481],[144.9616342,-37.8094676]]]},"properties":{"sources":[{"property":"","dataset":"OpenStreetMap","license":"ODbL-1.0","record_id":"w306474053@2","update_time":"2026-05-13T11:49:54.000Z","confidence":null,"between":null,"provider":"osm","resource":"planet","version":"2026-08-02T00:00:00.000Z"},{"property":"/properties/height","dataset":"Microsoft ML Buildings","license":"ODbL-1.0","record_id":null,"update_time":"2000-01-01T00:00:00.000Z","confidence":null,"between":null,"provider":"microsoft","resource":"ml_buildings","version":"2025-02-25"}],"height":8.472955703735352,"is_underground":false,"num_floors":2,"has_parts":false,"version":3}},
{"id":"f21bd2d7-3707-4245-9c84-275ab565e23e","type":"Feature","geometry":{"type":"Polygon","coordinates":[[[144.9615486,-37.8093893],[144.9611672,-37.8094956],[144.9612078,-37.8095865],[144.9616342,-37.8094676],[144.9615936,-37.8093767],[144.9615486,-37.8093893]]]},"properties":{"sources":[{"property":"","dataset":"OpenStreetMap","license":"ODbL-1.0","record_id":"w306474069@3","update_time":"2019-09-18T22:19:32.000Z","confidence":null,"between":null,"provider":"osm","resource":"planet","version":"2026-08-02T00:00:00.000Z"}],"is_underground":false,"has_parts":false,"version":1}},
{"id":"215925c2-642a-41dc-8429-54c43d322bbb","type":"Feature","geometry":{"type":"Polygon","coordinates":[[[144.9614494,-37.8091792],[144.96107,-37.8092912],[144.9611672,-37.8094956],[144.9615486,-37.8093893],[144.9614494,-37.8091792]]]},"properties":{"names":{"primary":"Empire Melbourne","common":null,"rules":null},"sources":[{"property":"","dataset":"OpenStreetMap","license":"ODbL-1.0","record_id":"w306474048@7","update_time":"2024-07-21T05:50:50.000Z","confidence":null,"between":null,"provider":"osm","resource":"planet","version":"2026-08-02T00:00:00.000Z"}],"height":198.0,"is_underground":false,"num_floors":62,"subtype":"residential","class":"apartments","has_parts":false,"version":1}},
{"id":"b6712f01-0f3e-4609-b158-263fa19d1b30","type":"Feature","geometry":{"type":"Polygon","coordinates":[[[144.9615815,-37.8091408],[144.9614962,-37.8091656],[144.96158,-37.8093451],[144.9616652,-37.8093203],[144.9615815,-37.8091408]]]},"properties":{"sources":[{"property":"","dataset":"OpenStreetMap","license":"ODbL-1.0","record_id":"w306474049@1","update_time":"2019-09-18T22:19:32.000Z","confidence":null,"between":null,"provider":"osm","resource":"planet","version":"2026-08-02T00:00:00.000Z"}],"is_underground":false,"has_parts":false,"version":1}},
{"id":"f96c22a2-bba6-486c-995c-4b37585656e7","type":"Feature","geometry":{"type":"Polygon","coordinates":[[[144.9614413,-37.8087356],[144.9615438,-37.8089611],[144.9616789,-37.8089229],[144.9615735,-37.8086971],[144.9614708,-37.808727],[144.9614413,-37.8087356]]]},"properties":{"sources":[{"property":"","dataset":"OpenStreetMap","license":"ODbL-1.0","record_id":"w310023696@1","update_time":"2019-11-08T00:09:26.000Z","confidence":null,"between":null,"provider":"osm","resource":"planet","version":"2026-08-02T00:00:00.000Z"}],"is_underground":false,"has_parts":false,"version":1}},
{"id":"b39c0d68-558c-437b-b85f-2930fe26b228","type":"Feature","geometry":{"type":"Polygon","coordinates":[[[144.96089,-37.8089002],[144.9609905,-37.8091167],[144.961384,-37.8090106],[144.9612854,-37.8087835],[144.96089,-37.8089002]]]},"properties":{"names":{"primary":"MY80","common":null,"rules":null},"sources":[{"property":"","dataset":"OpenStreetMap","license":"ODbL-1.0","record_id":"w429997931@7","update_time":"2025-03-02T16:49:00.000Z","confidence":null,"between":null,"provider":"osm","resource":"planet","version":"2026-08-02T00:00:00.000Z"}],"height":173.0,"is_underground":false,"num_floors":55,"subtype":"residential","class":"apartments","roof_shape":"flat","has_parts":true,"version":1}},
{"id":"9ef2e487-d0d0-4acc-88b9-cc6bd7a2192d","type":"Feature","geometry":{"type":"Polygon","coordinates":[[[144.9605982,-37.8090667],[144.9605667,-37.8089966],[144.9603558,-37.8090557],[144.9603851,-37.809125],[144.9605982,-37.8090667]]]},"properties":{"sources":[{"property":"","dataset":"OpenStreetMap","license":"ODbL-1.0","record_id":"w737414003@4","update_time":"2024-10-18T21:46:53.000Z","confidence":null,"between":null,"provider":"osm","resource":"planet","version":"2026-08-02T00:00:00.000Z"}],"is_underground":false,"num_floors":2,"subtype":"commercial","class":"retail","roof_shape":"flat","has_parts":false,"version":1}},
{"id":"168ab405-bdd1-479e-9eb3-4f210dc9127e","type":"Feature","geometry":{"type":"Polygon","coordinates":[[[144.9606142,-37.8091048],[144.9605982,-37.8090667],[144.9603851,-37.809125],[144.9604023,-37.8091642],[144.9606142,-37.8091048]]]},"properties":{"sources":[{"property":"","dataset":"OpenStreetMap","license":"ODbL-1.0","record_id":"w737414004@2","update_time":"2023-09-03T01:07:07.000Z","confidence":null,"between":null,"provider":"osm","resource":"planet","version":"2026-08-02T00:00:00.000Z"}],"is_underground":false,"subtype":"commercial","class":"retail","has_parts":false,"version":1}},
{"id":"4db6b561-1bab-4385-8e35-717cc440b7ac","type":"Feature","geometry":{"type":"Polygon","coordinates":[[[144.9606629,-37.809213],[144.9606142,-37.8091048],[144.9604023,-37.8091642],[144.960378,-37.8091711],[144.9604267,-37.8092794],[144.9606629,-37.809213]]]},"properties":{"sources":[{"property":"","dataset":"OpenStreetMap","license":"ODbL-1.0","record_id":"w737414005@4","update_time":"2024-10-17T21:46:12.000Z","confidence":null,"between":null,"provider":"osm","resource":"planet","version":"2026-08-02T00:00:00.000Z"}],"is_underground":false,"num_floors":2,"subtype":"commercial","class":"retail","roof_shape":"flat","has_parts":false,"version":1}},
{"id":"d50fae6c-3eb7-46f4-8b54-7defade53eca","type":"Feature","geometry":{"type":"Polygon","coordinates":[[[144.9602154,-37.8090964],[144.9601422,-37.8091184],[144.9602429,-37.809327],[144.9603161,-37.809305],[144.9602154,-37.8090964]]]},"properties":{"sources":[{"property":"","dataset":"OpenStreetMap","license":"ODbL-1.0","record_id":"w737414006@1","update_time":"2019-10-21T21:01:31.000Z","confidence":null,"between":null,"provider":"osm","resource":"planet","version":"2026-08-02T00:00:00.000Z"}],"is_underground":false,"has_parts":false,"version":1}},
{"id":"dcd6bd3c-26a6-48f3-9e8b-8e9341ef7008","type":"Feature","geometry":{"type":"Polygon","coordinates":[[[144.9602175,-37.809332],[144.9600013,-37.8088585],[144.9598196,-37.8089103],[144.9599057,-37.8090989],[144.9598347,-37.8091191],[144.9599648,-37.809404],[144.9602175,-37.809332]]]},"properties":{"sources":[{"property":"","dataset":"OpenStreetMap","license":"ODbL-1.0","record_id":"w306610837@3","update_time":"2025-09-23T07:55:38.000Z","confidence":null,"between":null,"provider":"osm","resource":"planet","version":"2026-08-02T00:00:00.000Z"}],"is_underground":false,"has_parts":false,"version":1}},
{"id":"e58995a5-ff91-47fd-b7d0-9ecf70059bdd","type":"Feature","geometry":{"type":"Polygon","coordinates":[[[144.9600404,-37.8089079],[144.9601422,-37.8091184],[144.9602154,-37.8090964],[144.960147,-37.8089647],[144.960111,-37.8088873],[144.9600404,-37.8089079]]]},"properties":{"sources":[{"property":"","dataset":"OpenStreetMap","license":"ODbL-1.0","record_id":"w737414007@1","update_time":"2019-10-21T21:01:31.000Z","confidence":null,"between":null,"provider":"osm","resource":"planet","version":"2026-08-02T00:00:00.000Z"}],"is_underground":false,"has_parts":false,"version":1}},
{"id":"86ca75d6-0e03-4d54-b183-0c59c26b4982","type":"Feature","geometry":{"type":"Polygon","coordinates":[[[144.9601904,-37.8088965],[144.9601776,-37.8088679],[144.960111,-37.8088873],[144.960147,-37.8089647],[144.9602137,-37.8089453],[144.9601904,-37.8088965]]]},"properties":{"sources":[{"property":"","dataset":"OpenStreetMap","license":"ODbL-1.0","record_id":"w737414008@1","update_time":"2019-10-21T21:01:31.000Z","confidence":null,"between":null,"provider":"osm","resource":"planet","version":"2026-08-02T00:00:00.000Z"}],"is_underground":false,"has_parts":false,"version":1}},
{"id":"7b296ada-7152-4525-b764-86cf6f680d1a","type":"Feature","geometry":{"type":"Polygon","coordinates":[[[144.9605667,-37.8089966],[144.9605337,-37.8089261],[144.960325,-37.8089842],[144.9603558,-37.8090557],[144.9605667,-37.8089966]]]},"properties":{"sources":[{"property":"","dataset":"OpenStreetMap","license":"ODbL-1.0","record_id":"w737414002@2","update_time":"2023-09-03T01:06:58.000Z","confidence":null,"between":null,"provider":"osm","resource":"planet","version":"2026-08-02T00:00:00.000Z"}],"is_underground":false,"subtype":"commercial","class":"retail","has_parts":false,"version":1}},
{"id":"04ce0571-4128-403c-89f0-99a8d172fe2c","type":"Feature","geometry":{"type":"Polygon","coordinates":[[[144.9605337,-37.8089261],[144.9605028,-37.8088568],[144.9602938,-37.8089145],[144.960325,-37.8089842],[144.9605337,-37.8089261]]]},"properties":{"sources":[{"property":"","dataset":"OpenStreetMap","license":"ODbL-1.0","record_id":"w737414001@2","update_time":"2023-09-03T01:06:52.000Z","confidence":null,"between":null,"provider":"osm","resource":"planet","version":"2026-08-02T00:00:00.000Z"}],"is_underground":false,"subtype":"commercial","class":"retail","has_parts":false,"version":1}},
{"id":"ccb5be7a-36ed-4173-a2f6-28435c381805","type":"Feature","geometry":{"type":"Polygon","coordinates":[[[144.9605028,-37.8088568],[144.9604713,-37.8087842],[144.9602615,-37.8088438],[144.9602938,-37.8089145],[144.9605028,-37.8088568]]]},"properties":{"sources":[{"property":"","dataset":"OpenStreetMap","license":"ODbL-1.0","record_id":"w737414000@2","update_time":"2023-09-03T01:06:48.000Z","confidence":null,"between":null,"provider":"osm","resource":"planet","version":"2026-08-02T00:00:00.000Z"}],"is_underground":false,"subtype":"commercial","class":"retail","has_parts":false,"version":1}},
{"id":"0fb97504-e189-4a67-95db-952abd366dcc","type":"Feature","geometry":{"type":"Polygon","coordinates":[[[144.9604713,-37.8087842],[144.960438,-37.8087109],[144.9602765,-37.808756700000004],[144.9601586,-37.8087902],[144.960176,-37.8088284],[144.9601535,-37.8088348],[144.9601377,-37.8088],[144.9600768,-37.8088172],[144.960111,-37.8088873],[144.9601776,-37.8088679],[144.9602325,-37.8088525],[144.9602615,-37.8088438],[144.9604713,-37.8087842]]]},"properties":{"sources":[{"property":"","dataset":"OpenStreetMap","license":"ODbL-1.0","record_id":"w737413999@2","update_time":"2023-09-03T01:06:41.000Z","confidence":null,"between":null,"provider":"osm","resource":"planet","version":"2026-08-02T00:00:00.000Z"}],"is_underground":false,"subtype":"commercial","class":"retail","has_parts":false,"version":1}},
{"id":"b5349896-7f99-4c1f-a05d-509b364f670b","type":"Feature","geometry":{"type":"Polygon","coordinates":[[[144.9601776,-37.8088679],[144.9601904,-37.8088965],[144.9602453,-37.8088812],[144.9602325,-37.8088525],[144.9601776,-37.8088679]]]},"properties":{"sources":[{"property":"","dataset":"OpenStreetMap","license":"ODbL-1.0","record_id":"w737414009@1","update_time":"2019-10-21T21:01:31.000Z","confidence":null,"between":null,"provider":"osm","resource":"planet","version":"2026-08-02T00:00:00.000Z"}],"is_underground":false,"has_parts":false,"version":1}},
{"id":"878136b6-0365-4e0c-b690-05d929bc1a4c","type":"Feature","geometry":{"type":"Polygon","coordinates":[[[144.958834,-37.8089838],[144.958909,-37.8089622],[144.9588378,-37.8087763],[144.9583577,-37.8089119],[144.9583537,-37.8088981],[144.958119,-37.8089627],[144.9582142,-37.8091715],[144.9583483,-37.8091323],[144.9583269,-37.8090856],[144.9588137,-37.8089468],[144.958834,-37.8089838]]]},"properties":{"names":{"primary":"Melbourne Terrace Apartments","common":null,"rules":null},"sources":[{"property":"","dataset":"OpenStreetMap","license":"ODbL-1.0","record_id":"w62105905@4","update_time":"2022-05-24T01:24:24.000Z","confidence":null,"between":null,"provider":"osm","resource":"planet","version":"2026-08-02T00:00:00.000Z"}],"level":1,"is_underground":false,"has_parts":false,"version":1}},
{"id":"35be194a-9499-49a9-bbbf-6806a90eef6b","type":"Feature","geometry":{"type":"Polygon","coordinates":[[[144.9591364,-37.8086876],[144.9589274,-37.8087494],[144.9591542,-37.8092277],[144.959393,-37.8091595],[144.9592683,-37.8088619],[144.9592158,-37.808873],[144.9591364,-37.8086876]]]},"properties":{"sources":[{"property":"","dataset":"OpenStreetMap","license":"ODbL-1.0","record_id":"w737413981@1","update_time":"2019-10-21T21:01:31.000Z","confidence":null,"between":null,"provider":"osm","resource":"planet","version":"2026-08-02T00:00:00.000Z"}],"is_underground":false,"has_parts":false,"version":1}},
{"id":"b916f636-0ccf-46b9-965d-e428f440a673","type":"Feature","geometry":{"type":"Polygon","coordinates":[[[144.9588782,-37.8094855],[144.959119,-37.809416],[144.958909,-37.8089622],[144.958834,-37.8089838],[144.9586683,-37.8090317],[144.9588782,-37.8094855]]]},"properties":{"sources":[{"property":"","dataset":"OpenStreetMap","license":"ODbL-1.0","record_id":"w306610833@2","update_time":"2022-05-24T01:24:24.000Z","confidence":null,"between":null,"provider":"osm","resource":"planet","version":"2026-08-02T00:00:00.000Z"}],"is_underground":false,"has_parts":false,"version":1}},
{"id":"b76f3653-ab35-41f9-9cd1-e1b92167866f","type":"Feature","geometry":{"type":"Polygon","coordinates":[[[144.959567,-37.8094754],[144.959622,-37.8094597],[144.9598552,-37.809393],[144.9597592,-37.8091743],[144.9597122,-37.8090716],[144.9594636,-37.8091427],[144.9594216,-37.8091581],[144.9595248,-37.8093834],[144.959567,-37.8094754]]]},"properties":{"sources":[{"property":"","dataset":"OpenStreetMap","license":"ODbL-1.0","record_id":"w737413985@1","update_time":"2019-10-21T21:01:31.000Z","confidence":null,"between":null,"provider":"osm","resource":"planet","version":"2026-08-02T00:00:00.000Z"}],"is_underground":false,"subtype":"residential","class":"apartments","has_parts":false,"version":1}},
{"id":"f7c7b32f-de0d-42be-b322-8532ca4a3100","type":"Feature","geometry":{"type":"Polygon","coordinates":[[[144.959393,-37.8091595],[144.9591542,-37.8092277],[144.9591955,-37.8093213],[144.9594361,-37.8092539],[144.959393,-37.8091595]]]},"properties":{"sources":[{"property":"","dataset":"OpenStreetMap","license":"ODbL-1.0","record_id":"w306610836@1","update_time":"2019-10-21T21:01:31.000Z","confidence":null,"between":null,"provider":"osm","resource":"planet","version":"2026-08-02T00:00:00.000Z"}],"is_underground":false,"has_parts":false,"version":1}},
{"id":"dca4c972-bc07-4d94-84d9-60dd3cf8101c","type":"Feature","geometry":{"type":"Polygon","coordinates":[[[144.9594361,-37.8092539],[144.9591955,-37.8093213],[144.9592358,-37.809416],[144.9593652,-37.8093797],[144.9594791,-37.8093495],[144.9594361,-37.8092539]]]},"properties":{"sources":[{"property":"","dataset":"OpenStreetMap","license":"ODbL-1.0","record_id":"w737413982@1","update_time":"2019-10-21T21:01:31.000Z","confidence":null,"between":null,"provider":"osm","resource":"planet","version":"2026-08-02T00:00:00.000Z"}],"is_underground":false,"has_parts":false,"version":1}},
{"id":"c840c48f-5e70-462a-a5ae-a82358e70111","type":"Feature","geometry":{"type":"Polygon","coordinates":[[[144.959385,-37.8094233],[144.9594472,-37.8095591],[144.959642,-37.8095034],[144.959622,-37.8094597],[144.959567,-37.8094754],[144.9595248,-37.8093834],[144.959385,-37.8094233]]]},"properties":{"sources":[{"property":"","dataset":"OpenStreetMap","license":"ODbL-1.0","record_id":"w737413984@1","update_time":"2019-10-21T21:01:31.000Z","confidence":null,"between":null,"provider":"osm","resource":"planet","version":"2026-08-02T00:00:00.000Z"}],"is_underground":false,"has_parts":false,"version":1}},
{"id":"ae473a6b-ae29-48d9-925a-e2d49ed2aa2c","type":"Feature","geometry":{"type":"Polygon","coordinates":[[[144.9593652,-37.8093797],[144.9592358,-37.809416],[144.9593169,-37.8095967],[144.9594472,-37.8095591],[144.959385,-37.8094233],[144.9593652,-37.8093797]]]},"properties":{"sources":[{"property":"","dataset":"OpenStreetMap","license":"ODbL-1.0","record_id":"w737413983@1","update_time":"2019-10-21T21:01:31.000Z","confidence":null,"between":null,"provider":"osm","resource":"planet","version":"2026-08-02T00:00:00.000Z"}],"is_underground":false,"has_parts":false,"version":1}},
{"id":"c71a916a-5c16-4986-b682-6dc6619d8f95","type":"Feature","geometry":{"type":"Polygon","coordinates":[[[144.9591393,-37.8094474],[144.9590006,-37.8094878],[144.9590817,-37.8096613],[144.9592204,-37.8096208],[144.9591393,-37.8094474]]]},"properties":{"sources":[{"property":"","dataset":"OpenStreetMap","license":"ODbL-1.0","record_id":"w1063088032@1","update_time":"2022-05-24T01:24:24.000Z","confidence":null,"between":null,"provider":"osm","resource":"planet","version":"2026-08-02T00:00:00.000Z"}],"is_underground":false,"has_parts":false,"version":1}},
{"id":"1c376c62-9132-4970-b4bb-d7d84d14def9","type":"Feature","geometry":{"type":"Polygon","coordinates":[[[144.9590006,-37.8094878],[144.9588672,-37.809524],[144.9589489,-37.8096985],[144.9590817,-37.8096613],[144.9590006,-37.8094878]]]},"properties":{"sources":[{"property":"","dataset":"OpenStreetMap","license":"ODbL-1.0","record_id":"w306610834@2","update_time":"2022-05-24T01:24:24.000Z","confidence":null,"between":null,"provider":"osm","resource":"planet","version":"2026-08-02T00:00:00.000Z"}],"is_underground":false,"has_parts":false,"version":1}},
{"id":"5e3bd928-b798-4c81-b0d0-2a39c278af8b","type":"Feature","geometry":{"type":"Polygon","coordinates":[[[144.9586409,-37.8090626],[144.9582309,-37.8091865],[144.9585388,-37.8098224],[144.9589489,-37.8096985],[144.9586409,-37.8090626]]]},"properties":{"sources":[{"property":"","dataset":"OpenStreetMap","license":"ODbL-1.0","record_id":"w306610835@5","update_time":"2024-09-14T00:29:24.000Z","confidence":null,"between":null,"provider":"osm","resource":"planet","version":"2026-08-02T00:00:00.000Z"}],"is_underground":false,"num_floors":6,"roof_shape":"flat","has_parts":false,"version":1}},
{"id":"6ad6315a-b7a5-41e4-81ce-4034b7919e97","type":"Feature","geometry":{"type":"Polygon","coordinates":[[[144.958353,-37.8084637],[144.9583623,-37.8086097],[144.9586149,-37.8085343],[144.9585625,-37.8084004],[144.958353,-37.8084637]]]},"properties":{"sources":[{"property":"","dataset":"OpenStreetMap","license":"ODbL-1.0","record_id":"w260996023@5","update_time":"2024-09-20T22:52:37.000Z","confidence":null,"between":null,"provider":"osm","resource":"planet","version":"2026-08-02T00:00:00.000Z"}],"is_underground":false,"num_floors":2,"subtype":"commercial","class":"commercial","roof_shape":"flat","has_parts":false,"version":1}},
{"id":"d64f0753-37df-4b30-85e1-6190d6d62e9a","type":"Feature","geometry":{"type":"Polygon","coordinates":[[[144.9597005,-37.8085141],[144.9596137,-37.8085398],[144.9597427,-37.8088166],[144.9599231,-37.8087642],[144.9598498,-37.8086069],[144.9598922,-37.8085946],[144.9598828,-37.8085747],[144.9598362,-37.808474],[144.9597005,-37.8085141]]]},"properties":{"names":{"primary":"Vosti House","common":null,"rules":null},"sources":[{"property":"","dataset":"OpenStreetMap","license":"ODbL-1.0","record_id":"w737413990@2","update_time":"2024-10-18T21:51:43.000Z","confidence":null,"between":null,"provider":"osm","resource":"planet","version":"2026-08-02T00:00:00.000Z"}],"is_underground":false,"num_floors":5,"has_parts":false,"version":1}},
{"id":"b3a1762c-41a2-488e-a687-979c00322ef7","type":"Feature","geometry":{"type":"Polygon","coordinates":[[[144.9588152,-37.8082515],[144.9585587,-37.8083239],[144.958652,-37.8085302],[144.9589085,-37.8084578],[144.9588152,-37.8082515]]]},"properties":{"sources":[{"property":"","dataset":"OpenStreetMap","license":"ODbL-1.0","record_id":"w725699826@1","update_time":"2019-09-17T22:25:26.000Z","confidence":null,"between":null,"provider":"osm","resource":"planet","version":"2026-08-02T00:00:00.000Z"}],"is_underground":false,"has_parts":false,"version":1}},
{"id":"9fd14478-f43d-4994-be73-4802023ef663","type":"Feature","geometry":{"type":"Polygon","coordinates":[[[144.9616544,-37.8084442],[144.9614726,-37.8080733],[144.9612501,-37.8081385],[144.9612774,-37.8082077],[144.9612879,-37.8082045],[144.9613402,-37.8083138],[144.9612889,-37.8083291],[144.9613213,-37.8083966],[144.961383,-37.8085253],[144.9616544,-37.8084442]]]},"properties":{"names":{"primary":"Scape","common":null,"rules":null},"sources":[{"property":"","dataset":"OpenStreetMap","license":"ODbL-1.0","record_id":"w743156059@2","update_time":"2023-09-06T22:30:31.000Z","confidence":null,"between":null,"provider":"osm","resource":"planet","version":"2026-08-02T00:00:00.000Z"}],"is_underground":false,"has_parts":false,"version":1}},
{"id":"61772970-606d-433a-98bd-2e996f36f91c","type":"Feature","geometry":{"type":"Polygon","coordinates":[[[144.9602694,-37.808356],[144.9600125,-37.8084265],[144.9600716,-37.8085554],[144.9603256,-37.8084838],[144.9602694,-37.808356]]]},"properties":{"sources":[{"property":"","dataset":"OpenStreetMap","license":"ODbL-1.0","record_id":"w310023554@3","update_time":"2019-11-01T00:19:40.000Z","confidence":null,"between":null,"provider":"osm","resource":"planet","version":"2026-08-02T00:00:00.000Z"}],"is_underground":false,"num_floors":12,"has_parts":false,"version":1}},
{"id":"13517232-b2a5-4e3a-b756-802cce869b35","type":"Feature","geometry":{"type":"Polygon","coordinates":[[[144.9599696,-37.8084355],[144.9598362,-37.808474],[144.9598828,-37.8085747],[144.9600167,-37.8085353],[144.9599696,-37.8084355]]]},"properties":{"sources":[{"property":"","dataset":"OpenStreetMap","license":"ODbL-1.0","record_id":"w737413991@2","update_time":"2024-10-18T21:52:29.000Z","confidence":null,"between":null,"provider":"osm","resource":"planet","version":"2026-08-02T00:00:00.000Z"}],"is_underground":false,"num_floors":2,"facade_material":"brick","has_parts":false,"version":1}},
{"id":"137859ec-a5a4-4bfc-ab04-118c437d5da9","type":"Feature","geometry":{"type":"Polygon","coordinates":[[[144.9603473,-37.8085259],[144.9603256,-37.8084838],[144.9600716,-37.8085554],[144.9600935,-37.8086011],[144.9603473,-37.8085259]]]},"properties":{"sources":[{"property":"","dataset":"OpenStreetMap","license":"ODbL-1.0","record_id":"w737413994@2","update_time":"2020-02-05T21:54:09.000Z","confidence":null,"between":null,"provider":"osm","resource":"planet","version":"2026-08-02T00:00:00.000Z"}],"is_underground":false,"has_parts":false,"version":1}},
{"id":"052b652c-1c9f-4abd-8fd2-8fce3f5bd2cc","type":"Feature","geometry":{"type":"Polygon","coordinates":[[[144.9603869,-37.8086064],[144.9603653,-37.8085638],[144.9601305,-37.8086334],[144.9601532,-37.8086771],[144.9601781,-37.8086704],[144.9603869,-37.8086064]]]},"properties":{"sources":[{"property":"","dataset":"OpenStreetMap","license":"ODbL-1.0","record_id":"w737413996@2","update_time":"2024-03-26T08:52:02.000Z","confidence":null,"between":null,"provider":"osm","resource":"planet","version":"2026-08-02T00:00:00.000Z"}],"is_underground":false,"num_floors":3,"has_parts":false,"version":1}},
{"id":"924d185c-efe2-4561-a486-c84661f26c03","type":"Feature","geometry":{"type":"Polygon","coordinates":[[[144.9603653,-37.8085638],[144.9603473,-37.8085259],[144.9600935,-37.8086011],[144.9601115,-37.808639],[144.9601305,-37.8086334],[144.9603653,-37.8085638]]]},"properties":{"sources":[{"property":"","dataset":"OpenStreetMap","license":"ODbL-1.0","record_id":"w737413995@2","update_time":"2023-09-03T01:06:17.000Z","confidence":null,"between":null,"provider":"osm","resource":"planet","version":"2026-08-02T00:00:00.000Z"}],"is_underground":false,"subtype":"commercial","class":"retail","has_parts":false,"version":1}},
{"id":"3ca764ee-4199-456e-bda5-24e660de89b1","type":"Feature","geometry":{"type":"Polygon","coordinates":[[[144.9600471,-37.8086002],[144.9600167,-37.8085353],[144.9598828,-37.8085747],[144.9598922,-37.8085946],[144.9599134,-37.8086395],[144.9599487,-37.8086287],[144.9600471,-37.8086002]]]},"properties":{"sources":[{"property":"","dataset":"OpenStreetMap","license":"ODbL-1.0","record_id":"w737413992@1","update_time":"2019-10-21T21:01:31.000Z","confidence":null,"between":null,"provider":"osm","resource":"planet","version":"2026-08-02T00:00:00.000Z"}],"is_underground":false,"has_parts":false,"version":1}},
{"id":"c59a1649-14ad-41c9-857e-758781e25f36","type":"Feature","geometry":{"type":"Polygon","coordinates":[[[144.9600736,-37.8086575],[144.9600471,-37.8086002],[144.9599487,-37.8086287],[144.9599651,-37.8086639],[144.959932,-37.8086735],[144.9599422,-37.8086955],[144.9600736,-37.8086575]]]},"properties":{"sources":[{"property":"","dataset":"OpenStreetMap","license":"ODbL-1.0","record_id":"w737413993@1","update_time":"2019-10-21T21:01:31.000Z","confidence":null,"between":null,"provider":"osm","resource":"planet","version":"2026-08-02T00:00:00.000Z"}],"is_underground":false,"has_parts":false,"version":1}},
{"id":"bb226286-d792-4bba-a692-3aeeed47345e","type":"Feature","geometry":{"type":"Polygon","coordinates":[[[144.9601847,-37.8087416],[144.9601532,-37.8086771],[144.9600284,-37.8087152],[144.9600599,-37.8087797],[144.9601847,-37.8087416]]]},"properties":{"sources":[{"property":"","dataset":"OpenStreetMap","license":"ODbL-1.0","record_id":"w737413998@1","update_time":"2019-10-21T21:01:31.000Z","confidence":null,"between":null,"provider":"osm","resource":"planet","version":"2026-08-02T00:00:00.000Z"}],"is_underground":false,"has_parts":false,"version":1}},
{"id":"a3be64e3-f151-472c-b0a4-959a853f216f","type":"Feature","geometry":{"type":"Polygon","coordinates":[[[144.960438,-37.8087109],[144.9603869,-37.8086064],[144.9601781,-37.8086704],[144.9602149,-37.8087489],[144.9602657,-37.8087339],[144.9602765,-37.808756700000004],[144.960438,-37.8087109]]]},"properties":{"sources":[{"property":"","dataset":"OpenStreetMap","license":"ODbL-1.0","record_id":"w737413997@2","update_time":"2023-09-03T01:06:38.000Z","confidence":null,"between":null,"provider":"osm","resource":"planet","version":"2026-08-02T00:00:00.000Z"}],"is_underground":false,"subtype":"commercial","class":"retail","has_parts":false,"version":1}},
{"id":"26dd80a6-cd02-48f6-b4a8-fde97c800d38","type":"Feature","geometry":{"type":"Polygon","coordinates":[[[144.9612854,-37.8087835],[144.9611006,-37.8083652],[144.9606957,-37.808478],[144.9607168,-37.8085265],[144.96089,-37.8089002],[144.9612854,-37.8087835]]]},"properties":{"sources":[{"property":"","dataset":"OpenStreetMap","license":"ODbL-1.0","record_id":"w26564470@13","update_time":"2026-02-10T05:03:28.000Z","confidence":null,"between":null,"provider":"osm","resource":"planet","version":"2026-08-02T00:00:00.000Z"}],"level":-1,"is_underground":false,"has_parts":false,"version":2}},
{"id":"368bc8a4-b770-48c5-9de9-9a5146b5c183","type":"Feature","geometry":{"type":"Polygon","coordinates":[[[144.9612271,-37.8085584],[144.9614251,-37.8089947],[144.9615438,-37.8089611],[144.9614413,-37.8087356],[144.9613456,-37.8085248],[144.9612271,-37.8085584]]]},"properties":{"sources":[{"property":"","dataset":"OpenStreetMap","license":"ODbL-1.0","record_id":"w310023697@3","update_time":"2019-11-08T00:09:26.000Z","confidence":null,"between":null,"provider":"osm","resource":"planet","version":"2026-08-02T00:00:00.000Z"}],"is_underground":false,"has_parts":false,"version":1}},
{"id":"2bcf2930-586a-4540-a0d3-39a6fdbad00d","type":"Feature","geometry":{"type":"Polygon","coordinates":[[[144.9615735,-37.8086971],[144.9616789,-37.8089229],[144.9618579,-37.8088691],[144.9616689,-37.8084707],[144.961397,-37.8085506],[144.9614708,-37.808727],[144.9615735,-37.8086971]]]},"properties":{"sources":[{"property":"","dataset":"OpenStreetMap","license":"ODbL-1.0","record_id":"w310023695@2","update_time":"2020-09-18T06:31:45.000Z","confidence":null,"between":null,"provider":"osm","resource":"planet","version":"2026-08-02T00:00:00.000Z"}],"is_underground":false,"has_parts":false,"version":1}},
{"id":"a1f8c33d-97ea-4a8e-b85c-ec0a4084d099","type":"Feature","geometry":{"type":"Polygon","coordinates":[[[144.9611724,-37.8108868],[144.9614017,-37.8108184],[144.9613578,-37.8107218],[144.9611267,-37.8107875],[144.9611393,-37.8108174],[144.9611724,-37.8108868]]]},"properties":{"sources":[{"property":"","dataset":"OpenStreetMap","license":"ODbL-1.0","record_id":"w1200968320@1","update_time":"2023-08-22T00:32:58.000Z","confidence":null,"between":null,"provider":"osm","resource":"planet","version":"2026-08-02T00:00:00.000Z"}],"is_underground":false,"has_parts":false,"version":1}},
{"id":"551e5e7f-32cd-4269-8f5d-eeca0703be32","type":"Feature","geometry":{"type":"Polygon","coordinates":[[[144.9612712,-37.811081],[144.9614953,-37.8110158],[144.9614435,-37.8109032],[144.9612187,-37.8109685],[144.9612712,-37.811081]]]},"properties":{"names":{"primary":"Ithaca House","common":null,"rules":null},"sources":[{"property":"","dataset":"OpenStreetMap","license":"ODbL-1.0","record_id":"w1200968317@2","update_time":"2024-10-17T21:36:44.000Z","confidence":null,"between":null,"provider":"osm","resource":"planet","version":"2026-08-02T00:00:00.000Z"}],"is_underground":false,"has_parts":false,"version":1}},
{"id":"7ae917dc-3ca5-4da4-afc2-a5c6b6ff2eaf","type":"Feature","geometry":{"type":"Polygon","coordinates":[[[144.9615451,-37.8111238],[144.961321,-37.8111897],[144.9614029,-37.8113698],[144.9616066,-37.8113142],[144.9616208,-37.8112905],[144.9615451,-37.8111238]]]},"properties":{"sources":[{"property":"","dataset":"OpenStreetMap","license":"ODbL-1.0","record_id":"w306474037@4","update_time":"2023-08-22T00:32:58.000Z","confidence":null,"between":null,"provider":"osm","resource":"planet","version":"2026-08-02T00:00:00.000Z"}],"is_underground":false,"num_floors":3,"subtype":"commercial","class":"retail","has_parts":false,"version":1}},
{"id":"96f32e88-8240-4bc9-b3af-79b72609a700","type":"Feature","geometry":{"type":"Polygon","coordinates":[[[144.961321,-37.8111897],[144.9615451,-37.8111238],[144.9615209,-37.8110725],[144.9612968,-37.8111384],[144.961321,-37.8111897]]]},"properties":{"sources":[{"property":"","dataset":"OpenStreetMap","license":"ODbL-1.0","record_id":"w1200968315@1","update_time":"2023-08-22T00:32:58.000Z","confidence":null,"between":null,"provider":"osm","resource":"planet","version":"2026-08-02T00:00:00.000Z"}],"is_underground":false,"has_parts":false,"version":1}},
{"id":"6e9b28ea-0753-4189-a4ea-370cea7f75d6","type":"Feature","geometry":{"type":"Polygon","coordinates":[[[144.9612968,-37.8111384],[144.9615209,-37.8110725],[144.9614953,-37.8110158],[144.9612712,-37.811081],[144.9612968,-37.8111384]]]},"properties":{"sources":[{"property":"","dataset":"OpenStreetMap","license":"ODbL-1.0","record_id":"w1200968316@1","update_time":"2023-08-22T00:32:58.000Z","confidence":null,"between":null,"provider":"osm","resource":"planet","version":"2026-08-02T00:00:00.000Z"}],"is_underground":false,"has_parts":false,"version":1}},
{"id":"6e3307ae-64fa-49e8-9812-0f1df2f7f15a","type":"Feature","geometry":{"type":"Polygon","coordinates":[[[144.9608403,-37.8112392],[144.9607782,-37.8111043],[144.960619,-37.8111501],[144.9606231,-37.8111602],[144.9606934,-37.8113112],[144.960819,-37.8112748],[144.9608403,-37.8112392]]]},"properties":{"sources":[{"property":"","dataset":"OpenStreetMap","license":"ODbL-1.0","record_id":"w737711368@1","update_time":"2019-10-22T21:09:08.000Z","confidence":null,"between":null,"provider":"osm","resource":"planet","version":"2026-08-02T00:00:00.000Z"}],"is_underground":false,"has_parts":false,"version":1}},
{"id":"a418bc45-4be6-49ec-9634-10dfe015f0f1","type":"Feature","geometry":{"type":"Polygon","coordinates":[[[144.9610045,-37.8110286],[144.9611859,-37.811438],[144.9613354,-37.8113967],[144.9611541,-37.8109873],[144.9610739,-37.8110089],[144.9610045,-37.8110286]]]},"properties":{"sources":[{"property":"","dataset":"OpenStreetMap","license":"ODbL-1.0","record_id":"w332249955@2","update_time":"2023-08-22T00:32:58.000Z","confidence":null,"between":null,"provider":"osm","resource":"planet","version":"2026-08-02T00:00:00.000Z"}],"is_underground":false,"num_floors":3,"has_parts":false,"version":1}},
{"id":"87864bfe-1ec2-466f-9b14-0350f6c6c1a9","type":"Feature","geometry":{"type":"Polygon","coordinates":[[[144.9610045,-37.8110286],[144.9608291,-37.8110783],[144.9610119,-37.8114852],[144.9611859,-37.811438],[144.9610045,-37.8110286]]]},"properties":{"sources":[{"property":"","dataset":"OpenStreetMap","license":"ODbL-1.0","record_id":"w16361430@8","update_time":"2024-01-10T16:23:11.000Z","confidence":null,"between":null,"provider":"osm","resource":"planet","version":"2026-08-02T00:00:00.000Z"}],"height":132.0,"is_underground":false,"num_floors":40,"subtype":"residential","class":"apartments","has_parts":false,"version":1}},
{"id":"7b3e6b16-aef9-49f5-99d8-85ebc193f863","type":"Feature","geometry":{"type":"Polygon","coordinates":[[[144.9608676,-37.811298],[144.9606805,-37.8113521],[144.9607733,-37.8115521],[144.9609603,-37.811498],[144.9608676,-37.811298]]]},"properties":{"sources":[{"property":"","dataset":"OpenStreetMap","license":"ODbL-1.0","record_id":"w332249709@2","update_time":"2019-10-22T21:09:08.000Z","confidence":null,"between":null,"provider":"osm","resource":"planet","version":"2026-08-02T00:00:00.000Z"}],"is_underground":false,"num_floors":22,"subtype":"residential","class":"apartments","has_parts":false,"version":1}},
{"id":"a6b88e90-e383-49d7-864d-21b3743f3c9a","type":"Feature","geometry":{"type":"Polygon","coordinates":[[[144.9606934,-37.8113112],[144.9606231,-37.8111602],[144.9605574,-37.8111793],[144.9606264,-37.8113302],[144.9606934,-37.8113112]]]},"properties":{"sources":[{"property":"","dataset":"OpenStreetMap","license":"ODbL-1.0","record_id":"w737711369@1","update_time":"2019-10-22T21:09:08.000Z","confidence":null,"between":null,"provider":"osm","resource":"planet","version":"2026-08-02T00:00:00.000Z"}],"is_underground":false,"has_parts":false,"version":1}},
{"id":"4e7b2639-9f5f-4bed-9b5d-aa2bbaa24278","type":"Feature","geometry":{"type":"Polygon","coordinates":[[[144.9606264,-37.8113302],[144.9605574,-37.8111793],[144.9605536,-37.811171],[144.9604702,-37.8111953],[144.9605033,-37.8112676],[144.9605436,-37.811354],[144.9606264,-37.8113302]]]},"properties":{"sources":[{"property":"","dataset":"OpenStreetMap","license":"ODbL-1.0","record_id":"w737711370@1","update_time":"2019-10-22T21:09:08.000Z","confidence":null,"between":null,"provider":"osm","resource":"planet","version":"2026-08-02T00:00:00.000Z"}],"is_underground":false,"has_parts":false,"version":1}},
{"id":"531fe142-e986-4b73-913a-d591ded2a190","type":"Feature","geometry":{"type":"Polygon","coordinates":[[[144.9605033,-37.8112676],[144.9604702,-37.8111953],[144.9604023,-37.8112149],[144.9604058,-37.8112228],[144.960436,-37.8112872],[144.9605033,-37.8112676]]]},"properties":{"sources":[{"property":"","dataset":"OpenStreetMap","license":"ODbL-1.0","record_id":"w737711371@1","update_time":"2019-10-22T21:09:08.000Z","confidence":null,"between":null,"provider":"osm","resource":"planet","version":"2026-08-02T00:00:00.000Z"}],"is_underground":false,"has_parts":false,"version":1}},
{"id":"c26a8abd-7aa8-4ad3-9cc5-5b9db936187c","type":"Feature","geometry":{"type":"Polygon","coordinates":[[[144.960436,-37.8112872],[144.9604058,-37.8112228],[144.9603368,-37.811243],[144.9603669,-37.8113073],[144.960436,-37.8112872]]]},"properties":{"sources":[{"property":"","dataset":"OpenStreetMap","license":"ODbL-1.0","record_id":"w737711372@2","update_time":"2020-09-16T14:53:11.000Z","confidence":null,"between":null,"provider":"osm","resource":"planet","version":"2026-08-02T00:00:00.000Z"}],"is_underground":false,"has_parts":false,"version":1}},
{"id":"f1782b00-1ee4-4d70-be2f-7b3e07f055eb","type":"Feature","geometry":{"type":"Polygon","coordinates":[[[144.9603669,-37.8113073],[144.9603368,-37.811243],[144.9603338,-37.8112361],[144.9601794,-37.811283],[144.9602525,-37.8114383],[144.9604082,-37.8113941],[144.9603669,-37.8113073]]]},"properties":{"sources":[{"property":"","dataset":"OpenStreetMap","license":"ODbL-1.0","record_id":"w737711374@1","update_time":"2020-09-16T14:53:11.000Z","confidence":null,"between":null,"provider":"osm","resource":"planet","version":"2026-08-02T00:00:00.000Z"}],"is_underground":false,"has_parts":false,"version":1}},
{"id":"bc23949b-d8b2-44e0-9ee0-2c88422a2cf8","type":"Feature","geometry":{"type":"Polygon","coordinates":[[[144.9604082,-37.8113941],[144.9605436,-37.811354],[144.9605033,-37.8112676],[144.960436,-37.8112872],[144.9603669,-37.8113073],[144.9604082,-37.8113941]]]},"properties":{"sources":[{"property":"","dataset":"OpenStreetMap","license":"ODbL-1.0","record_id":"w737711373@1","update_time":"2019-10-22T21:09:08.000Z","confidence":null,"between":null,"provider":"osm","resource":"planet","version":"2026-08-02T00:00:00.000Z"}],"is_underground":false,"has_parts":false,"version":1}},
{"id":"d4d21b11-f1da-46df-86f9-b420f5c496d0","type":"Feature","geometry":{"type":"Polygon","coordinates":[[[144.9602525,-37.8114383],[144.9601794,-37.811283],[144.9600326,-37.8113269],[144.960108,-37.8114819],[144.9602525,-37.8114383]]]},"properties":{"sources":[{"property":"","dataset":"OpenStreetMap","license":"ODbL-1.0","record_id":"w737711375@1","update_time":"2019-10-22T21:09:08.000Z","confidence":null,"between":null,"provider":"osm","resource":"planet","version":"2026-08-02T00:00:00.000Z"}],"is_underground":false,"has_parts":false,"version":1}},
{"id":"40b3f5ce-18dd-4362-a558-fe403ff19ced","type":"Feature","geometry":{"type":"Polygon","coordinates":[[[144.960108,-37.8114819],[144.9600326,-37.8113269],[144.9599578,-37.8113481],[144.96003,-37.8115041],[144.960108,-37.8114819]]]},"properties":{"sources":[{"property":"","dataset":"OpenStreetMap","license":"ODbL-1.0","record_id":"w737711376@1","update_time":"2019-10-22T21:09:08.000Z","confidence":null,"between":null,"provider":"osm","resource":"planet","version":"2026-08-02T00:00:00.000Z"}],"is_underground":false,"has_parts":false,"version":1}},
{"id":"f053e2b1-546c-46fe-904d-dc7f7658693c","type":"Feature","geometry":{"type":"Polygon","coordinates":[[[144.96003,-37.8115041],[144.9599578,-37.8113481],[144.9598836,-37.8113688],[144.9599563,-37.8115261],[144.96003,-37.8115041]]]},"properties":{"sources":[{"property":"","dataset":"OpenStreetMap","license":"ODbL-1.0","record_id":"w737711377@1","update_time":"2019-10-22T21:09:08.000Z","confidence":null,"between":null,"provider":"osm","resource":"planet","version":"2026-08-02T00:00:00.000Z"}],"is_underground":false,"has_parts":false,"version":1}},
{"id":"8bd0cbc0-37f4-4cce-a21c-5389d5cd70d4","type":"Feature","geometry":{"type":"Polygon","coordinates":[[[144.9599408,-37.8111232],[144.9598588,-37.8111472],[144.9599343,-37.8113089],[144.9600168,-37.8112844],[144.9599408,-37.8111232]]]},"properties":{"sources":[{"property":"","dataset":"OpenStreetMap","license":"ODbL-1.0","record_id":"w737711359@1","update_time":"2019-10-22T21:09:08.000Z","confidence":null,"between":null,"provider":"osm","resource":"planet","version":"2026-08-02T00:00:00.000Z"}],"is_underground":false,"has_parts":false,"version":1}},
{"id":"85fcb02f-0c67-4c1d-bed4-7582e6359839","type":"Feature","geometry":{"type":"Polygon","coordinates":[[[144.9600147,-37.8111016],[144.9599408,-37.8111232],[144.9600168,-37.8112844],[144.9600914,-37.8112611],[144.9600147,-37.8111016]]]},"properties":{"sources":[{"property":"","dataset":"OpenStreetMap","license":"ODbL-1.0","record_id":"w737711360@1","update_time":"2019-10-22T21:09:08.000Z","confidence":null,"between":null,"provider":"osm","resource":"planet","version":"2026-08-02T00:00:00.000Z"}],"is_underground":false,"has_parts":false,"version":1}},
{"id":"0a4b9f3c-847b-43ab-91b3-5aceb73a43ce","type":"Feature","geometry":{"type":"Polygon","coordinates":[[[144.9601621,-37.8110576],[144.9600147,-37.8111016],[144.9600914,-37.8112611],[144.9602383,-37.8112172],[144.9601621,-37.8110576]]]},"properties":{"sources":[{"property":"","dataset":"OpenStreetMap","license":"ODbL-1.0","record_id":"w737711361@1","update_time":"2019-10-22T21:09:08.000Z","confidence":null,"between":null,"provider":"osm","resource":"planet","version":"2026-08-02T00:00:00.000Z"}],"is_underground":false,"has_parts":false,"version":1}},
{"id":"71c85fb2-b0c5-4dd4-b71d-b08bdc091579","type":"Feature","geometry":{"type":"Polygon","coordinates":[[[144.960424,-37.8110721],[144.9602743,-37.811116],[144.960312,-37.8111962],[144.9604617,-37.8111523],[144.960424,-37.8110721]]]},"properties":{"sources":[{"property":"","dataset":"OpenStreetMap","license":"ODbL-1.0","record_id":"w737711363@1","update_time":"2019-10-22T21:09:08.000Z","confidence":null,"between":null,"provider":"osm","resource":"planet","version":"2026-08-02T00:00:00.000Z"}],"is_underground":false,"has_parts":false,"version":1}},
{"id":"56b82ef6-71fb-405d-b1f7-962aa18b07f2","type":"Feature","geometry":{"type":"Polygon","coordinates":[[[144.9602363,-37.8110354],[144.9601621,-37.8110576],[144.9602383,-37.8112172],[144.960312,-37.8111962],[144.9602743,-37.811116],[144.9602363,-37.8110354]]]},"properties":{"sources":[{"property":"","dataset":"OpenStreetMap","license":"ODbL-1.0","record_id":"w737711362@1","update_time":"2019-10-22T21:09:08.000Z","confidence":null,"between":null,"provider":"osm","resource":"planet","version":"2026-08-02T00:00:00.000Z"}],"is_underground":false,"has_parts":false,"version":1}},
{"id":"19cc5df4-fb34-474e-830d-a76d0062ed60","type":"Feature","geometry":{"type":"Polygon","coordinates":[[[144.9604269,-37.8109772],[144.9603856,-37.810991],[144.96042,-37.8110635],[144.960424,-37.8110721],[144.9604617,-37.8111523],[144.9604991,-37.8111404],[144.9604388,-37.8110167],[144.9604453,-37.8110147],[144.9604269,-37.8109772]]]},"properties":{"sources":[{"property":"","dataset":"OpenStreetMap","license":"ODbL-1.0","record_id":"w737711365@1","update_time":"2019-10-22T21:09:08.000Z","confidence":null,"between":null,"provider":"osm","resource":"planet","version":"2026-08-02T00:00:00.000Z"}],"is_underground":false,"has_parts":false,"version":1}},
{"id":"a326abc2-b964-40d6-9a6f-11337df660de","type":"Feature","geometry":{"type":"Polygon","coordinates":[[[144.9605278,-37.8109462],[144.9604269,-37.8109772],[144.9604453,-37.8110147],[144.9604388,-37.8110167],[144.9604991,-37.8111404],[144.9606031,-37.8111086],[144.9605621,-37.8110202],[144.9605164,-37.811034],[144.9605061,-37.8110129],[144.9605522,-37.8109989],[144.9605278,-37.8109462]]]},"properties":{"sources":[{"property":"","dataset":"OpenStreetMap","license":"ODbL-1.0","record_id":"w737711366@1","update_time":"2019-10-22T21:09:08.000Z","confidence":null,"between":null,"provider":"osm","resource":"planet","version":"2026-08-02T00:00:00.000Z"}],"is_underground":false,"has_parts":false,"version":1}},
{"id":"f03f0f5d-776d-4ab7-85f9-40e46478544c","type":"Feature","geometry":{"type":"Polygon","coordinates":[[[144.9603856,-37.810991],[144.9602575,-37.811029],[144.9602861,-37.811089],[144.9603284,-37.8110765],[144.9603343,-37.8110889],[144.96042,-37.8110635],[144.9603856,-37.810991]]]},"properties":{"sources":[{"property":"","dataset":"OpenStreetMap","license":"ODbL-1.0","record_id":"w737711364@1","update_time":"2019-10-22T21:09:08.000Z","confidence":null,"between":null,"provider":"osm","resource":"planet","version":"2026-08-02T00:00:00.000Z"}],"is_underground":false,"has_parts":false,"version":1}},
{"id":"76e20319-5eef-48a6-8233-9c2dc0f4538b","type":"Feature","geometry":{"type":"Polygon","coordinates":[[[144.9599431,-37.8108796],[144.9598352,-37.8109108],[144.9599193,-37.8110919],[144.9600758,-37.8110466],[144.9599917,-37.8108655],[144.9599431,-37.8108796]]]},"properties":{"names":{"primary":"Carlson Apartments","common":null,"rules":null},"sources":[{"property":"","dataset":"OpenStreetMap","license":"ODbL-1.0","record_id":"w737711356@3","update_time":"2025-03-04T09:04:08.000Z","confidence":null,"between":null,"provider":"osm","resource":"planet","version":"2026-08-02T00:00:00.000Z"}],"is_underground":false,"has_parts":false,"version":1}},
{"id":"246c0a91-a733-426d-a973-18394ed72d7a","type":"Feature","geometry":{"type":"Polygon","coordinates":[[[144.9602491,-37.8107909],[144.9599917,-37.8108655],[144.9600758,-37.8110466],[144.9603333,-37.8109737],[144.9602491,-37.8107909]]]},"properties":{"sources":[{"property":"","dataset":"OpenStreetMap","license":"ODbL-1.0","record_id":"w306474043@3","update_time":"2025-03-04T09:04:08.000Z","confidence":null,"between":null,"provider":"osm","resource":"planet","version":"2026-08-02T00:00:00.000Z"}],"is_underground":false,"has_parts":false,"version":1}},
{"id":"2f041433-8706-42a3-8ca6-a3273f0bcf2d","type":"Feature","geometry":{"type":"Polygon","coordinates":[[[144.9603458,-37.8107631],[144.9602491,-37.8107909],[144.9603333,-37.8109737],[144.9604299,-37.810946],[144.9603458,-37.8107631]]]},"properties":{"sources":[{"property":"","dataset":"OpenStreetMap","license":"ODbL-1.0","record_id":"w306474064@1","update_time":"2019-10-22T21:09:08.000Z","confidence":null,"between":null,"provider":"osm","resource":"planet","version":"2026-08-02T00:00:00.000Z"}],"is_underground":false,"has_parts":false,"version":1}},
{"id":"77c2012d-4136-426d-b456-1a068672e74f","type":"Feature","geometry":{"type":"Polygon","coordinates":[[[144.9605903,-37.8106933],[144.9603458,-37.8107631],[144.9604299,-37.810946],[144.9606747,-37.8108742],[144.9605903,-37.8106933]]]},"properties":{"sources":[{"property":"","dataset":"OpenStreetMap","license":"ODbL-1.0","record_id":"w306474055@2","update_time":"2025-06-10T00:53:27.000Z","confidence":null,"between":null,"provider":"osm","resource":"planet","version":"2026-08-02T00:00:00.000Z"}],"height":172.0,"is_underground":false,"num_floors":45,"has_parts":false,"version":2}},
{"id":"39e4b4d8-6c36-490f-893e-9a896c73d1cd","type":"Feature","geometry":{"type":"Polygon","coordinates":[[[144.9606841,-37.8109009],[144.9605278,-37.8109462],[144.9605522,-37.8109989],[144.9605621,-37.8110202],[144.9606031,-37.8111086],[144.9607595,-37.8110633],[144.9606841,-37.8109009]]]},"properties":{"sources":[{"property":"","dataset":"OpenStreetMap","license":"ODbL-1.0","record_id":"w737711367@1","update_time":"2019-10-22T21:09:08.000Z","confidence":null,"between":null,"provider":"osm","resource":"planet","version":"2026-08-02T00:00:00.000Z"}],"is_underground":false,"has_parts":false,"version":1}},
{"id":"4a385096-d8b9-4cf5-a6db-ce03bd4417e6","type":"Feature","geometry":{"type":"Polygon","coordinates":[[[144.9610739,-37.8110089],[144.9610048,-37.8108567],[144.96076,-37.8109261],[144.9608291,-37.8110783],[144.9610045,-37.8110286],[144.9610739,-37.8110089]]]},"properties":{"sources":[{"property":"","dataset":"OpenStreetMap","license":"ODbL-1.0","record_id":"w1200968319@1","update_time":"2023-08-22T00:32:58.000Z","confidence":null,"between":null,"provider":"osm","resource":"planet","version":"2026-08-02T00:00:00.000Z"}],"is_underground":false,"has_parts":false,"version":1}},
{"id":"349fb6fd-de2c-49d6-8678-11addf437ebf","type":"Feature","geometry":{"type":"Polygon","coordinates":[[[144.9612187,-37.8109685],[144.9614435,-37.8109032],[144.9614017,-37.8108184],[144.9611724,-37.8108868],[144.9611393,-37.8108174],[144.9610048,-37.8108567],[144.9610739,-37.8110089],[144.9611541,-37.8109873],[144.9612187,-37.8109685]]]},"properties":{"sources":[{"property":"","dataset":"OpenStreetMap","license":"ODbL-1.0","record_id":"w1200968318@1","update_time":"2023-08-22T00:32:58.000Z","confidence":null,"between":null,"provider":"osm","resource":"planet","version":"2026-08-02T00:00:00.000Z"}],"is_underground":false,"has_parts":false,"version":1}},
{"id":"9221a032-73dd-494d-aba3-94db70013333","type":"Feature","geometry":{"type":"Polygon","coordinates":[[[144.9607432,-37.8106347],[144.96065720000001,-37.8106594],[144.9607616,-37.8108861],[144.9608475,-37.8108614],[144.9607432,-37.8106347]]]},"properties":{"sources":[{"property":"","dataset":"OpenStreetMap","license":"ODbL-1.0","record_id":"w306474041@1","update_time":"2019-08-14T15:18:46.000Z","confidence":null,"between":null,"provider":"osm","resource":"planet","version":"2026-08-02T00:00:00.000Z"}],"is_underground":false,"has_parts":false,"version":1}},
{"id":"0cce7975-27b9-4246-a349-824f0fd70df4","type":"Feature","geometry":{"type":"Polygon","coordinates":[[[144.9609873,-37.8105646],[144.9607432,-37.8106347],[144.9608478,-37.810862],[144.9610919,-37.8107918],[144.9609873,-37.8105646]]]},"properties":{"names":{"primary":"Eporo Tower","common":null,"rules":null},"sources":[{"property":"","dataset":"OpenStreetMap","license":"ODbL-1.0","record_id":"w306474062@2","update_time":"2023-12-12T10:09:46.000Z","confidence":null,"between":null,"provider":"osm","resource":"planet","version":"2026-08-02T00:00:00.000Z"}],"is_underground":false,"has_parts":false,"version":1}},
{"id":"926ccc07-8dad-4ac7-bf85-b48553afc4da","type":"Feature","geometry":{"type":"Polygon","coordinates":[[[144.9611267,-37.8107875],[144.9613578,-37.8107218],[144.9613325,-37.8106695],[144.9611024,-37.8107371],[144.9611267,-37.8107875]]]},"properties":{"sources":[{"property":"","dataset":"OpenStreetMap","license":"ODbL-1.0","record_id":"w1200968321@1","update_time":"2023-08-22T00:32:58.000Z","confidence":null,"between":null,"provider":"osm","resource":"planet","version":"2026-08-02T00:00:00.000Z"}],"is_underground":false,"has_parts":false,"version":1}},
{"id":"2b382a6b-6462-4b64-b229-9e7eb6340349","type":"Feature","geometry":{"type":"Polygon","coordinates":[[[144.9611024,-37.8107371],[144.9613325,-37.8106695],[144.9613093,-37.8106181],[144.9610786,-37.8106844],[144.9611024,-37.8107371]]]},"properties":{"sources":[{"property":"","dataset":"OpenStreetMap","license":"ODbL-1.0","record_id":"w1200968322@1","update_time":"2023-08-22T00:32:58.000Z","confidence":null,"between":null,"provider":"osm","resource":"planet","version":"2026-08-02T00:00:00.000Z"}],"is_underground":false,"has_parts":false,"version":1}},
{"id":"c836caab-e8e2-452b-ae46-bc68791dce2b","type":"Feature","geometry":{"type":"Polygon","coordinates":[[[144.9610786,-37.8106844],[144.9613093,-37.8106181],[144.9612548,-37.8104997],[144.9610241,-37.810566],[144.9610786,-37.8106844]]]},"properties":{"sources":[{"property":"","dataset":"OpenStreetMap","license":"ODbL-1.0","record_id":"w1200968323@1","update_time":"2023-08-22T00:32:58.000Z","confidence":null,"between":null,"provider":"osm","resource":"planet","version":"2026-08-02T00:00:00.000Z"}],"is_underground":false,"has_parts":false,"version":1}},
{"id":"e7e90f3e-640a-460d-a99f-ebb8a9d9260a","type":"Feature","geometry":{"type":"Polygon","coordinates":[[[144.9593783,-37.8105709],[144.9591421,-37.8106388],[144.9592092,-37.810782],[144.9594442,-37.8107129],[144.9593783,-37.8105709]]]},"properties":{"names":{"primary":"Centro","common":null,"rules":null},"sources":[{"property":"","dataset":"OpenStreetMap","license":"ODbL-1.0","record_id":"w306474063@4","update_time":"2024-09-14T00:26:43.000Z","confidence":null,"between":null,"provider":"osm","resource":"planet","version":"2026-08-02T00:00:00.000Z"}],"is_underground":false,"num_floors":10,"roof_shape":"flat","has_parts":false,"version":1}},
{"id":"836f9a1a-8282-4a27-ad90-6cca4a3d11da","type":"Feature","geometry":{"type":"Polygon","coordinates":[[[144.9590401,-37.8108314],[144.9592092,-37.810782],[144.9591421,-37.8106388],[144.958973,-37.8106883],[144.9590401,-37.8108314]]]},"properties":{"sources":[{"property":"","dataset":"OpenStreetMap","license":"ODbL-1.0","record_id":"w307086637@1","update_time":"2014-10-11T00:40:09.000Z","confidence":null,"between":null,"provider":"osm","resource":"planet","version":"2026-08-02T00:00:00.000Z"}],"is_underground":false,"num_floors":4,"has_parts":false,"version":1}},
{"id":"77520ebb-85fb-4607-a2e2-8e5f8d2af838","type":"Feature","geometry":{"type":"Polygon","coordinates":[[[144.9584743,-37.8105117],[144.9582615,-37.8105728],[144.9584671,-37.8110216],[144.9586774,-37.810959],[144.9584743,-37.8105117]]]},"properties":{"sources":[{"property":"","dataset":"OpenStreetMap","license":"ODbL-1.0","record_id":"w306474056@5","update_time":"2023-12-12T10:22:59.000Z","confidence":null,"between":null,"provider":"osm","resource":"planet","version":"2026-08-02T00:00:00.000Z"}],"is_underground":false,"num_floors":7,"facade_material":"glass","has_parts":false,"version":1}},
{"id":"c35b74f2-2ad9-4a7e-a400-acd1ff54bab9","type":"Feature","geometry":{"type":"Polygon","coordinates":[[[144.9587881,-37.8112178],[144.958376,-37.8113345],[144.958533,-37.8116738],[144.9589463,-37.8115611],[144.9587881,-37.8112178]]]},"properties":{"names":{"primary":"Republic Tower","common":null,"rules":null},"sources":[{"property":"","dataset":"OpenStreetMap","license":"ODbL-1.0","record_id":"w67472970@4","update_time":"2018-12-28T05:05:07.000Z","confidence":null,"between":null,"provider":"osm","resource":"planet","version":"2026-08-02T00:00:00.000Z"}],"is_underground":false,"subtype":"residential","class":"residential","has_parts":true,"version":1}},
{"id":"828ab6e9-2f35-438f-aa6e-c84dcc89c2fd","type":"Feature","geometry":{"type":"Polygon","coordinates":[[[144.959121,-37.811143],[144.9591613,-37.8112284],[144.9594194,-37.8111537],[144.9593703,-37.8110463],[144.9591356,-37.8111138],[144.959121,-37.811143]]]},"properties":{"sources":[{"property":"","dataset":"OpenStreetMap","license":"ODbL-1.0","record_id":"w737711384@1","update_time":"2019-10-22T21:09:08.000Z","confidence":null,"between":null,"provider":"osm","resource":"planet","version":"2026-08-02T00:00:00.000Z"}],"is_underground":false,"has_parts":false,"version":1}},
{"id":"d3c5e4c4-edf1-472a-bf99-70f4bf9ed0a4","type":"Feature","geometry":{"type":"Polygon","coordinates":[[[144.9595436,-37.8109997],[144.9594158,-37.8110364],[144.9595142,-37.8112428],[144.95964,-37.8112053],[144.9596255,-37.8111766],[144.9595436,-37.8109997]]]},"properties":{"sources":[{"property":"","dataset":"OpenStreetMap","license":"ODbL-1.0","record_id":"w332249321@4","update_time":"2023-12-12T10:22:59.000Z","confidence":null,"between":null,"provider":"osm","resource":"planet","version":"2026-08-02T00:00:00.000Z"}],"is_underground":false,"has_parts":false,"version":1}},
{"id":"a867e4e5-7ad8-479a-9cbe-b967d42ac4d7","type":"Feature","geometry":{"type":"Polygon","coordinates":[[[144.9596468,-37.8109683],[144.9595436,-37.8109997],[144.9596255,-37.8111766],[144.9597318,-37.8111451],[144.9596468,-37.8109683]]]},"properties":{"sources":[{"property":"","dataset":"OpenStreetMap","license":"ODbL-1.0","record_id":"w306474044@1","update_time":"2019-10-22T21:09:08.000Z","confidence":null,"between":null,"provider":"osm","resource":"planet","version":"2026-08-02T00:00:00.000Z"}],"is_underground":false,"has_parts":false,"version":1}},
{"id":"4f62180a-d8e4-4da6-92f6-156bbf240a97","type":"Feature","geometry":{"type":"Polygon","coordinates":[[[144.9598352,-37.8109108],[144.9596468,-37.8109683],[144.9597318,-37.8111451],[144.9599193,-37.8110919],[144.9598352,-37.8109108]]]},"properties":{"names":{"primary":"Latrobe Tower","common":null,"rules":null},"sources":[{"property":"","dataset":"OpenStreetMap","license":"ODbL-1.0","record_id":"w737711355@3","update_time":"2024-04-27T06:06:12.000Z","confidence":null,"between":null,"provider":"osm","resource":"planet","version":"2026-08-02T00:00:00.000Z"}],"is_underground":false,"has_parts":false,"version":1}},
{"id":"74a82d60-43ae-4833-94fb-b98e5ed98337","type":"Feature","geometry":{"type":"Polygon","coordinates":[[[144.9598588,-37.8111472],[144.9597892,-37.8111679],[144.9598623,-37.8113301],[144.9599343,-37.8113089],[144.9598588,-37.8111472]]]},"properties":{"sources":[{"property":"","dataset":"OpenStreetMap","license":"ODbL-1.0","record_id":"w737711358@1","update_time":"2019-10-22T21:09:08.000Z","confidence":null,"between":null,"provider":"osm","resource":"planet","version":"2026-08-02T00:00:00.000Z"}],"is_underground":false,"has_parts":false,"version":1}},
{"id":"4c2573c5-6ad2-4381-b1b7-b712c192f260","type":"Feature","geometry":{"type":"Polygon","coordinates":[[[144.9597892,-37.8111679],[144.9596711,-37.8112012],[144.9597451,-37.8113631],[144.9598623,-37.8113301],[144.9597892,-37.8111679]]]},"properties":{"sources":[{"property":"","dataset":"OpenStreetMap","license":"ODbL-1.0","record_id":"w737711357@1","update_time":"2019-10-22T21:09:08.000Z","confidence":null,"between":null,"provider":"osm","resource":"planet","version":"2026-08-02T00:00:00.000Z"}],"is_underground":false,"has_parts":false,"version":1}},
{"id":"438a50a2-c152-415c-8248-6b30b8b926c9","type":"Feature","geometry":{"type":"Polygon","coordinates":[[[144.9591613,-37.8112284],[144.9592217,-37.8113586],[144.9594798,-37.8112839],[144.9594194,-37.8111537],[144.9591613,-37.8112284]]]},"properties":{"sources":[{"property":"","dataset":"OpenStreetMap","license":"ODbL-1.0","record_id":"w737711383@1","update_time":"2019-10-22T21:09:08.000Z","confidence":null,"between":null,"provider":"osm","resource":"planet","version":"2026-08-02T00:00:00.000Z"}],"is_underground":false,"has_parts":false,"version":1}},
{"id":"d4359c1a-d7ec-4f04-9552-2bf83e4376f3","type":"Feature","geometry":{"type":"Polygon","coordinates":[[[144.9592217,-37.8113586],[144.9592802,-37.8114858],[144.9597066,-37.8113618],[144.9596476,-37.8112352],[144.9594798,-37.8112839],[144.9592217,-37.8113586]]]},"properties":{"sources":[{"property":"","dataset":"OpenStreetMap","license":"ODbL-1.0","record_id":"w332249318@2","update_time":"2019-10-22T21:09:08.000Z","confidence":null,"between":null,"provider":"osm","resource":"planet","version":"2026-08-02T00:00:00.000Z"}],"is_underground":false,"num_floors":3,"has_parts":false,"version":1}},
{"id":"b34b5704-ced2-48cf-872b-d3dde39299ce","type":"Feature","geometry":{"type":"Polygon","coordinates":[[[144.9599563,-37.8115261],[144.9598836,-37.8113688],[144.9597651,-37.8114031],[144.9598378,-37.8115603],[144.9599563,-37.8115261]]]},"properties":{"sources":[{"property":"","dataset":"OpenStreetMap","license":"ODbL-1.0","record_id":"w737711378@1","update_time":"2019-10-22T21:09:08.000Z","confidence":null,"between":null,"provider":"osm","resource":"planet","version":"2026-08-02T00:00:00.000Z"}],"is_underground":false,"has_parts":false,"version":1}},
{"id":"910ea623-e49a-4f18-beea-4a6b3bb2f20b","type":"Feature","geometry":{"type":"Polygon","coordinates":[[[144.9597112,-37.8114147],[144.9595471,-37.8114629],[144.9595854,-37.8115431],[144.9596065,-37.811590700000004],[144.9596291,-37.8116377],[144.9596379,-37.811656],[144.9597595,-37.8116203],[144.9597873,-37.8116796],[144.9598478,-37.8116618],[144.9598197,-37.8116013],[144.9597638,-37.811481],[144.959745,-37.8114865],[144.9597112,-37.8114147]]]},"properties":{"sources":[{"property":"","dataset":"OpenStreetMap","license":"ODbL-1.0","record_id":"w306474051@3","update_time":"2019-10-22T21:09:08.000Z","confidence":null,"between":null,"provider":"osm","resource":"planet","version":"2026-08-02T00:00:00.000Z"}],"is_underground":false,"has_parts":false,"version":1}},
{"id":"0e7859be-286d-4469-ac51-d382c4f767e6","type":"Feature","geometry":{"type":"Polygon","coordinates":[[[144.958376,-37.8113345],[144.957735,-37.811521],[144.9579147,-37.8119173],[144.9585584,-37.8117287],[144.958533,-37.8116738],[144.958376,-37.8113345]]]},"properties":{"names":{"primary":"Royal Mint Centre","common":null,"rules":null},"sources":[{"property":"","dataset":"OpenStreetMap","license":"ODbL-1.0","record_id":"w67472809@4","update_time":"2025-03-04T09:04:08.000Z","confidence":null,"between":null,"provider":"osm","resource":"planet","version":"2026-08-02T00:00:00.000Z"},{"property":"/properties/height","dataset":"Microsoft ML Buildings","license":"ODbL-1.0","record_id":null,"update_time":"2000-01-01T00:00:00.000Z","confidence":null,"between":null,"provider":"microsoft","resource":"ml_buildings","version":"2025-02-25"}],"height":16.841445922851562,"is_underground":false,"num_floors":6,"has_parts":false,"version":2}},
{"id":"332eb222-cebb-4a43-bcb1-c497017aa6c2","type":"Feature","geometry":{"type":"Polygon","coordinates":[[[144.9604942,-37.8114044],[144.9604212,-37.8114262],[144.9605179,-37.8116286],[144.9605909,-37.8116068],[144.9604942,-37.8114044]]]},"properties":{"sources":[{"property":"","dataset":"OpenStreetMap","license":"ODbL-1.0","record_id":"w306474040@2","update_time":"2019-10-22T21:09:08.000Z","confidence":null,"between":null,"provider":"osm","resource":"planet","version":"2026-08-02T00:00:00.000Z"}],"is_underground":false,"num_floors":14,"has_parts":false,"version":1}},
{"id":"680d638e-b0bc-4a62-8428-114453e3a793","type":"Feature","geometry":{"type":"Polygon","coordinates":[[[144.9605179,-37.8116286],[144.9604212,-37.8114262],[144.9600456,-37.8115373],[144.9600537,-37.8115566],[144.9601375,-37.8117403],[144.9605179,-37.8116286]]]},"properties":{"sources":[{"property":"","dataset":"OpenStreetMap","license":"ODbL-1.0","record_id":"w737711379@1","update_time":"2019-10-22T21:09:08.000Z","confidence":null,"between":null,"provider":"osm","resource":"planet","version":"2026-08-02T00:00:00.000Z"}],"is_underground":false,"has_parts":false,"version":1}},
{"id":"2843f6ea-cf9e-49f0-ac2c-62646eeda40e","type":"Feature","geometry":{"type":"Polygon","coordinates":[[[144.9606805,-37.8113521],[144.9604942,-37.8114044],[144.9605909,-37.8116068],[144.9607733,-37.8115521],[144.9606805,-37.8113521]]]},"properties":{"sources":[{"property":"","dataset":"OpenStreetMap","license":"ODbL-1.0","record_id":"w332249707@1","update_time":"2019-10-22T21:09:08.000Z","confidence":null,"between":null,"provider":"osm","resource":"planet","version":"2026-08-02T00:00:00.000Z"}],"is_underground":false,"num_floors":3,"has_parts":false,"version":1}},
{"id":"0f55bdfb-b31c-4397-bffd-e6c12e0fe845","type":"Feature","geometry":{"type":"Polygon","coordinates":[[[144.9613607,-37.8114943],[144.9611179,-37.8115645],[144.9611985,-37.8117405],[144.9612254,-37.8117993],[144.9613287,-37.8117698],[144.9613558,-37.811762],[144.9614063,-37.8118724],[144.961519,-37.8118402],[144.9613607,-37.8114943]]]},"properties":{"sources":[{"property":"","dataset":"OpenStreetMap","license":"ODbL-1.0","record_id":"w332249956@2","update_time":"2023-02-04T11:53:10.000Z","confidence":null,"between":null,"provider":"osm","resource":"planet","version":"2026-08-02T00:00:00.000Z"}],"is_underground":false,"has_parts":false,"version":1}},
{"id":"e743c6d2-303e-4901-a870-62cd08c3dc34","type":"Feature","geometry":{"type":"Polygon","coordinates":[[[144.961464,-37.8115392],[144.9617018,-37.8114737],[144.9616682,-37.8113975],[144.9614304,-37.8114631],[144.961464,-37.8115392]]]},"properties":{"sources":[{"property":"","dataset":"OpenStreetMap","license":"ODbL-1.0","record_id":"w1200968314@1","update_time":"2023-08-22T00:32:58.000Z","confidence":null,"between":null,"provider":"osm","resource":"planet","version":"2026-08-02T00:00:00.000Z"}],"is_underground":false,"has_parts":false,"version":1}},
{"id":"873588f8-e5ae-46ed-a853-0d74da117677","type":"Feature","geometry":{"type":"Polygon","coordinates":[[[144.9615017,-37.8116258],[144.96174,-37.8115592],[144.9617018,-37.8114737],[144.961464,-37.8115392],[144.9615017,-37.8116258]]]},"properties":{"sources":[{"property":"","dataset":"OpenStreetMap","license":"ODbL-1.0","record_id":"w1200968313@1","update_time":"2023-08-22T00:32:58.000Z","confidence":null,"between":null,"provider":"osm","resource":"planet","version":"2026-08-02T00:00:00.000Z"}],"is_underground":false,"has_parts":false,"version":1}}]}