{"type": "FeatureCollection", "features": [
{"id":"e8fac0ba-3940-4edf-acc8-5d40d1c4c2f7","type":"Feature","geometry":{"type":"Polygon","coordinates":[[[147.3304962,-42.8823821],[147.3308046,-42.882142],[147.330742,-42.8820976],[147.3306439,-42.8820303],[147.3306187,-42.8820138],[147.3305483,-42.8819652],[147.3307032,-42.8818439],[147.3302149,-42.8815022],[147.3299782,-42.8816838],[147.33006,-42.8817928],[147.3301995,-42.8819153],[147.3300131,-42.8820564],[147.3301229,-42.88213],[147.3301407,-42.8821162],[147.3303807,-42.8822816],[147.3303665,-42.8822927],[147.3304962,-42.8823821]]]},"properties":{"sources":[{"property":"","dataset":"OpenStreetMap","license":"ODbL-1.0","record_id":"w205290139@8","update_time":"2024-08-05T11:57:43.000Z","confidence":null,"between":null,"provider":"osm","resource":"planet","version":"2026-08-02T00:00:00.000Z"}],"is_underground":false,"num_floors":2,"subtype":"commercial","class":"retail","has_parts":true,"version":1}},
{"id":"f3b773a1-aa4c-4f71-a21f-81711c901277","type":"Feature","geometry":{"type":"Polygon","coordinates":[[[147.3298744,-42.8819363],[147.33006,-42.8817928],[147.3299782,-42.8816838],[147.3302149,-42.8815022],[147.3300302,-42.8813762],[147.3299899,-42.8813487],[147.3298317,-42.8814695],[147.3298461,-42.8814782],[147.3295686,-42.8816892],[147.3295896,-42.8817059],[147.3296679,-42.8817681],[147.3298744,-42.8819363]]]},"properties":{"names":{"primary":"Telstra Centre","common":null,"rules":null},"sources":[{"property":"","dataset":"OpenStreetMap","license":"ODbL-1.0","record_id":"w205290138@6","update_time":"2026-04-28T10:55:30.000Z","confidence":null,"between":null,"provider":"osm","resource":"planet","version":"2026-08-02T00:00:00.000Z"}],"is_underground":false,"num_floors":3,"subtype":"commercial","class":"office","has_parts":true,"version":1}},
{"id":"55fdbf95-58b2-4bf2-8a18-84a85cd25866","type":"Feature","geometry":{"type":"Polygon","coordinates":[[[147.329281,-42.8816745],[147.3292396,-42.8816453],[147.3291594,-42.8815866],[147.3291965,-42.8815593],[147.3291016,-42.8814899],[147.3290638,-42.8815177],[147.3289216,-42.8814136],[147.3288617,-42.8813698],[147.3288525,-42.8813631],[147.3288206,-42.8813866],[147.3288358,-42.8813978],[147.3287437,-42.8814654],[147.3288214,-42.8815222],[147.3290625,-42.8816984],[147.329115,-42.8817368],[147.3291459,-42.8817141],[147.3291897,-42.8817456],[147.329235,-42.8817103],[147.329281,-42.8816745]]]},"properties":{"names":{"primary":"TasTAFE (Hobart Drysdale Campus)","common":null,"rules":null},"sources":[{"property":"","dataset":"OpenStreetMap","license":"ODbL-1.0","record_id":"w114368587@5","update_time":"2025-05-08T16:13:31.000Z","confidence":null,"between":null,"provider":"osm","resource":"planet","version":"2026-08-02T00:00:00.000Z"}],"is_underground":false,"num_floors":2,"subtype":"education","has_parts":true,"version":1}},
{"id":"b04081ab-14a3-4375-8c4a-337b48bce962","type":"Feature","geometry":{"type":"Polygon","coordinates":[[[147.3288617,-42.8813698],[147.3289216,-42.8814136],[147.3290638,-42.8815177],[147.3291016,-42.8814899],[147.3291965,-42.8815593],[147.3291594,-42.8815866],[147.3292396,-42.8816453],[147.329281,-42.8816745],[147.3294556,-42.8815317],[147.329192,-42.8812738],[147.3290921,-42.8813172],[147.3290294,-42.8813444],[147.3289577,-42.8813514],[147.328885,-42.8813576],[147.3288617,-42.8813698]]]},"properties":{"sources":[{"property":"","dataset":"OpenStreetMap","license":"ODbL-1.0","record_id":"w295481856@2","update_time":"2023-02-17T11:59:34.000Z","confidence":null,"between":null,"provider":"osm","resource":"planet","version":"2026-08-02T00:00:00.000Z"},{"property":"/properties/height","dataset":"Microsoft ML Buildings","license":"ODbL-1.0","record_id":null,"update_time":"2000-01-01T00:00:00.000Z","confidence":null,"between":null,"provider":"microsoft","resource":"ml_buildings","version":"2025-02-25"}],"height":17.007862091064453,"is_underground":false,"num_floors":3,"subtype":"commercial","class":"retail","has_parts":true,"version":2}},
{"id":"0cf9e40a-6dbb-4207-8983-72c01c3ef745","type":"Feature","geometry":{"type":"Polygon","coordinates":[[[147.3285168,-42.8814293],[147.3284131,-42.8813789],[147.3284064,-42.8813863],[147.3283781,-42.8814175],[147.3282256,-42.8816734],[147.3283287,-42.8817179],[147.3284285,-42.8816023],[147.3285287,-42.8814918],[147.328503,-42.8814783],[147.3285145,-42.8814656],[147.328538,-42.8814396],[147.3285168,-42.8814293]]]},"properties":{"sources":[{"property":"","dataset":"OpenStreetMap","license":"ODbL-1.0","record_id":"w1146982829@1","update_time":"2023-02-17T11:42:44.000Z","confidence":null,"between":null,"provider":"osm","resource":"planet","version":"2026-08-02T00:00:00.000Z"}],"is_underground":false,"num_floors":2,"subtype":"commercial","class":"retail","has_parts":false,"version":1}},
{"id":"a4645873-98ed-4369-9e1d-8089e8600225","type":"Feature","geometry":{"type":"Polygon","coordinates":[[[147.3293051,-42.8812247],[147.3292578,-42.8812526],[147.3295098,-42.8814821],[147.3296139,-42.8814022],[147.329518,-42.8813382],[147.329492,-42.8813198],[147.3294694,-42.8813374],[147.3293051,-42.8812247]]]},"properties":{"sources":[{"property":"","dataset":"OpenStreetMap","license":"ODbL-1.0","record_id":"w1146417545@4","update_time":"2023-11-14T04:36:10.000Z","confidence":null,"between":null,"provider":"osm","resource":"planet","version":"2026-08-02T00:00:00.000Z"}],"is_underground":false,"num_floors":2,"subtype":"commercial","class":"retail","has_parts":false,"version":1}},
{"id":"1b41c79e-ce62-4c4c-9a29-5c5db1ec24aa","type":"Feature","geometry":{"type":"Polygon","coordinates":[[[147.3298411,-42.881234],[147.3296698,-42.8811193],[147.3295528,-42.8812067],[147.3296189,-42.8812569],[147.329518,-42.8813382],[147.3296139,-42.8814022],[147.329624,-42.8814089],[147.3298411,-42.881234]]]},"properties":{"sources":[{"property":"","dataset":"OpenStreetMap","license":"ODbL-1.0","record_id":"w295479438@2","update_time":"2023-02-16T09:14:34.000Z","confidence":null,"between":null,"provider":"osm","resource":"planet","version":"2026-08-02T00:00:00.000Z"}],"is_underground":false,"num_floors":3,"subtype":"commercial","class":"retail","has_parts":false,"version":1}},
{"id":"80e83394-b1d4-41d9-afa4-c7d28915bc25","type":"Feature","geometry":{"type":"Polygon","coordinates":[[[147.3295576,-42.8810388],[147.3295646,-42.8810343],[147.3295307,-42.881012],[147.3293409,-42.8808645],[147.3293045,-42.8808885],[147.329283,-42.8809032],[147.329195,-42.8809634],[147.3290789,-42.8810384],[147.3289562,-42.8811196],[147.3289881,-42.8811454],[147.3290411,-42.8811893],[147.3290533,-42.8812015],[147.3291032,-42.8812423],[147.32914,-42.8812181],[147.329167,-42.8812396],[147.3292068,-42.881214],[147.329212,-42.8812187],[147.329352,-42.8811487],[147.3293763,-42.88117],[147.3294066,-42.8811516],[147.3294292,-42.8811347],[147.3295217,-42.8810656],[147.3295576,-42.8810388]]]},"properties":{"sources":[{"property":"","dataset":"OpenStreetMap","license":"ODbL-1.0","record_id":"w1074352577@2","update_time":"2023-02-16T09:14:34.000Z","confidence":null,"between":null,"provider":"osm","resource":"planet","version":"2026-08-02T00:00:00.000Z"}],"level":1,"is_underground":false,"has_parts":true,"version":1}},
{"id":"c73d7b9f-2964-4061-bc9e-0d92356be848","type":"Feature","geometry":{"type":"Polygon","coordinates":[[[147.3296698,-42.8811193],[147.3295576,-42.8810388],[147.3295217,-42.8810656],[147.3294292,-42.8811347],[147.3294066,-42.8811516],[147.3294623,-42.8811916],[147.329435,-42.881212],[147.3294587,-42.881229],[147.32952,-42.8811831],[147.3295528,-42.8812067],[147.3296698,-42.8811193]]]},"properties":{"sources":[{"property":"","dataset":"OpenStreetMap","license":"ODbL-1.0","record_id":"w295479458@2","update_time":"2023-02-16T09:14:34.000Z","confidence":null,"between":null,"provider":"osm","resource":"planet","version":"2026-08-02T00:00:00.000Z"}],"is_underground":false,"num_floors":4,"has_parts":false,"version":1}},
{"id":"11cf9496-3f0c-47cb-9832-efbf077d23e4","type":"Feature","geometry":{"type":"Polygon","coordinates":[[[147.329195,-42.8809634],[147.329283,-42.8809032],[147.3292219,-42.8808531],[147.3289536,-42.8806333],[147.3288968,-42.8806706],[147.3287371,-42.8807753],[147.3284711,-42.8809496],[147.3282722,-42.881072],[147.3283804,-42.8811564],[147.3283557,-42.8811726],[147.328385,-42.8811966],[147.3283865,-42.8811978],[147.3284141,-42.8812204],[147.3284353,-42.8812065],[147.3286067,-42.881347],[147.3287531,-42.8812511],[147.3287699,-42.8812646],[147.3287876,-42.8812788],[147.3287961,-42.8812731],[147.3288479,-42.8813155],[147.3289157,-42.8812686],[147.3289498,-42.8812487],[147.3290411,-42.8811893],[147.3289881,-42.8811454],[147.3289562,-42.8811196],[147.3290789,-42.8810384],[147.329195,-42.8809634]]]},"properties":{"names":{"primary":"Argyle Street Car Park","common":null,"rules":null},"sources":[{"property":"","dataset":"OpenStreetMap","license":"ODbL-1.0","record_id":"w58577206@13","update_time":"2026-04-27T05:32:12.000Z","confidence":null,"between":null,"provider":"osm","resource":"planet","version":"2026-08-02T00:00:00.000Z"}],"is_underground":false,"subtype":"transportation","class":"parking","has_parts":true,"version":1}},
{"id":"2690f6d2-7b14-44dd-9362-38bbb9d76b4f","type":"Feature","geometry":{"type":"Polygon","coordinates":[[[147.3295153,-42.8795392],[147.3294716,-42.8795095],[147.3294403,-42.8795343],[147.3295008,-42.8795753],[147.3293757,-42.8796743],[147.3293012,-42.8796244],[147.3292223,-42.8796875],[147.3292962,-42.8797372],[147.3292662,-42.8797609],[147.3291998,-42.8797163],[147.3290355,-42.8798476],[147.329101,-42.8798916],[147.3290256,-42.8799513],[147.3292535,-42.880106],[147.3294994,-42.8799114],[147.3295456,-42.8799428],[147.3295658,-42.8799267],[147.329522,-42.879897],[147.3297624,-42.8797068],[147.3295153,-42.8795392]]]},"properties":{"sources":[{"property":"","dataset":"OpenStreetMap","license":"ODbL-1.0","record_id":"w1146187258@1","update_time":"2023-02-16T06:47:57.000Z","confidence":null,"between":null,"provider":"osm","resource":"planet","version":"2026-08-02T00:00:00.000Z"}],"level":1,"is_underground":false,"num_floors":1,"subtype":"medical","class":"hospital","has_parts":true,"version":1}},
{"id":"4e7b6753-6d04-4eeb-9177-5d09e344e2d4","type":"Feature","geometry":{"type":"Polygon","coordinates":[[[147.3296164,-42.8805465],[147.3297155,-42.8804754],[147.3298278,-42.8805602],[147.3298611,-42.8805358],[147.3298962,-42.8805614],[147.3299123,-42.8805714],[147.3300374,-42.8804755],[147.330162,-42.8805627],[147.3301295,-42.8805877],[147.330177,-42.880622],[147.3302899,-42.8806994],[147.3304089,-42.8806064],[147.3304516,-42.8806357],[147.3307488,-42.8804031],[147.3309755,-42.8802202],[147.331008,-42.8802403],[147.3311496,-42.8801266],[147.3308573,-42.8799254],[147.3307852,-42.8799817],[147.3308994,-42.8800604],[147.330823,-42.8801174],[147.3305933,-42.8802964],[147.3304585,-42.8804018],[147.3304267,-42.8804243],[147.3303861,-42.8803969],[147.330441,-42.8803532],[147.3304308,-42.8803463],[147.3304566,-42.8803222],[147.3306671,-42.8801609],[147.3305976,-42.8801121],[147.3306913,-42.8800403],[147.3309173,-42.879867],[147.3307209,-42.8797295],[147.3304642,-42.8795496],[147.3303911,-42.8794984],[147.3303314,-42.8795453],[147.3302507,-42.8794891],[147.3302567,-42.8794209],[147.3299234,-42.8791939],[147.329816,-42.8792785],[147.3297693,-42.8792467],[147.3295425,-42.8794255],[147.3295749,-42.8794476],[147.329526,-42.8794861],[147.3295569,-42.8795071],[147.3295153,-42.8795392],[147.3297624,-42.8797068],[147.329774,-42.8797146],[147.3298157,-42.8796775],[147.3298654,-42.8797114],[147.3296716,-42.8798642],[147.3296572,-42.8798544],[147.3295658,-42.8799267],[147.3295456,-42.8799428],[147.3294504,-42.8800175],[147.3294116,-42.8799911],[147.3292267,-42.8801369],[147.3289574,-42.8799586],[147.328936,-42.8799625],[147.328827,-42.8800458],[147.3288401,-42.8800549],[147.3287817,-42.8800995],[147.3288431,-42.8801412],[147.3287938,-42.8801781],[147.329019,-42.880339],[147.3290389,-42.8803538],[147.3290584,-42.8803681],[147.3292835,-42.880518],[147.3293383,-42.8805543],[147.3293715,-42.880577],[147.3293983,-42.8805568],[147.329499,-42.8806295],[147.3295242,-42.8806127],[147.3296164,-42.8805465]]]},"properties":{"sources":[{"property":"","dataset":"OpenStreetMap","license":"ODbL-1.0","record_id":"w326652554@4","update_time":"2023-02-16T07:00:30.000Z","confidence":null,"between":null,"provider":"osm","resource":"planet","version":"2026-08-02T00:00:00.000Z"},{"property":"/properties/height","dataset":"Microsoft ML Buildings","license":"ODbL-1.0","record_id":null,"update_time":"2000-01-01T00:00:00.000Z","confidence":null,"between":null,"provider":"microsoft","resource":"ml_buildings","version":"2025-02-25"}],"height":11.025440216064453,"is_underground":false,"num_floors":1,"subtype":"medical","class":"hospital","has_parts":true,"version":2}},
{"id":"4a01b466-844f-422f-b66b-22aed0e57268","type":"Feature","geometry":{"type":"Polygon","coordinates":[[[147.3290389,-42.8803538],[147.329019,-42.880339],[147.3287909,-42.8805098],[147.3288087,-42.8805234],[147.3288261,-42.8805369],[147.3290584,-42.8803681],[147.3290389,-42.8803538]]]},"properties":{"sources":[{"property":"","dataset":"OpenStreetMap","license":"ODbL-1.0","record_id":"w326652025@4","update_time":"2023-02-16T08:29:48.000Z","confidence":null,"between":null,"provider":"osm","resource":"planet","version":"2026-08-02T00:00:00.000Z"}],"level":1,"is_underground":false,"num_floors":4,"min_floor":3,"has_parts":false,"version":1}},
{"id":"6158b5d0-35ff-4d39-a4a5-6ea42196bb8f","type":"Feature","geometry":{"type":"Polygon","coordinates":[[[147.3282511,-42.8804646],[147.3283972,-42.8805751],[147.3285228,-42.8804832],[147.3285694,-42.880519],[147.3285817,-42.8805135],[147.328694,-42.8804351],[147.3285676,-42.8803406],[147.3284737,-42.8802743],[147.3284684,-42.8802711],[147.3284625,-42.8802686],[147.3284561,-42.8802669],[147.3284494,-42.8802659],[147.3284426,-42.8802658],[147.3284359,-42.8802665],[147.3284294,-42.8802679],[147.3284233,-42.8802702],[147.3284178,-42.8802731],[147.328413,-42.8802766],[147.3282296,-42.8804483],[147.3282511,-42.8804646]]]},"properties":{"sources":[{"property":"","dataset":"OpenStreetMap","license":"ODbL-1.0","record_id":"w326655360@4","update_time":"2024-03-10T05:45:18.000Z","confidence":null,"between":null,"provider":"osm","resource":"planet","version":"2026-08-02T00:00:00.000Z"}],"is_underground":false,"num_floors":2,"subtype":"commercial","class":"retail","has_parts":false,"version":1}},
{"id":"f8039db0-81e4-47b0-bcad-807a102aedc1","type":"Feature","geometry":{"type":"Polygon","coordinates":[[[147.3288968,-42.8806706],[147.3289536,-42.8806333],[147.328864,-42.8805655],[147.3288261,-42.8805369],[147.3288087,-42.8805234],[147.3287909,-42.8805098],[147.328694,-42.8804351],[147.3285817,-42.8805135],[147.3285694,-42.880519],[147.3285331,-42.8805367],[147.328395,-42.8806258],[147.3282198,-42.8804896],[147.3282024,-42.8804757],[147.3278842,-42.88076],[147.3280102,-42.8808744],[147.3282382,-42.8810516],[147.3282546,-42.8810614],[147.3282722,-42.881072],[147.3284711,-42.8809496],[147.3287371,-42.8807753],[147.3288968,-42.8806706]]]},"properties":{"names":{"primary":"Wellington Centre","common":null,"rules":null},"sources":[{"property":"","dataset":"OpenStreetMap","license":"ODbL-1.0","record_id":"w58758529@15","update_time":"2025-01-23T01:22:03.000Z","confidence":null,"between":null,"provider":"osm","resource":"planet","version":"2026-08-02T00:00:00.000Z"},{"property":"/properties/height","dataset":"Microsoft ML Buildings","license":"ODbL-1.0","record_id":null,"update_time":"2000-01-01T00:00:00.000Z","confidence":null,"between":null,"provider":"microsoft","resource":"ml_buildings","version":"2025-02-25"}],"height":17.189189910888672,"is_underground":false,"num_floors":1,"subtype":"commercial","class":"retail","has_parts":true,"version":2}},
{"id":"8e2bfc8e-841f-42ae-8cf3-45be1bd864bc","type":"Feature","geometry":{"type":"Polygon","coordinates":[[[147.330182,-42.8808373],[147.3302045,-42.8808199],[147.3299883,-42.8806661],[147.3300066,-42.8806523],[147.3299774,-42.8806316],[147.3299587,-42.8806458],[147.3299252,-42.880622],[147.3299408,-42.8806104],[147.329916,-42.8805926],[147.329899,-42.8806053],[147.329867,-42.8805828],[147.3298962,-42.8805614],[147.3298611,-42.8805358],[147.3298278,-42.8805602],[147.3297155,-42.8804754],[147.3296164,-42.8805465],[147.3295242,-42.8806127],[147.329499,-42.8806295],[147.3294838,-42.8806387],[147.3295118,-42.880659],[147.329502,-42.8806662],[147.3295914,-42.8807315],[147.3295999,-42.8807253],[147.3296169,-42.8807377],[147.3295905,-42.8807571],[147.3296145,-42.8807746],[147.3296402,-42.8807557],[147.3296721,-42.880779],[147.329647,-42.8807975],[147.3296718,-42.8808156],[147.3296968,-42.8807972],[147.3297294,-42.880821],[147.3297041,-42.8808396],[147.3297317,-42.8808598],[147.329757,-42.8808412],[147.3299676,-42.8809946],[147.3299877,-42.8809798],[147.3300114,-42.880997],[147.3300339,-42.8809804],[147.3300102,-42.8809632],[147.3300464,-42.8809367],[147.3300713,-42.8809549],[147.3300943,-42.8809381],[147.3300694,-42.8809198],[147.330104,-42.8808952],[147.3301251,-42.8809108],[147.3301492,-42.8808933],[147.3301282,-42.8808777],[147.3301614,-42.8808531],[147.3301805,-42.8808665],[147.3302011,-42.8808507],[147.330182,-42.8808373]]]},"properties":{"names":{"primary":"Hobart Private Hospital","common":null,"rules":null},"sources":[{"property":"","dataset":"OpenStreetMap","license":"ODbL-1.0","record_id":"w80908544@11","update_time":"2026-04-27T05:18:16.000Z","confidence":null,"between":null,"provider":"osm","resource":"planet","version":"2026-08-02T00:00:00.000Z"},{"property":"/properties/height","dataset":"Microsoft ML Buildings","license":"ODbL-1.0","record_id":null,"update_time":"2000-01-01T00:00:00.000Z","confidence":null,"between":null,"provider":"microsoft","resource":"ml_buildings","version":"2025-02-25"}],"height":20.660846710205078,"is_underground":false,"num_floors":15,"subtype":"medical","class":"hospital","has_parts":true,"version":3}},
{"id":"1862c28c-620b-40bd-906c-01575824c6e5","type":"Feature","geometry":{"type":"Polygon","coordinates":[[[147.332115,-42.88109],[147.3323689,-42.8808965],[147.3322757,-42.8808303],[147.3322312,-42.8808002],[147.3318143,-42.8805032],[147.3317705,-42.880474],[147.331563,-42.8803265],[147.3313005,-42.8805283],[147.3315038,-42.880676],[147.3315482,-42.8807069],[147.3319745,-42.8809985],[147.3320163,-42.8810275],[147.332115,-42.88109]]]},"properties":{"names":{"primary":"City Hall","common":null,"rules":null},"sources":[{"property":"","dataset":"OpenStreetMap","license":"ODbL-1.0","record_id":"w59340574@10","update_time":"2025-03-08T00:40:35.000Z","confidence":null,"between":null,"provider":"osm","resource":"planet","version":"2026-08-02T00:00:00.000Z"},{"property":"/properties/height","dataset":"Microsoft ML Buildings","license":"ODbL-1.0","record_id":null,"update_time":"2000-01-01T00:00:00.000Z","confidence":null,"between":null,"provider":"microsoft","resource":"ml_buildings","version":"2025-02-25"}],"height":8.164233207702637,"is_underground":false,"num_floors":2,"subtype":"civic","class":"government","has_parts":true,"version":2}},
{"id":"e7f6c3cc-c3f9-485c-ac39-43af40fa1aa5","type":"Feature","geometry":{"type":"Polygon","coordinates":[[[147.330814,-42.8807879],[147.330564,-42.8809071],[147.3307051,-42.881096],[147.3309064,-42.8810193],[147.3310493,-42.880965],[147.3310208,-42.8809109],[147.3311634,-42.880871],[147.3313739,-42.880812],[147.3312358,-42.88071],[147.331203,-42.8807194],[147.3311732,-42.8806861],[147.3310941,-42.8806996],[147.331063,-42.8807363],[147.3310048,-42.8806998],[147.3309326,-42.8807332],[147.330814,-42.8807879]]]},"properties":{"sources":[{"property":"","dataset":"OpenStreetMap","license":"ODbL-1.0","record_id":"w1083989713@3","update_time":"2023-02-16T14:20:40.000Z","confidence":null,"between":null,"provider":"osm","resource":"planet","version":"2026-08-02T00:00:00.000Z"},{"property":"/properties/height","dataset":"Microsoft ML Buildings","license":"ODbL-1.0","record_id":null,"update_time":"2000-01-01T00:00:00.000Z","confidence":null,"between":null,"provider":"microsoft","resource":"ml_buildings","version":"2025-02-25"}],"level":1,"height":9.282227516174316,"is_underground":false,"num_floors":1,"has_parts":true,"version":2}},
{"id":"a94fa3e7-54ef-4907-9513-9e70c662fd53","type":"Feature","geometry":{"type":"Polygon","coordinates":[[[147.3304385,-42.8810013],[147.3303308,-42.8810804],[147.3303825,-42.8811511],[147.3304387,-42.8812279],[147.3305568,-42.8811791],[147.3304385,-42.8810013]]]},"properties":{"names":{"primary":"Ronald McDonald House","common":null,"rules":null},"sources":[{"property":"","dataset":"OpenStreetMap","license":"ODbL-1.0","record_id":"w323035629@9","update_time":"2025-03-08T00:40:35.000Z","confidence":null,"between":null,"provider":"osm","resource":"planet","version":"2026-08-02T00:00:00.000Z"}],"is_underground":false,"num_floors":3,"subtype":"commercial","class":"commercial","has_parts":false,"version":1}},
{"id":"f1e63215-fb69-4074-b562-f03315f5d352","type":"Feature","geometry":{"type":"Polygon","coordinates":[[[147.3303308,-42.8810804],[147.330169,-42.8812015],[147.3302092,-42.881231],[147.3301885,-42.8812456],[147.3302924,-42.8813195],[147.3304387,-42.8812279],[147.3305568,-42.8811791],[147.330662,-42.8813074],[147.3307553,-42.8812694],[147.3308117,-42.8812465],[147.3307246,-42.8811236],[147.3306955,-42.8811356],[147.3306668,-42.8811439],[147.3305972,-42.8810396],[147.330528,-42.8809356],[147.3304385,-42.8810013],[147.3303308,-42.8810804]]]},"properties":{"sources":[{"property":"","dataset":"OpenStreetMap","license":"ODbL-1.0","record_id":"w326660618@2","update_time":"2023-02-16T14:20:40.000Z","confidence":null,"between":null,"provider":"osm","resource":"planet","version":"2026-08-02T00:00:00.000Z"}],"is_underground":false,"has_parts":true,"version":1}},
{"id":"689a322a-55e2-44e1-be84-ba978a389adb","type":"Feature","geometry":{"type":"Polygon","coordinates":[[[147.33133,-42.8808955],[147.3313091,-42.8808661],[147.3310493,-42.880965],[147.3309064,-42.8810193],[147.3307051,-42.881096],[147.3307246,-42.8811236],[147.3308117,-42.8812465],[147.3309004,-42.8813716],[147.3311885,-42.8812644],[147.3314666,-42.8811564],[147.331504,-42.8811419],[147.3314772,-42.8811041],[147.3315362,-42.8810817],[147.3314839,-42.881008],[147.3314229,-42.880922],[147.3313884,-42.8808733],[147.33133,-42.8808955]]]},"properties":{"names":{"primary":"Market Place Car Park","common":null,"rules":null},"sources":[{"property":"","dataset":"OpenStreetMap","license":"ODbL-1.0","record_id":"w58577203@11","update_time":"2025-10-29T00:53:46.000Z","confidence":null,"between":null,"provider":"osm","resource":"planet","version":"2026-08-02T00:00:00.000Z"}],"is_underground":false,"num_floors":10,"subtype":"transportation","class":"parking","has_parts":false,"version":2}},
{"id":"1547b578-5ac0-4bf4-98c1-e919f68f779d","type":"Feature","geometry":{"type":"Polygon","coordinates":[[[147.331504,-42.8811419],[147.3316816,-42.8810279],[147.331576,-42.8809594],[147.3314839,-42.881008],[147.3315362,-42.8810817],[147.3314772,-42.8811041],[147.331504,-42.8811419]]]},"properties":{"sources":[{"property":"","dataset":"OpenStreetMap","license":"ODbL-1.0","record_id":"w1146512360@1","update_time":"2023-02-16T13:07:15.000Z","confidence":null,"between":null,"provider":"osm","resource":"planet","version":"2026-08-02T00:00:00.000Z"}],"is_underground":false,"num_floors":1,"subtype":"commercial","class":"retail","has_parts":false,"version":1}},
{"id":"71de5f19-2827-4bbf-86f7-10eb2d2b9507","type":"Feature","geometry":{"type":"Polygon","coordinates":[[[147.3316308,-42.8811575],[147.3317472,-42.8810828],[147.3316816,-42.8810279],[147.331504,-42.8811419],[147.3315696,-42.8811968],[147.3316308,-42.8811575]]]},"properties":{"sources":[{"property":"","dataset":"OpenStreetMap","license":"ODbL-1.0","record_id":"w1146512359@1","update_time":"2023-02-16T13:07:15.000Z","confidence":null,"between":null,"provider":"osm","resource":"planet","version":"2026-08-02T00:00:00.000Z"}],"is_underground":false,"num_floors":1,"subtype":"commercial","class":"retail","has_parts":false,"version":1}},
{"id":"648d42b6-3bb7-475c-894a-fd69f14a5362","type":"Feature","geometry":{"type":"Polygon","coordinates":[[[147.3307028,-42.8815199],[147.3308744,-42.8814433],[147.330796,-42.881323],[147.3307553,-42.8812694],[147.330662,-42.8813074],[147.3305568,-42.8811791],[147.3304387,-42.8812279],[147.3302924,-42.8813195],[147.3306309,-42.881557],[147.3307028,-42.8815199]]]},"properties":{"names":{"primary":"MBF Centre","common":null,"rules":null},"sources":[{"property":"","dataset":"OpenStreetMap","license":"ODbL-1.0","record_id":"w323035625@2","update_time":"2023-02-16T14:20:40.000Z","confidence":null,"between":null,"provider":"osm","resource":"planet","version":"2026-08-02T00:00:00.000Z"},{"property":"/properties/height","dataset":"Microsoft ML Buildings","license":"ODbL-1.0","record_id":null,"update_time":"2000-01-01T00:00:00.000Z","confidence":null,"between":null,"provider":"microsoft","resource":"ml_buildings","version":"2025-02-25"}],"height":17.417612075805664,"is_underground":false,"num_floors":7,"subtype":"commercial","class":"commercial","has_parts":true,"version":2}},
{"id":"34bbdbef-e1fc-4818-b821-a5921d1fef74","type":"Feature","geometry":{"type":"Polygon","coordinates":[[[147.3316703,-42.8813897],[147.3316543,-42.8813619],[147.3316315,-42.8813223],[147.3316162,-42.8812957],[147.3315696,-42.8811968],[147.331504,-42.8811419],[147.3314666,-42.8811564],[147.3311885,-42.8812644],[147.3312114,-42.881296],[147.3312415,-42.8813374],[147.3312902,-42.8814043],[147.3313029,-42.8814167],[147.331281,-42.8814283],[147.3313716,-42.8815191],[147.331384,-42.8815124],[147.3314474,-42.8815825],[147.3314738,-42.8816116],[147.331626,-42.881498],[147.3316821,-42.8814522],[147.3317188,-42.8814224],[147.3316703,-42.8813897]]]},"properties":{"sources":[{"property":"","dataset":"OpenStreetMap","license":"ODbL-1.0","record_id":"w326651270@9","update_time":"2026-04-28T10:55:30.000Z","confidence":null,"between":null,"provider":"osm","resource":"planet","version":"2026-08-02T00:00:00.000Z"}],"is_underground":false,"num_floors":1,"subtype":"commercial","class":"office","has_parts":true,"version":4}},
{"id":"74208aa2-62ed-46de-8fd3-2371c8fdd86c","type":"Feature","geometry":{"type":"Polygon","coordinates":[[[147.3312902,-42.8814043],[147.3312415,-42.8813374],[147.3311447,-42.8813983],[147.3311136,-42.8813657],[147.3310916,-42.8813398],[147.3309303,-42.8814171],[147.3309577,-42.8814456],[147.3309889,-42.8814783],[147.331053,-42.8815423],[147.3310697,-42.8815589],[147.3311049,-42.8815947],[147.3311465,-42.881637],[147.3312143,-42.8817001],[147.331291,-42.8817515],[147.3314738,-42.8816116],[147.3314474,-42.8815825],[147.331384,-42.8815124],[147.3313716,-42.8815191],[147.331281,-42.8814283],[147.3313029,-42.8814167],[147.3312902,-42.8814043]]]},"properties":{"sources":[{"property":"","dataset":"OpenStreetMap","license":"ODbL-1.0","record_id":"w1083989712@6","update_time":"2026-04-28T10:55:30.000Z","confidence":null,"between":null,"provider":"osm","resource":"planet","version":"2026-08-02T00:00:00.000Z"}],"is_underground":false,"num_floors":1,"subtype":"commercial","class":"office","has_parts":true,"version":2}},
{"id":"64ded7a1-3a90-4bef-869f-fc96dda1b1ba","type":"Feature","geometry":{"type":"Polygon","coordinates":[[[147.3307567,-42.8816398],[147.3308567,-42.8817166],[147.331011,-42.8816018],[147.3310697,-42.8815589],[147.331053,-42.8815423],[147.3309889,-42.8814783],[147.3307567,-42.8816398]]]},"properties":{"sources":[{"property":"","dataset":"OpenStreetMap","license":"ODbL-1.0","record_id":"w323035624@12","update_time":"2026-03-09T09:07:48.000Z","confidence":null,"between":null,"provider":"osm","resource":"planet","version":"2026-08-02T00:00:00.000Z"}],"is_underground":false,"num_floors":2,"subtype":"commercial","class":"retail","has_parts":false,"version":2}},
{"id":"d401a786-af29-4a61-b385-25ef24dbbf5f","type":"Feature","geometry":{"type":"Polygon","coordinates":[[[147.3309109,-42.8786081],[147.3307542,-42.8785031],[147.3304941,-42.8787118],[147.3306894,-42.8788425],[147.3307701,-42.8787778],[147.3307315,-42.878752],[147.3309109,-42.8786081]]]},"properties":{"sources":[{"property":"","dataset":"OpenStreetMap","license":"ODbL-1.0","record_id":"w295477730@2","update_time":"2023-02-15T09:01:47.000Z","confidence":null,"between":null,"provider":"osm","resource":"planet","version":"2026-08-02T00:00:00.000Z"},{"property":"/properties/height","dataset":"Microsoft ML Buildings","license":"ODbL-1.0","record_id":null,"update_time":"2000-01-01T00:00:00.000Z","confidence":null,"between":null,"provider":"microsoft","resource":"ml_buildings","version":"2025-02-25"}],"height":7.042861461639404,"is_underground":false,"num_floors":2,"has_parts":false,"version":2}},
{"id":"ffeceb4d-9fbc-4c1d-8786-ab8bb93d1e58","type":"Feature","geometry":{"type":"Polygon","coordinates":[[[147.3313975,-42.8785152],[147.3310295,-42.8785121],[147.3310278,-42.8786199],[147.3312317,-42.8786216],[147.3312308,-42.8786799],[147.3313228,-42.8786806],[147.3313237,-42.8786239],[147.3313958,-42.8786245],[147.3313975,-42.8785152]]]},"properties":{"names":{"primary":"University of Tasmania - Fountainside Accommodation","common":null,"rules":null},"sources":[{"property":"","dataset":"OpenStreetMap","license":"ODbL-1.0","record_id":"w188586179@14","update_time":"2025-03-08T00:40:35.000Z","confidence":null,"between":null,"provider":"osm","resource":"planet","version":"2026-08-02T00:00:00.000Z"}],"is_underground":false,"num_floors":8,"subtype":"residential","class":"residential","has_parts":false,"version":1}},
{"id":"36ff353a-4e32-4238-b3be-8dc797db39e0","type":"Feature","geometry":{"type":"Polygon","coordinates":[[[147.3315335,-42.8793109],[147.3313726,-42.8794487],[147.3314508,-42.8794977],[147.3313331,-42.8795986],[147.3312316,-42.8795696],[147.331085,-42.8796951],[147.3311802,-42.8797468],[147.3311384,-42.8797918],[147.3312996,-42.8798956],[147.3313459,-42.8799254],[147.3314229,-42.8799405],[147.3314944,-42.8799242],[147.3315111,-42.879936],[147.3316614,-42.8798225],[147.3316391,-42.8798087],[147.331658,-42.8797924],[147.3316799,-42.879806],[147.3318291,-42.8796779],[147.3317845,-42.87965],[147.3318064,-42.8796311],[147.3317805,-42.8796149],[147.3317928,-42.8796044],[147.3316443,-42.8795113],[147.3317314,-42.8794366],[147.331661,-42.8793925],[147.3315335,-42.8793109]]]},"properties":{"names":{"primary":"The Hedberg","common":null,"rules":null},"sources":[{"property":"","dataset":"OpenStreetMap","license":"ODbL-1.0","record_id":"w474285451@4","update_time":"2023-02-15T09:01:47.000Z","confidence":null,"between":null,"provider":"osm","resource":"planet","version":"2026-08-02T00:00:00.000Z"},{"property":"/properties/height","dataset":"Microsoft ML Buildings","license":"ODbL-1.0","record_id":null,"update_time":"2000-01-01T00:00:00.000Z","confidence":null,"between":null,"provider":"microsoft","resource":"ml_buildings","version":"2025-02-25"}],"level":1,"height":14.33212947845459,"is_underground":false,"num_floors":2,"subtype":"education","class":"university","has_parts":true,"version":2}},
{"id":"a040dc00-6d92-46bd-b641-09a9e373690e","type":"Feature","geometry":{"type":"Polygon","coordinates":[[[147.330858,-42.8793855],[147.3307736,-42.8793444],[147.3306526,-42.8794355],[147.3306376,-42.8794468],[147.3307594,-42.8795277],[147.3308437,-42.8795817],[147.3308663,-42.8795804],[147.3310285,-42.8794341],[147.33088,-42.8793418],[147.330858,-42.8793855]]]},"properties":{"sources":[{"property":"","dataset":"OpenStreetMap","license":"ODbL-1.0","record_id":"w1145591658@1","update_time":"2023-02-15T09:01:47.000Z","confidence":null,"between":null,"provider":"osm","resource":"planet","version":"2026-08-02T00:00:00.000Z"}],"is_underground":false,"has_parts":true,"version":1}},
{"id":"c6eb2607-e2a6-495b-9bf5-0e6a8e2e2fa3","type":"Feature","geometry":{"type":"Polygon","coordinates":[[[147.3315335,-42.8793109],[147.3313928,-42.8792227],[147.3309101,-42.8796364],[147.3310507,-42.8797245],[147.331085,-42.8796951],[147.3312316,-42.8795696],[147.3313726,-42.8794487],[147.3315335,-42.8793109]]]},"properties":{"names":{"primary":"Theatre Royal","common":null,"rules":null},"sources":[{"property":"","dataset":"OpenStreetMap","license":"ODbL-1.0","record_id":"w188586180@5","update_time":"2023-02-15T09:01:47.000Z","confidence":null,"between":null,"provider":"osm","resource":"planet","version":"2026-08-02T00:00:00.000Z"}],"is_underground":false,"num_floors":2,"subtype":"entertainment","has_parts":false,"version":1}},
{"id":"a0ca1d83-eb15-4f70-9fb3-a64954c95962","type":"Feature","geometry":{"type":"Polygon","coordinates":[[[147.3307899,-42.8793321],[147.3306836,-42.8792563],[147.3305312,-42.8793709],[147.3306376,-42.8794468],[147.3306526,-42.8794355],[147.3307736,-42.8793444],[147.3307899,-42.8793321]]]},"properties":{"sources":[{"property":"","dataset":"OpenStreetMap","license":"ODbL-1.0","record_id":"w295477754@5","update_time":"2023-06-30T05:55:35.000Z","confidence":null,"between":null,"provider":"osm","resource":"planet","version":"2026-08-02T00:00:00.000Z"}],"is_underground":false,"num_floors":2,"subtype":"residential","class":"residential","has_parts":false,"version":1}},
{"id":"0e8f7f65-7e9d-4571-b717-76a34e3bf834","type":"Feature","geometry":{"type":"Polygon","coordinates":[[[147.3317831,-42.8789478],[147.3315926,-42.8788967],[147.3314371,-42.8791424],[147.3315953,-42.8792426],[147.3317831,-42.8789478]]]},"properties":{"sources":[{"property":"","dataset":"OpenStreetMap","license":"ODbL-1.0","record_id":"w295477728@2","update_time":"2023-02-15T09:01:47.000Z","confidence":null,"between":null,"provider":"osm","resource":"planet","version":"2026-08-02T00:00:00.000Z"}],"is_underground":false,"num_floors":2,"subtype":"residential","class":"residential","has_parts":false,"version":1}},
{"id":"288942b1-499c-4153-8965-a26a04f8faac","type":"Feature","geometry":{"type":"Polygon","coordinates":[[[147.3311156,-42.8793576],[147.331336,-42.879065],[147.3311702,-42.878998],[147.3309499,-42.8792906],[147.3311156,-42.8793576]]]},"properties":{"sources":[{"property":"","dataset":"OpenStreetMap","license":"ODbL-1.0","record_id":"w295477761@2","update_time":"2023-02-15T09:01:47.000Z","confidence":null,"between":null,"provider":"osm","resource":"planet","version":"2026-08-02T00:00:00.000Z"},{"property":"/properties/height","dataset":"Microsoft ML Buildings","license":"ODbL-1.0","record_id":null,"update_time":"2000-01-01T00:00:00.000Z","confidence":null,"between":null,"provider":"microsoft","resource":"ml_buildings","version":"2025-02-25"}],"height":14.090455055236816,"is_underground":false,"num_floors":3,"subtype":"residential","class":"residential","has_parts":false,"version":2}},
{"id":"9a9953f1-2a6a-425f-ae7f-bb787b649734","type":"Feature","geometry":{"type":"Polygon","coordinates":[[[147.3313512,-42.878934],[147.3314022,-42.8788161],[147.3313212,-42.8787889],[147.3312434,-42.8787849],[147.3311227,-42.8787869],[147.3310181,-42.8788144],[147.3309108,-42.8788557],[147.3308336,-42.8789026],[147.330774,-42.8789481],[147.3306941,-42.8789773],[147.330745,-42.879107],[147.3308684,-42.8790775],[147.3309677,-42.8790244],[147.3310213,-42.8789694],[147.3310937,-42.878932],[147.3311715,-42.8789163],[147.3312627,-42.8789163],[147.3313512,-42.878934]]]},"properties":{"sources":[{"property":"","dataset":"OpenStreetMap","license":"ODbL-1.0","record_id":"w295477763@2","update_time":"2023-02-15T09:01:47.000Z","confidence":null,"between":null,"provider":"osm","resource":"planet","version":"2026-08-02T00:00:00.000Z"}],"is_underground":false,"num_floors":2,"subtype":"residential","class":"residential","has_parts":false,"version":1}},
{"id":"e30d7a60-356c-4d19-9441-8b06481975fe","type":"Feature","geometry":{"type":"Polygon","coordinates":[[[147.3290174,-42.8787443],[147.3291563,-42.8786386],[147.3289651,-42.8785037],[147.3286815,-42.8787196],[147.3285395,-42.8788186],[147.3287648,-42.8789778],[147.3287803,-42.8789887],[147.328802,-42.8789891],[147.3288154,-42.8789841],[147.3288278,-42.8789705],[147.3289196,-42.8788925],[147.3287917,-42.8787973],[147.3289364,-42.8786871],[147.3290174,-42.8787443]]]},"properties":{"sources":[{"property":"","dataset":"OpenStreetMap","license":"ODbL-1.0","record_id":"w1147251122@1","update_time":"2023-02-18T03:25:34.000Z","confidence":null,"between":null,"provider":"osm","resource":"planet","version":"2026-08-02T00:00:00.000Z"}],"is_underground":false,"has_parts":true,"version":1}},
{"id":"38e099d7-cff6-46d6-9fa2-26f46de2cbed","type":"Feature","geometry":{"type":"Polygon","coordinates":[[[147.3290743,-42.8789504],[147.3293149,-42.8787424],[147.3291837,-42.8786474],[147.3290119,-42.8787926],[147.3290224,-42.8787993],[147.3289196,-42.8788925],[147.3288278,-42.8789705],[147.3288154,-42.8789841],[147.328802,-42.8789891],[147.3287803,-42.8789887],[147.3287648,-42.8789778],[147.3286992,-42.8790255],[147.3287157,-42.8790429],[147.328698,-42.8790561],[147.3286492,-42.8790924],[147.3287341,-42.879152499999996],[147.3289083,-42.8790156],[147.3289616,-42.8790467],[147.3290218,-42.879075],[147.329056,-42.8790487],[147.3290608,-42.8790454],[147.329072,-42.8790243],[147.3290866,-42.8790057],[147.3291147,-42.8789798],[147.3290743,-42.8789504]]]},"properties":{"sources":[{"property":"","dataset":"OpenStreetMap","license":"ODbL-1.0","record_id":"w295477775@3","update_time":"2023-02-18T03:30:17.000Z","confidence":null,"between":null,"provider":"osm","resource":"planet","version":"2026-08-02T00:00:00.000Z"}],"is_underground":false,"num_floors":3,"has_parts":false,"version":1}},
{"id":"3169784a-d948-464d-90cd-4c512faf603e","type":"Feature","geometry":{"type":"Polygon","coordinates":[[[147.3287157,-42.8790429],[147.3286992,-42.8790255],[147.3286705,-42.879021],[147.3286396,-42.8790434],[147.328698,-42.8790561],[147.3287157,-42.8790429]]]},"properties":{"sources":[{"property":"","dataset":"OpenStreetMap","license":"ODbL-1.0","record_id":"w1147251497@1","update_time":"2023-02-18T03:30:17.000Z","confidence":null,"between":null,"provider":"osm","resource":"planet","version":"2026-08-02T00:00:00.000Z"}],"is_underground":false,"num_floors":3,"min_floor":2,"has_parts":false,"version":1}},
{"id":"293f67bb-4295-43de-8f26-ffb404ec0065","type":"Feature","geometry":{"type":"Polygon","coordinates":[[[147.3287204,-42.8789848],[147.3285539,-42.8788616],[147.328288,-42.8790545],[147.3284544,-42.8791777],[147.3286101,-42.8790648],[147.3286396,-42.8790434],[147.3286705,-42.879021],[147.3287204,-42.8789848]]]},"properties":{"sources":[{"property":"","dataset":"OpenStreetMap","license":"ODbL-1.0","record_id":"w295477748@3","update_time":"2023-02-18T03:30:17.000Z","confidence":null,"between":null,"provider":"osm","resource":"planet","version":"2026-08-02T00:00:00.000Z"}],"is_underground":false,"num_floors":2,"has_parts":false,"version":1}},
{"id":"2228d132-fdec-45a9-a994-87518b807ff1","type":"Feature","geometry":{"type":"Polygon","coordinates":[[[147.32917080000001,-42.879128],[147.3291084,-42.8790853],[147.3289517,-42.8792003],[147.3289201,-42.8792251],[147.3290704,-42.8793272],[147.3291879,-42.8794063],[147.3292843,-42.8793297],[147.3292146,-42.8792815],[147.3293924,-42.8791467],[147.3294028,-42.8791492],[147.3294135,-42.879149],[147.3294266,-42.8791457],[147.3294929,-42.8790988],[147.3294788,-42.8790894],[147.329586,-42.8790039],[147.3295459,-42.8789769],[147.3295228,-42.8789921],[147.3294145,-42.8790738],[147.3294183,-42.8790767],[147.3294205,-42.8790796],[147.3294221,-42.8790824],[147.3294235,-42.8790859],[147.3294246,-42.8790898],[147.3294245,-42.8790935],[147.329424,-42.8790972],[147.3294231,-42.8791003],[147.3294215,-42.8791036],[147.3294188,-42.8791072],[147.3294165,-42.8791104],[147.3294128,-42.8791135],[147.3294083,-42.8791157],[147.3294048,-42.8791167],[147.3294023,-42.8791175],[147.3293975,-42.8791182],[147.3293935,-42.8791188],[147.3293894,-42.8791191],[147.329386,-42.8791191],[147.3293815,-42.8791191],[147.3293784,-42.8791188],[147.3293752,-42.8791183],[147.3293725,-42.8791174],[147.3293677,-42.8791156],[147.3293635,-42.8791126],[147.3293579,-42.8791164],[147.3293551,-42.8791196],[147.3293521,-42.8791221],[147.3293479,-42.8791252],[147.3293434,-42.8791283],[147.3293385,-42.8791315],[147.3293333,-42.8791343],[147.329327,-42.8791381],[147.3293214,-42.8791406],[147.329316,-42.8791424],[147.3293094,-42.8791447],[147.3293014,-42.8791469],[147.3292932,-42.8791494],[147.3292849,-42.8791508],[147.3292774,-42.879152],[147.3292693,-42.879152499999996],[147.3292595,-42.8791529],[147.3292508,-42.8791532],[147.329241,-42.8791527],[147.3292321,-42.8791523],[147.3292239,-42.8791504],[147.3292152,-42.8791484],[147.3292056,-42.8791457],[147.3291977,-42.8791424],[147.3291884,-42.8791383],[147.3291805,-42.8791338],[147.32917080000001,-42.879128]]]},"properties":{"names":{"primary":"Hobart Magistrates Court","common":null,"rules":null},"sources":[{"property":"","dataset":"OpenStreetMap","license":"ODbL-1.0","record_id":"w1147251133@3","update_time":"2024-01-01T09:46:31.000Z","confidence":null,"between":null,"provider":"osm","resource":"planet","version":"2026-08-02T00:00:00.000Z"}],"is_underground":false,"num_floors":3,"subtype":"civic","has_parts":false,"version":1}},
{"id":"16579af6-ff07-498b-8e0e-b1c6a78e50d9","type":"Feature","geometry":{"type":"Polygon","coordinates":[[[147.3294266,-42.8791457],[147.3294929,-42.8790988],[147.3294788,-42.8790894],[147.329586,-42.8790039],[147.3295459,-42.8789769],[147.3295748,-42.8789538],[147.3295403,-42.8789287],[147.3295494,-42.8789211],[147.3293124,-42.8787566],[147.3292498,-42.8788049],[147.3292656,-42.8788159],[147.3291706,-42.8788847],[147.3292128,-42.8789158],[147.329171,-42.878949],[147.3291497,-42.878958],[147.3291322,-42.878967],[147.3291147,-42.8789798],[147.3290866,-42.8790057],[147.329072,-42.8790243],[147.3290608,-42.8790454],[147.329056,-42.8790487],[147.3290218,-42.879075],[147.3289026,-42.8791667],[147.3289517,-42.8792003],[147.3289201,-42.8792251],[147.3290704,-42.8793272],[147.3291879,-42.8794063],[147.3292843,-42.8793297],[147.3292146,-42.8792815],[147.3293924,-42.8791467],[147.3294028,-42.8791492],[147.3294135,-42.879149],[147.3294266,-42.8791457]]]},"properties":{"sources":[{"property":"","dataset":"OpenStreetMap","license":"ODbL-1.0","record_id":"w295477769@2","update_time":"2023-02-18T03:25:34.000Z","confidence":null,"between":null,"provider":"osm","resource":"planet","version":"2026-08-02T00:00:00.000Z"}],"is_underground":false,"has_parts":true,"version":1}},
{"id":"3ef1cf2a-a01a-4676-a041-eadbf404d277","type":"Feature","geometry":{"type":"Polygon","coordinates":[[[147.3296621,-42.8790002],[147.3295832,-42.8789471],[147.3295748,-42.8789538],[147.3295459,-42.8789769],[147.329586,-42.8790039],[147.3294788,-42.8790894],[147.3294929,-42.8790988],[147.3295324,-42.8791254],[147.3296618,-42.8790222],[147.3296621,-42.8790002]]]},"properties":{"sources":[{"property":"","dataset":"OpenStreetMap","license":"ODbL-1.0","record_id":"w1147251127@1","update_time":"2023-02-18T03:25:34.000Z","confidence":null,"between":null,"provider":"osm","resource":"planet","version":"2026-08-02T00:00:00.000Z"}],"is_underground":false,"num_floors":2,"subtype":"commercial","class":"retail","has_parts":false,"version":1}},
{"id":"0071e66f-da2b-4829-a814-4ea8cc1959f1","type":"Feature","geometry":{"type":"Polygon","coordinates":[[[147.3303803,-42.878818],[147.3303347,-42.878822],[147.3300772,-42.8790264],[147.3300799,-42.8790696],[147.3304552,-42.8793259],[147.330628,-42.87919],[147.3304379,-42.8790602],[147.330576,-42.8789515],[147.3303803,-42.878818]]]},"properties":{"sources":[{"property":"","dataset":"OpenStreetMap","license":"ODbL-1.0","record_id":"w295477781@2","update_time":"2023-02-15T09:01:47.000Z","confidence":null,"between":null,"provider":"osm","resource":"planet","version":"2026-08-02T00:00:00.000Z"},{"property":"/properties/height","dataset":"Microsoft ML Buildings","license":"ODbL-1.0","record_id":null,"update_time":"2000-01-01T00:00:00.000Z","confidence":null,"between":null,"provider":"microsoft","resource":"ml_buildings","version":"2025-02-25"}],"height":6.7789225578308105,"is_underground":false,"num_floors":2,"subtype":"commercial","class":"retail","has_parts":false,"version":2}},
{"id":"6b4162e9-c8ea-4976-9ebb-d22569ced24f","type":"Feature","geometry":{"type":"Polygon","coordinates":[[[147.3290616,-42.8794487],[147.3289938,-42.8794013],[147.3288679,-42.8794977],[147.3288578,-42.8794849],[147.328779,-42.8795449],[147.3287936,-42.8795552],[147.3287304,-42.8796034],[147.3287079,-42.8795875],[147.3285686,-42.8796937],[147.328694,-42.879782],[147.3288348,-42.8796747],[147.3288452,-42.879682],[147.3290965,-42.8794898],[147.3290503,-42.8794574],[147.3290616,-42.8794487]]]},"properties":{"names":{"primary":"City Police Station","common":null,"rules":null},"sources":[{"property":"","dataset":"OpenStreetMap","license":"ODbL-1.0","record_id":"w295477759@5","update_time":"2023-02-18T03:25:34.000Z","confidence":null,"between":null,"provider":"osm","resource":"planet","version":"2026-08-02T00:00:00.000Z"}],"is_underground":false,"num_floors":3,"subtype":"civic","has_parts":false,"version":1}},
{"id":"c886a116-186d-4b0a-b774-01804a60ef0a","type":"Feature","geometry":{"type":"Polygon","coordinates":[[[147.3285721,-42.8797923],[147.3283977,-42.8796689],[147.3283311,-42.8797194],[147.3283876,-42.8797594],[147.3283536,-42.8797853],[147.3282958,-42.8797444],[147.3282295,-42.8797947],[147.3284049,-42.8799189],[147.3284588,-42.879878],[147.3284898,-42.8798783],[147.3285228,-42.8798566],[147.3285208,-42.8798312],[147.3285721,-42.8797923]]]},"properties":{"sources":[{"property":"","dataset":"OpenStreetMap","license":"ODbL-1.0","record_id":"w295477741@2","update_time":"2023-02-18T03:25:34.000Z","confidence":null,"between":null,"provider":"osm","resource":"planet","version":"2026-08-02T00:00:00.000Z"},{"property":"/properties/height","dataset":"Microsoft ML Buildings","license":"ODbL-1.0","record_id":null,"update_time":"2000-01-01T00:00:00.000Z","confidence":null,"between":null,"provider":"microsoft","resource":"ml_buildings","version":"2025-02-25"}],"height":9.440939903259277,"is_underground":false,"num_floors":2,"has_parts":false,"version":2}},
{"id":"5291a593-606f-4a96-80d8-416e74a124d9","type":"Feature","geometry":{"type":"Polygon","coordinates":[[[147.328412,-42.8792096],[147.328221,-42.8790764],[147.3279322,-42.8792923],[147.3280954,-42.8794095],[147.3281231,-42.8794282],[147.3281804,-42.8794719],[147.3281973,-42.8794827],[147.3282389,-42.8795126],[147.328306,-42.8795634],[147.3282274,-42.8796238],[147.3282678,-42.879652],[147.3281658,-42.8797305],[147.3281235,-42.879701],[147.3280663,-42.879745],[147.3281569,-42.8798082],[147.3283947,-42.8796254],[147.3285216,-42.8797165],[147.3285686,-42.8796937],[147.3287079,-42.8795875],[147.3287841,-42.8795258],[147.3288163,-42.8795029],[147.3286649,-42.8793958],[147.3285953,-42.8793466],[147.3285396,-42.8793],[147.3285311,-42.879294],[147.328412,-42.8792096]]]},"properties":{"sources":[{"property":"","dataset":"OpenStreetMap","license":"ODbL-1.0","record_id":"w295477768@5","update_time":"2026-07-31T22:14:55.000Z","confidence":null,"between":null,"provider":"osm","resource":"planet","version":"2026-08-02T00:00:00.000Z"}],"is_underground":false,"num_floors":5,"has_parts":true,"version":1}},
{"id":"0e6e70ac-0e0b-4f8b-bc39-19afca3ad135","type":"Feature","geometry":{"type":"Polygon","coordinates":[[[147.3290375,-42.8793525],[147.3290704,-42.8793272],[147.3289201,-42.8792251],[147.3289517,-42.8792003],[147.3289026,-42.8791667],[147.3288916,-42.8791592],[147.3288242,-42.8791139],[147.3287682,-42.8791579],[147.3287589,-42.8791515],[147.3287274,-42.8791762],[147.3287044,-42.879208],[147.3286594,-42.8792433],[147.3287224,-42.8792864],[147.3286457,-42.8793427],[147.3288527,-42.8794817],[147.3289289,-42.8794296],[147.3289585,-42.8794071],[147.3289471,-42.8793991],[147.3290215,-42.8793425],[147.3290375,-42.8793525]]]},"properties":{"sources":[{"property":"","dataset":"OpenStreetMap","license":"ODbL-1.0","record_id":"w295477752@2","update_time":"2023-02-18T03:25:34.000Z","confidence":null,"between":null,"provider":"osm","resource":"planet","version":"2026-08-02T00:00:00.000Z"}],"is_underground":false,"has_parts":true,"version":1}},
{"id":"7ce706ba-f585-4ac8-b5e0-fb9393eb88fc","type":"Feature","geometry":{"type":"Polygon","coordinates":[[[147.3286318,-42.8784725],[147.3285184,-42.8783952],[147.3283062,-42.8785623],[147.3284196,-42.8786396],[147.3286318,-42.8784725]]]},"properties":{"sources":[{"property":"","dataset":"OpenStreetMap","license":"ODbL-1.0","record_id":"w295477776@1","update_time":"2014-08-02T11:30:38.000Z","confidence":null,"between":null,"provider":"osm","resource":"planet","version":"2026-08-02T00:00:00.000Z"},{"property":"/properties/height","dataset":"Microsoft ML Buildings","license":"ODbL-1.0","record_id":null,"update_time":"2000-01-01T00:00:00.000Z","confidence":null,"between":null,"provider":"microsoft","resource":"ml_buildings","version":"2025-02-25"}],"height":5.723711013793945,"is_underground":false,"has_parts":false,"version":2}},
{"id":"60e0c111-d40c-4c4d-b070-36811340367d","type":"Feature","geometry":{"type":"Polygon","coordinates":[[[147.3298379,-42.8782437],[147.329789,-42.8781901],[147.3297021,-42.8782518],[147.32962,-42.8783101],[147.3295779,-42.8783401],[147.3295374,-42.8783688],[147.3296568,-42.878512],[147.3296664,-42.878524],[147.3296502,-42.8785501],[147.329599,-42.8786252],[147.3295752,-42.8786591],[147.3295651,-42.8786738],[147.3295649,-42.8786888],[147.3295743,-42.8787009],[147.3298408,-42.8788871],[147.3298702,-42.8788644],[147.3300621,-42.8787075],[147.330306,-42.8785291],[147.3302164,-42.8784717],[147.3301353,-42.8784197],[147.3300205,-42.8784409],[147.3299689,-42.8784355],[147.3299817,-42.8784193],[147.3299796,-42.878399],[147.3298379,-42.8782437]]]},"properties":{"names":{"primary":"MS1","common":null,"rules":null},"sources":[{"property":"","dataset":"OpenStreetMap","license":"ODbL-1.0","record_id":"w224363102@4","update_time":"2026-05-13T22:10:14.000Z","confidence":null,"between":null,"provider":"osm","resource":"planet","version":"2026-08-02T00:00:00.000Z"}],"is_underground":false,"subtype":"education","class":"university","has_parts":true,"version":2}},
{"id":"2dd10830-00ea-4313-b0b6-8fcc986e7e2a","type":"Feature","geometry":{"type":"Polygon","coordinates":[[[147.3296287,-42.8785361],[147.3294533,-42.8784247],[147.3293632,-42.8785007],[147.3294665,-42.8785664],[147.3294291,-42.878598],[147.3295012,-42.8786438],[147.3296287,-42.8785361]]]},"properties":{"sources":[{"property":"","dataset":"OpenStreetMap","license":"ODbL-1.0","record_id":"w1145591669@1","update_time":"2023-02-15T09:01:47.000Z","confidence":null,"between":null,"provider":"osm","resource":"planet","version":"2026-08-02T00:00:00.000Z"}],"is_underground":false,"num_floors":3,"subtype":"residential","class":"house","has_parts":false,"version":1}},
{"id":"e17dd99e-3e0a-4949-bb08-120882881156","type":"Feature","geometry":{"type":"Polygon","coordinates":[[[147.3294162,-42.8784139],[147.3292961,-42.8783331],[147.3292588,-42.8783629],[147.3292118,-42.8783313],[147.3291537,-42.8783777],[147.3291533,-42.8784051],[147.329302,-42.8785051],[147.3294162,-42.8784139]]]},"properties":{"sources":[{"property":"","dataset":"OpenStreetMap","license":"ODbL-1.0","record_id":"w295477764@2","update_time":"2023-02-15T09:01:47.000Z","confidence":null,"between":null,"provider":"osm","resource":"planet","version":"2026-08-02T00:00:00.000Z"}],"is_underground":false,"has_parts":false,"version":1}}]}